{
"type": "FeatureCollection",
"name": "13011",
"crs": { "type": "name", "properties": { "name": "urn:ogc:def:crs:OGC:1.3:CRS84" } },
"features": [
{ "type": "Feature", "properties": { "area_km2": 4.2371811719799997, "PROJECT_NO": 13011.0, "NAME": "Alcatel", "TYPE": "OTH", "NO": 0, "status": "COMPLETED", "geotechnic": null, "ORIG_FID": 13, "Shape_Leng": 36054.729594999997, "Shape_Area": 4237181.1719899997 }, "geometry": { "type": "MultiPolygon", "coordinates": [ [ [ [ 18.561439829431961, 54.529650639586109, 0.0 ], [ 18.563964890187872, 54.530903359679954, 0.0 ], [ 18.564294389966211, 54.538105030263267, 0.0 ], [ 18.574376669515583, 54.542963030217621, 0.0 ], [ 18.610977280007738, 54.574759919606592, 0.0 ], [ 18.755314940699762, 54.615643359647471, 0.0 ], [ 18.7787172497485, 54.617557389710647, 0.0 ], [ 18.778724809435765, 54.61751564002244, 0.0 ], [ 18.778749670009979, 54.617147580125852, 0.0 ], [ 18.778775609636714, 54.616949749570004, 0.0 ], [ 18.778763170697601, 54.616653969797333, 0.0 ], [ 18.763248029949764, 54.615385439957201, 0.0 ], [ 18.613610890694513, 54.573007939706592, 0.0 ], [ 18.577274830043134, 54.541442389988489, 0.0 ], [ 18.568108920278696, 54.537026220231475, 0.0 ], [ 18.567862719808023, 54.531656079996822, 0.0 ], [ 18.562745720362706, 54.529117640464811, 0.0 ], [ 18.561447109355104, 54.529111470237972, 0.0 ], [ 18.561439829431961, 54.529650639586109, 0.0 ] ] ] ] } }
]
}
