{
"type": "FeatureCollection",
"name": "16002",
"crs": { "type": "name", "properties": { "name": "urn:ogc:def:crs:OGC:1.3:CRS84" } },
"features": [
{ "type": "Feature", "properties": { "area_km2": 482.80284496399997, "PROJECT_NO": 16002.0, "NAME": "Baltica 2 Baltica 3 [PGE EO]", "TYPE": "OWF", "NO": 0, "status": "COMPLETED", "geotechnic": null, "ORIG_FID": 7, "Shape_Leng": 123705.800363, "Shape_Area": 482802844.96399999 }, "geometry": { "type": "MultiPolygon", "coordinates": [ [ [ [ 16.974723534171332, 54.996761718592637, 0.0 ], [ 16.967268925603214, 54.998829605196718, 0.0 ], [ 16.961135781695326, 55.002025203156172, 0.0 ], [ 16.956825264079839, 55.006087571853982, 0.0 ], [ 16.954690020964435, 55.010684909460366, 0.0 ], [ 16.933764539719817, 55.112340426021433, 0.0 ], [ 16.934251890875764, 55.117898929550151, 0.0 ], [ 16.937909795116099, 55.123054518258009, 0.0 ], [ 16.944330184138458, 55.127230477529004, 0.0 ], [ 16.952795348046692, 55.12995951433868, 0.0 ], [ 16.962358109895522, 55.130936164827872, 0.0 ], [ 17.030178594027166, 55.131241573025207, 0.0 ], [ 17.034476017203257, 55.131076706942771, 0.0 ], [ 17.094244361535885, 55.12619752786641, 0.0 ], [ 17.163531093429597, 55.121463957965489, 0.0 ], [ 17.226637355300788, 55.117155040600764, 0.0 ], [ 17.261006160335857, 55.123451849124386, 0.0 ], [ 17.269706501898057, 55.124240534283693, 0.0 ], [ 17.278419162190282, 55.123497775240324, 0.0 ], [ 17.286341907211906, 55.121291957841322, 0.0 ], [ 17.292745479116046, 55.117826162294776, 0.0 ], [ 17.297040874683688, 55.113419413592332, 0.0 ], [ 17.298833546684548, 55.108477236187014, 0.0 ], [ 17.302094643357723, 55.073053705307679, 0.0 ], [ 17.302383029065222, 55.070059650414677, 0.0 ], [ 17.320316944702419, 55.069747329893907, 0.0 ], [ 17.361815864805646, 55.070992686519766, 0.0 ], [ 17.359487178771307, 55.096721044407914, 0.0 ], [ 17.360440411137617, 55.101899298570913, 0.0 ], [ 17.364137896577581, 55.106655233429315, 0.0 ], [ 17.370218524733485, 55.110523227193738, 0.0 ], [ 17.378087385269222, 55.113124466288689, 0.0 ], [ 17.386973928828283, 55.114204136940977, 0.0 ], [ 17.454143008271483, 55.116179562987725, 0.0 ], [ 17.551234356719316, 55.119002628514281, 0.0 ], [ 17.55988648192767, 55.118503378736868, 0.0 ], [ 17.567892274619435, 55.116557951827815, 0.0 ], [ 17.574533389557736, 55.113340935796074, 0.0 ], [ 17.579214304036583, 55.10914098762931, 0.0 ], [ 17.581515774181948, 55.104334861820966, 0.0 ], [ 17.581232278398407, 55.099353553106198, 0.0 ], [ 17.56926733841518, 55.062224701096795, 0.0 ], [ 17.562947655138, 55.042234396725902, 0.0 ], [ 17.560123093697097, 55.037503117384915, 0.0 ], [ 17.557639830478436, 55.034770641133889, 0.0 ], [ 17.563894727105616, 55.004020634601709, 0.0 ], [ 17.563426797519433, 54.998546014970024, 0.0 ], [ 17.559891715328831, 54.993455489528898, 0.0 ], [ 17.553673663049992, 54.989300763961261, 0.0 ], [ 17.545447026267265, 54.986531970837483, 0.0 ], [ 17.536103191524582, 54.985449008663473, 0.0 ], [ 17.526654144402759, 54.986169156050174, 0.0 ], [ 17.257605326294701, 55.033181550724578, 0.0 ], [ 17.250499173361547, 55.035202156214304, 0.0 ], [ 17.245452643967468, 55.033345574560322, 0.0 ], [ 17.241172704013579, 55.032046513767867, 0.0 ], [ 17.219183005259158, 55.026665664628204, 0.0 ], [ 17.212356620980792, 55.025537874299395, 0.0 ], [ 17.205257866494264, 55.025397683618962, 0.0 ], [ 17.183897398159139, 55.026484243528621, 0.0 ], [ 17.172299531435595, 55.028538393373204, 0.0 ], [ 17.12550681626357, 55.043558206374058, 0.0 ], [ 17.116520248867634, 55.02146492054699, 0.0 ], [ 17.104522041790627, 54.991929286635006, 0.0 ], [ 17.100870546336242, 54.986882115330154, 0.0 ], [ 17.094573574452134, 54.982787072545918, 0.0 ], [ 17.086310471136997, 54.980085500549499, 0.0 ], [ 17.076971876786125, 54.979068485029252, 0.0 ], [ 17.067563914585637, 54.979845583025948, 0.0 ], [ 16.974723534171332, 54.996761718592637, 0.0 ] ] ] ] } },
{ "type": "Feature", "properties": { "area_km2": 189.80719943899999, "PROJECT_NO": 16002.0, "NAME": "Baltica 2 Baltica 3 (PGE EO)", "TYPE": "CON", "NO": 11, "status": "COMPLETED", "geotechnic": null, "ORIG_FID": 8, "Shape_Leng": 243145.68574, "Shape_Area": 189807199.43900001 }, "geometry": { "type": "MultiPolygon", "coordinates": [ [ [ [ 17.535131469410732, 55.002085703442297, 0.0 ], [ 17.528894798803037, 55.032638813029543, 0.0 ], [ 17.541421669454156, 55.010079902334041, 0.0 ], [ 17.55507057580618, 54.990234243440703, 0.0 ], [ 17.555087551877897, 54.990199015981574, 0.0 ], [ 17.562463338593204, 54.974887456826075, 0.0 ], [ 17.562472363906441, 54.974888917423804, 0.0 ], [ 17.563179509543531, 54.973372590314575, 0.0 ], [ 17.56383524673447, 54.972046489766797, 0.0 ], [ 17.566514197697266, 54.966472923070413, 0.0 ], [ 17.568612979388913, 54.962111821471915, 0.0 ], [ 17.570787818504733, 54.957591617825315, 0.0 ], [ 17.81863905587301, 54.96891445677938, 0.0 ], [ 17.818751000398876, 54.968957960839717, 0.0 ], [ 17.821100033151893, 54.969346467085785, 0.0 ], [ 17.82354278806142, 54.969298311147789, 0.0 ], [ 17.824193406398894, 54.969162346002577, 0.0 ], [ 17.941716550681097, 54.974347244111122, 0.0 ], [ 17.943895952803459, 54.974266235798716, 0.0 ], [ 17.945951200749416, 54.973841382039943, 0.0 ], [ 17.9477216768373, 54.973105888366398, 0.0 ], [ 17.949069036642221, 54.972117233065539, 0.0 ], [ 18.072403953454209, 54.849087579098779, 0.0 ], [ 18.072674018434757, 54.848792389718078, 0.0 ], [ 18.073869498639024, 54.847359100398627, 0.0 ], [ 18.074211241813966, 54.84688065719687, 0.0 ], [ 18.074994083248079, 54.84557604909984, 0.0 ], [ 18.07519402403711, 54.845186789705174, 0.0 ], [ 18.075590284066731, 54.844264233814762, 0.0 ], [ 18.075729630158609, 54.843861995754708, 0.0 ], [ 18.076097342186017, 54.842473561826914, 0.0 ], [ 18.076178296872033, 54.842003711065892, 0.0 ], [ 18.076283687255618, 54.840698253922696, 0.0 ], [ 18.076277523798726, 54.840213969684676, 0.0 ], [ 18.076121240592691, 54.838743119048431, 0.0 ], [ 18.076022623572783, 54.838254587340728, 0.0 ], [ 18.075625156671009, 54.836923951463866, 0.0 ], [ 18.075463912175337, 54.83650481426853, 0.0 ], [ 18.074955586196552, 54.835429114341373, 0.0 ], [ 18.074709048735478, 54.834995449512888, 0.0 ], [ 18.074022163885505, 54.833966702455399, 0.0 ], [ 18.069607047746857, 54.833944789721087, 0.0 ], [ 18.057359049736529, 54.833456255677994, 0.0 ], [ 18.057472098859556, 54.834628417430473, 0.0 ], [ 18.057485026871394, 54.834647670506065, 0.0 ], [ 18.058352546238631, 54.835939552918326, 0.0 ], [ 18.058977009838653, 54.836559165380024, 0.0 ], [ 18.059368008083741, 54.837015084519813, 0.0 ], [ 18.060034634703349, 54.838014040918644, 0.0 ], [ 18.060340581526489, 54.83866198398659, 0.0 ], [ 18.060601964133447, 54.839538151547536, 0.0 ], [ 18.060706031085008, 54.840521143152671, 0.0 ], [ 18.060638944354949, 54.841348199182121, 0.0 ], [ 18.060386521248276, 54.842299948237724, 0.0 ], [ 18.060160394435197, 54.842825953717615, 0.0 ], [ 18.059639459118273, 54.843693568423085, 0.0 ], [ 18.058764007350593, 54.844742731449429, 0.0 ], [ 18.044717200836782, 54.85879465478753, 0.0 ], [ 17.908432493697237, 54.855060669390248, 0.0 ], [ 17.88113531605612, 54.854294307127255, 0.0 ], [ 17.881131056155638, 54.854294186968659, 0.0 ], [ 17.881135879730692, 54.854291225184603, 0.0 ], [ 17.921483542357148, 54.829486610774204, 0.0 ], [ 17.922844389717273, 54.826702460213859, 0.0 ], [ 17.907307216851944, 54.825072301616416, 0.0 ], [ 17.902076972864151, 54.824482396020429, 0.0 ], [ 17.902080602569356, 54.82447814065074, 0.0 ], [ 17.886531503550973, 54.821990870531025, 0.0 ], [ 17.873196430179863, 54.819617439478243, 0.0 ], [ 17.870063774896433, 54.819024568621259, 0.0 ], [ 17.862043398111826, 54.817261397355509, 0.0 ], [ 17.846570898643598, 54.814605841256032, 0.0 ], [ 17.840890751771177, 54.813688221348343, 0.0 ], [ 17.835541669686584, 54.812548889915604, 0.0 ], [ 17.806714170259237, 54.832646390173011, 0.0 ], [ 17.79176397978588, 54.836227513905762, 0.0 ], [ 17.795135893092546, 54.807926846838328, 0.0 ], [ 17.795556995280837, 54.807539451613827, 0.0 ], [ 17.796059289959594, 54.806386334530799, 0.0 ], [ 17.7908753897553, 54.805617909472232, 0.0 ], [ 17.787246179263427, 54.805355371974009, 0.0 ], [ 17.784009200712401, 54.804900244603296, 0.0 ], [ 17.781646842673666, 54.804630846335051, 0.0 ], [ 17.780072174967295, 54.804463401313441, 0.0 ], [ 17.711988486746527, 54.849408110604614, 0.0 ], [ 17.586041468490457, 54.84561606721423, 0.0 ], [ 17.586041203008943, 54.845616842679838, 0.0 ], [ 17.582996518672172, 54.845464216668908, 0.0 ], [ 17.574462803809613, 54.84503601962551, 0.0 ], [ 17.57295639670847, 54.845880968927197, 0.0 ], [ 17.572355162074068, 54.847788704915772, 0.0 ], [ 17.572331599429038, 54.847863467066105, 0.0 ], [ 17.571448953994047, 54.850663777061975, 0.0 ], [ 17.571365190413353, 54.850929508913758, 0.0 ], [ 17.542653745394311, 54.93911327272162, 0.0 ], [ 17.531347013900177, 54.970885597132167, 0.0 ], [ 17.530464964068639, 54.973529638713792, 0.0 ], [ 17.525795988455151, 54.986346114294747, 0.0 ], [ 17.51872725706346, 55.004972429270275, 0.0 ], [ 17.535131469410732, 55.002085703442297, 0.0 ] ], [ [ 17.849409689019549, 54.873789062547267, 0.0 ], [ 17.898353827909855, 54.874832617131119, 0.0 ], [ 18.026038873188419, 54.877461978948965, 0.0 ], [ 17.938005281751099, 54.965170756959623, 0.0 ], [ 17.877030546435716, 54.962492577771272, 0.0 ], [ 17.861448555414142, 54.961803213931134, 0.0 ], [ 17.845438641150729, 54.961092814818116, 0.0 ], [ 17.830879659170041, 54.960444946407797, 0.0 ], [ 17.849409689019549, 54.873789062547267, 0.0 ] ], [ [ 17.693539028267448, 54.870333939024462, 0.0 ], [ 17.833776646439262, 54.873451579218255, 0.0 ], [ 17.815289555621291, 54.959749239374979, 0.0 ], [ 17.570228768767365, 54.948547663073448, 0.0 ], [ 17.580926852637663, 54.896828279751254, 0.0 ], [ 17.675000000243138, 54.873835000366526, 0.0 ], [ 17.693539028267448, 54.870333939024462, 0.0 ] ], [ [ 17.581439912013529, 54.867725078457148, 0.0 ], [ 17.640555287148203, 54.869113790780723, 0.0 ], [ 17.652785354677274, 54.869397491069449, 0.0 ], [ 17.602967218141679, 54.881232122546812, 0.0 ], [ 17.574924145579395, 54.887881854955261, 0.0 ], [ 17.581439912013529, 54.867725078457148, 0.0 ] ], [ [ 17.83812988928624, 54.853074435421874, 0.0 ], [ 17.791693923070827, 54.851740076279398, 0.0 ], [ 17.840391585751977, 54.842479157199094, 0.0 ], [ 17.838551889738849, 54.851097951633953, 0.0 ], [ 17.83812988928624, 54.853074435421874, 0.0 ] ], [ [ 17.856748083156877, 54.839363263247726, 0.0 ], [ 17.867870612400878, 54.837242895921676, 0.0 ], [ 17.857377927211061, 54.845812470003096, 0.0 ], [ 17.854952406222012, 54.847792786823106, 0.0 ], [ 17.856088453355085, 54.842460221087954, 0.0 ], [ 17.856748083156877, 54.839363263247726, 0.0 ] ], [ [ 17.892742271297593, 54.832496928096518, 0.0 ], [ 17.896356818740095, 54.831806688382699, 0.0 ], [ 17.885190198059849, 54.838670699539414, 0.0 ], [ 17.892742271297593, 54.832496928096518, 0.0 ] ], [ [ 17.771077523971876, 54.841178587838137, 0.0 ], [ 17.733938199266845, 54.850055544886111, 0.0 ], [ 17.73286320693915, 54.850023929365186, 0.0 ], [ 17.731800932475736, 54.849992678980463, 0.0 ], [ 17.77456923922502, 54.821752421727567, 0.0 ], [ 17.771077523971876, 54.841178587838137, 0.0 ] ] ] ] } }
]
}
