{
"type": "FeatureCollection",
"name": "16012",
"crs": { "type": "name", "properties": { "name": "urn:ogc:def:crs:OGC:1.3:CRS84" } },
"features": [
{ "type": "Feature", "properties": { "area_km2": 427.33556879100001, "PROJECT_NO": 16012.0, "NAME": "Badanie dna morskiego", "TYPE": "OTH", "NO": 0, "status": "COMPLETED", "geotechnic": null, "ORIG_FID": 30, "Shape_Leng": 117801.88237199999, "Shape_Area": 427335568.79100001 }, "geometry": { "type": "MultiPolygon", "coordinates": [ [ [ [ 18.346316335857953, 54.910394009171931, 0.0 ], [ 18.346406362698257, 54.910387121118198, 0.0 ], [ 18.346496380729828, 54.910380196992691, 0.0 ], [ 18.346586389952439, 54.910373236795401, 0.0 ], [ 18.346676391911444, 54.910366241433636, 0.0 ], [ 18.346766385046465, 54.910359210898982, 0.0 ], [ 18.34685636937181, 54.910352144292638, 0.0 ], [ 18.346946344872705, 54.910345042513477, 0.0 ], [ 18.347036313123617, 54.91033790467101, 0.0 ], [ 18.347126272549602, 54.910330731655741, 0.0 ], [ 18.347216223150422, 54.910323523467724, 0.0 ], [ 18.347306164940417, 54.910316279208075, 0.0 ], [ 18.347396097904777, 54.91030899977568, 0.0 ], [ 18.34748602205784, 54.91030168427173, 0.0 ], [ 18.347575937384804, 54.910294333595054, 0.0 ], [ 18.347665845460146, 54.910286946855223, 0.0 ], [ 18.347755743148792, 54.910279524934367, 0.0 ], [ 18.34784563201065, 54.910272067840836, 0.0 ], [ 18.347935513620175, 54.91026457468422, 0.0 ], [ 18.348025384842288, 54.910257046346644, 0.0 ], [ 18.348115247251467, 54.910249481937576, 0.0 ], [ 18.348205100832931, 54.910241882355962, 0.0 ], [ 18.348294944026293, 54.910234247593451, 0.0 ], [ 18.348384779966167, 54.910226576767904, 0.0 ], [ 18.348474605517474, 54.910218870761462, 0.0 ], [ 18.348564422254665, 54.910211128683684, 0.0 ], [ 18.348654230162978, 54.910203351433431, 0.0 ], [ 18.348744027682049, 54.910195539002395, 0.0 ], [ 18.348833816371776, 54.91018769139891, 0.0 ], [ 18.348923596246465, 54.910179807724141, 0.0 ], [ 18.349013367291352, 54.910171888876988, 0.0 ], [ 18.349103127960564, 54.91016393395023, 0.0 ], [ 18.349192878239379, 54.910155943842781, 0.0 ], [ 18.349282619687706, 54.910147918562998, 0.0 ], [ 18.349372352319818, 54.910139857212023, 0.0 ], [ 18.349462074560819, 54.910131760680422, 0.0 ], [ 18.349551786410494, 54.910123628968194, 0.0 ], [ 18.349641489428762, 54.910115462083724, 0.0 ], [ 18.349731183629885, 54.910107259128139, 0.0 ], [ 18.349820865878847, 54.910099020983672, 0.0 ], [ 18.349910539310184, 54.91009074676812, 0.0 ], [ 18.350000203894702, 54.910082438279275, 0.0 ], [ 18.350089856540855, 54.910074093702733, 0.0 ], [ 18.3501795003687, 54.910065713055182, 0.0 ], [ 18.350269133788885, 54.910057298126063, 0.0 ], [ 18.350358758390321, 54.910048847125978, 0.0 ], [ 18.350448371037967, 54.910040360937145, 0.0 ], [ 18.350537974866359, 54.910031838677412, 0.0 ], [ 18.350627568286221, 54.910023282136166, 0.0 ], [ 18.350717151326219, 54.91001468951572, 0.0 ], [ 18.35080672398615, 54.910006060816073, 0.0 ], [ 18.350896286236839, 54.909997397835021, 0.0 ], [ 18.350985838106979, 54.909988698774811, 0.0 ], [ 18.351075379581907, 54.909979964534358, 0.0 ], [ 18.35116491066135, 54.909971195113656, 0.0 ], [ 18.351254431345126, 54.909962390512753, 0.0 ], [ 18.351343941647425, 54.909953549832807, 0.0 ], [ 18.351433441553581, 54.909944673972682, 0.0 ], [ 18.351522929503226, 54.909935762924086, 0.0 ], [ 18.351612408616418, 54.909926816703724, 0.0 ], [ 18.351701875772623, 54.909917835294927, 0.0 ], [ 18.351791332546206, 54.909908817807178, 0.0 ], [ 18.351880778922521, 54.909899765139393, 0.0 ], [ 18.351970214901311, 54.909890677291571, 0.0 ], [ 18.352059638922221, 54.909881554255421, 0.0 ], [ 18.352149052559586, 54.909872395140432, 0.0 ], [ 18.352238454224185, 54.909863201736037, 0.0 ], [ 18.352327847064934, 54.909853972261139, 0.0 ], [ 18.352417226386741, 54.909844707589706, 0.0 ], [ 18.352506596869826, 54.909835407746691, 0.0 ], [ 18.352595955393639, 54.909826072715518, 0.0 ], [ 18.352685301972425, 54.909816701597308, 0.0 ], [ 18.352774638137213, 54.909807296198132, 0.0 ], [ 18.352863962356487, 54.909797854711989, 0.0 ], [ 18.352953276175747, 54.90978837804608, 0.0 ], [ 18.353042578034636, 54.90977886619212, 0.0 ], [ 18.353131869493055, 54.909769319158414, 0.0 ], [ 18.353221148990638, 54.909759736936721, 0.0 ], [ 18.353310416527147, 54.90975011952704, 0.0 ], [ 18.353399673676936, 54.909740466038819, 0.0 ], [ 18.35348891885079, 54.909730778261547, 0.0 ], [ 18.353578152077326, 54.909721054397508, 0.0 ], [ 18.353667373341889, 54.909711295345588, 0.0 ], [ 18.353756582629856, 54.909701502004665, 0.0 ], [ 18.353845781529948, 54.909691672585339, 0.0 ], [ 18.353934968467406, 54.90968180797821, 0.0 ], [ 18.35402414344199, 54.909671908183292, 0.0 ], [ 18.354113306453492, 54.909661973200613, 0.0 ], [ 18.354202457501685, 54.909652003030224, 0.0 ], [ 18.354291596600714, 54.909641996773239, 0.0 ], [ 18.354380723721579, 54.909631956227457, 0.0 ], [ 18.354469838878465, 54.909621880494015, 0.0 ], [ 18.354558942085529, 54.909611768674068, 0.0 ], [ 18.354648033313754, 54.90960162256539, 0.0 ], [ 18.354737112577315, 54.909591441269143, 0.0 ], [ 18.354826178330235, 54.909581223878178, 0.0 ], [ 18.354915233663807, 54.909570972206858, 0.0 ], [ 18.355004275486273, 54.909560684440862, 0.0 ], [ 18.355093305328815, 54.909550362386291, 0.0 ], [ 18.355182323219932, 54.909540004245379, 0.0 ], [ 18.355271329130669, 54.909529611815927, 0.0 ], [ 18.355360321515047, 54.909519184190792, 0.0 ], [ 18.355449301947338, 54.909508720479437, 0.0 ], [ 18.355538270398583, 54.909498222479591, 0.0 ], [ 18.355627225337166, 54.909487688385276, 0.0 ], [ 18.355716168294247, 54.909477120002556, 0.0 ], [ 18.355805099283977, 54.90946651643258, 0.0 ], [ 18.355894016746017, 54.909455877667085, 0.0 ], [ 18.355982920694476, 54.909445202807234, 0.0 ], [ 18.35607181266057, 54.90943449365907, 0.0 ], [ 18.356160692658417, 54.909423749323764, 0.0 ], [ 18.356249559127679, 54.909412969793024, 0.0 ], [ 18.356338412068123, 54.909402155066942, 0.0 ], [ 18.356427253039666, 54.90939130515379, 0.0 ], [ 18.35651608046761, 54.909380420944188, 0.0 ], [ 18.356604895940524, 54.909369500648673, 0.0 ], [ 18.356693696323628, 54.909358545149672, 0.0 ], [ 18.35678248472259, 54.909347555362572, 0.0 ], [ 18.356871261151539, 54.909336530388487, 0.0 ], [ 18.356960022504328, 54.909325469312137, 0.0 ], [ 18.357048771872314, 54.909314373947751, 0.0 ], [ 18.357137507709503, 54.909303243388266, 0.0 ], [ 18.357226230015659, 54.90929207763368, 0.0 ], [ 18.357314938776252, 54.909280877582923, 0.0 ], [ 18.357403635579807, 54.909269641446507, 0.0 ], [ 18.357492317277231, 54.90925837100572, 0.0 ], [ 18.357580987017183, 54.909247064479331, 0.0 ], [ 18.35766964165057, 54.909235723648621, 0.0 ], [ 18.357758282751611, 54.909224347622988, 0.0 ], [ 18.357846911865867, 54.909212937309583, 0.0 ], [ 18.357935525901546, 54.909201490894219, 0.0 ], [ 18.358024126389886, 54.909190010182904, 0.0 ], [ 18.358112714905118, 54.909178494285001, 0.0 ], [ 18.358201288326782, 54.909166943184125, 0.0 ], [ 18.35828984665465, 54.909155356880241, 0.0 ], [ 18.358378393008746, 54.909143735389904, 0.0 ], [ 18.358466924254319, 54.909132079595516, 0.0 ], [ 18.358555443525685, 54.909120388614696, 0.0 ], [ 18.358643946142251, 54.909108662422781, 0.0 ], [ 18.358732436784191, 54.909096901044535, 0.0 ], [ 18.35882091231672, 54.909085105362337, 0.0 ], [ 18.358909374314038, 54.909073274485614, 0.0 ], [ 18.35899782277594, 54.909061408414381, 0.0 ], [ 18.359086256127817, 54.909049508039296, 0.0 ], [ 18.359174674397984, 54.909037571562692, 0.0 ], [ 18.359263080677906, 54.909025600798756, 0.0 ], [ 18.359351470301306, 54.909013594824017, 0.0 ], [ 18.359439847934024, 54.909001554561982, 0.0 ], [ 18.359528208909797, 54.908989479089172, 0.0 ], [ 18.359616556348598, 54.908977368422079, 0.0 ], [ 18.359704890250249, 54.908965222560695, 0.0 ], [ 18.359793209040124, 54.908953042395758, 0.0 ], [ 18.359881512732276, 54.908940827028367, 0.0 ], [ 18.35996980287236, 54.908928577365685, 0.0 ], [ 18.360058076354182, 54.908916292492428, 0.0 ], [ 18.360146337857856, 54.908903972433251, 0.0 ], [ 18.360234582702848, 54.908891617163583, 0.0 ], [ 18.360322813994891, 54.908879227598717, 0.0 ], [ 18.360411028627805, 54.908866802823404, 0.0 ], [ 18.360499229707347, 54.908854343752971, 0.0 ], [ 18.360587415687458, 54.908841849480382, 0.0 ], [ 18.360675588127993, 54.908829320013822, 0.0 ], [ 18.360763743894317, 54.908816756235836, 0.0 ], [ 18.360851884560542, 54.90880415725578, 0.0 ], [ 18.360940011686559, 54.908791523081881, 0.0 ], [ 18.361028122137707, 54.908778854596626, 0.0 ], [ 18.361116219033978, 54.908766151816479, 0.0 ], [ 18.361204299283447, 54.90875341292729, 0.0 ], [ 18.361292364403273, 54.908740640633951, 0.0 ], [ 18.361380415996042, 54.908727832248026, 0.0 ], [ 18.361468450912881, 54.90871498955093, 0.0 ], [ 18.36155647071368, 54.908702112550891, 0.0 ], [ 18.361644473852351, 54.908689200340866, 0.0 ], [ 18.361732463448888, 54.90867625293729, 0.0 ], [ 18.361820436368635, 54.908663271222643, 0.0 ], [ 18.361908394171504, 54.908650255205188, 0.0 ], [ 18.361996336871488, 54.908637203986089, 0.0 ], [ 18.362084264468372, 54.908624117565346, 0.0 ], [ 18.362172175387631, 54.908610996833708, 0.0 ], [ 18.362260069629059, 54.908597841791178, 0.0 ], [ 18.362347950326843, 54.908584651555337, 0.0 ], [ 18.362435814360591, 54.908571426109781, 0.0 ], [ 18.362523661715855, 54.908558166353451, 0.0 ], [ 18.362611495512649, 54.90854487230277, 0.0 ], [ 18.362699311084665, 54.908531543034321, 0.0 ], [ 18.36278711155186, 54.908518178564499, 0.0 ], [ 18.362874896885653, 54.908504780691104, 0.0 ], [ 18.362962665568325, 54.908491346709361, 0.0 ], [ 18.363050417557076, 54.90847787931591, 0.0 ], [ 18.363138154440168, 54.908464376721227, 0.0 ], [ 18.36322587465731, 54.908450838917183, 0.0 ], [ 18.363313578194091, 54.908437266802693, 0.0 ], [ 18.363401266610413, 54.908423660385921, 0.0 ], [ 18.363488938360131, 54.908410018759874, 0.0 ], [ 18.363576593428864, 54.908396342823472, 0.0 ], [ 18.363664233376507, 54.90838263258491, 0.0 ], [ 18.363751855096826, 54.908368887129015, 0.0 ], [ 18.363839461695626, 54.908355107371044, 0.0 ], [ 18.363927051626796, 54.908341292403975, 0.0 ], [ 18.364014624875924, 54.908327443126701, 0.0 ], [ 18.364102181442817, 54.908313559539295, 0.0 ], [ 18.364189722887371, 54.908299641649933, 0.0 ], [ 18.364277246103342, 54.908285688543444, 0.0 ], [ 18.364364752636469, 54.908271701126893, 0.0 ], [ 18.364452242500683, 54.908257678501485, 0.0 ], [ 18.364539717227554, 54.908243622473137, 0.0 ], [ 18.364627173725015, 54.908229531227811, 0.0 ], [ 18.364714613552941, 54.908215404773692, 0.0 ], [ 18.364802036682839, 54.908201244908561, 0.0 ], [ 18.364889443142768, 54.908187049834766, 0.0 ], [ 18.364976831358316, 54.908172820442999, 0.0 ], [ 18.365064204463572, 54.908158555850754, 0.0 ], [ 18.365151559324044, 54.908144256940609, 0.0 ], [ 18.36523889748543, 54.908129924619651, 0.0 ], [ 18.365326217415753, 54.90811555708202, 0.0 ], [ 18.365413522234952, 54.908101154344045, 0.0 ], [ 18.365500808794394, 54.908086718187199, 0.0 ], [ 18.36558807712213, 54.908072246813809, 0.0 ], [ 18.365675328763924, 54.908057741130897, 0.0 ], [ 18.36576256371956, 54.908043201138511, 0.0 ], [ 18.365849782002957, 54.908028625937796, 0.0 ], [ 18.36593698202557, 54.908014017318401, 0.0 ], [ 18.366024163815453, 54.90799937348266, 0.0 ], [ 18.366111328918372, 54.907984695337554, 0.0 ], [ 18.36619847577402, 54.907969982875024, 0.0 ], [ 18.366285605942277, 54.907955236103248, 0.0 ], [ 18.366372719422934, 54.907940455022242, 0.0 ], [ 18.366459813095659, 54.907925639615776, 0.0 ], [ 18.366546890094497, 54.907910789001278, 0.0 ], [ 18.366633948845038, 54.907895904069548, 0.0 ], [ 18.366720990893075, 54.907880985727594, 0.0 ], [ 18.366808014706521, 54.907866032169608, 0.0 ], [ 18.366895020271084, 54.907851044294496, 0.0 ], [ 18.366982007586557, 54.907836022102288, 0.0 ], [ 18.36706897821281, 54.907820965601132, 0.0 ], [ 18.367155930589565, 54.907805874782966, 0.0 ], [ 18.367242864716626, 54.90779074964783, 0.0 ], [ 18.367329780607871, 54.907775589296854, 0.0 ], [ 18.367416678234918, 54.907760395527873, 0.0 ], [ 18.367503557611666, 54.907745167442002, 0.0 ], [ 18.367590418752005, 54.907729904140439, 0.0 ], [ 18.367677261627545, 54.907714607420964, 0.0 ], [ 18.367764087812226, 54.907699276392854, 0.0 ], [ 18.36785089419984, 54.907683910141031, 0.0 ], [ 18.367937682322047, 54.90766851047141, 0.0 ], [ 18.368024452192746, 54.907653076485147, 0.0 ], [ 18.368111203825798, 54.907637607283419, 0.0 ], [ 18.368197937192871, 54.907622104663993, 0.0 ], [ 18.368284650747764, 54.907606567719938, 0.0 ], [ 18.368371347624475, 54.907590995568654, 0.0 ], [ 18.368458024674545, 54.907575389991678, 0.0 ], [ 18.3685446834719, 54.907559750098301, 0.0 ], [ 18.368631322456277, 54.907544075880452, 0.0 ], [ 18.368717944747594, 54.907528367354359, 0.0 ], [ 18.368804547211486, 54.907512625402774, 0.0 ], [ 18.368891129875859, 54.907496848227936, 0.0 ], [ 18.368977695846588, 54.907481036745025, 0.0 ], [ 18.369064241989285, 54.907465191836692, 0.0 ], [ 18.369150768331878, 54.907449311705243, 0.0 ], [ 18.369237276406093, 54.907433398156599, 0.0 ], [ 18.369323766225815, 54.907417450291881, 0.0 ], [ 18.369410236230774, 54.907401468103068, 0.0 ], [ 18.369496687980813, 54.907385451598259, 0.0 ], [ 18.369583119901669, 54.907369401668298, 0.0 ], [ 18.369669532021213, 54.907353316515483, 0.0 ], [ 18.369755925871218, 54.907337197945679, 0.0 ], [ 18.369842299905464, 54.907321045051972, 0.0 ], [ 18.369928654123775, 54.907304857834383, 0.0 ], [ 18.370014990071965, 54.90728863719994, 0.0 ], [ 18.370101306217855, 54.90727238134285, 0.0 ], [ 18.370187604093214, 54.907256092068948, 0.0 ], [ 18.370273880591807, 54.907239768463256, 0.0 ], [ 18.370360138819478, 54.907223411440881, 0.0 ], [ 18.370446377244079, 54.90720701919598, 0.0 ], [ 18.370532595837332, 54.907190593526387, 0.0 ], [ 18.370618796173101, 54.907174133541332, 0.0 ], [ 18.370704975131126, 54.907157639224714, 0.0 ], [ 18.370791135817274, 54.907141111491555, 0.0 ], [ 18.370877275125292, 54.907124549426911, 0.0 ], [ 18.370963396175046, 54.907107953046967, 0.0 ], [ 18.371049495832267, 54.907091323234489, 0.0 ], [ 18.371135577230834, 54.907074659106797, 0.0 ], [ 18.371221637250493, 54.907057960647776, 0.0 ], [ 18.371307678997116, 54.907041228772485, 0.0 ], [ 18.371393699364429, 54.907024462565964, 0.0 ], [ 18.371479701472325, 54.907007662044371, 0.0 ], [ 18.371565682186525, 54.906990828090493, 0.0 ], [ 18.371651641520845, 54.906973959805526, 0.0 ], [ 18.37173758259517, 54.906957057205602, 0.0 ], [ 18.371823503835252, 54.906940121181599, 0.0 ], [ 18.371909403680885, 54.906923151725479, 0.0 ], [ 18.37199528371989, 54.906906147047607, 0.0 ], [ 18.372081142364063, 54.906889108937712, 0.0 ], [ 18.372843047128367, 54.906737578074278, 0.0 ], [ 18.329651441935862, 54.834504252576231, 0.0 ], [ 18.328933593175428, 54.83464699783714, 0.0 ], [ 18.325723985762437, 54.834815472571272, 0.0 ], [ 18.322760709459942, 54.834786461968754, 0.0 ], [ 18.321622418539345, 54.834812211862832, 0.0 ], [ 18.317773232989779, 54.834899427375916, 0.0 ], [ 18.31497853625957, 54.835213326386103, 0.0 ], [ 18.313753446389327, 54.835267346885303, 0.0 ], [ 18.310503167661498, 54.835261238528865, 0.0 ], [ 18.310394217878702, 54.835261067456457, 0.0 ], [ 18.308657125916273, 54.835343654824683, 0.0 ], [ 18.307149290772678, 54.835590850387526, 0.0 ], [ 18.30553234277037, 54.835550998618018, 0.0 ], [ 18.302091409821134, 54.83563192775803, 0.0 ], [ 18.298879833503083, 54.835727917236909, 0.0 ], [ 18.298560786897756, 54.835730319362995, 0.0 ], [ 18.296013066776659, 54.835749134032532, 0.0 ], [ 18.293588766751757, 54.835703273418822, 0.0 ], [ 18.292902694465315, 54.835788659779141, 0.0 ], [ 18.292222597440546, 54.835667579831288, 0.0 ], [ 18.289614672269376, 54.835559644090374, 0.0 ], [ 18.287675124287507, 54.835479267465118, 0.0 ], [ 18.286279966337837, 54.835282316102159, 0.0 ], [ 18.284357334864371, 54.835037443804232, 0.0 ], [ 18.282000268067428, 54.834737312480883, 0.0 ], [ 18.28065306850521, 54.834625530728516, 0.0 ], [ 18.278398734185597, 54.83443289715391, 0.0 ], [ 18.277698380689408, 54.834366583973058, 0.0 ], [ 18.275479284777937, 54.834156386312209, 0.0 ], [ 18.273876073935593, 54.834114856987696, 0.0 ], [ 18.270025177360161, 54.834015015563352, 0.0 ], [ 18.265141536119675, 54.83382993159978, 0.0 ], [ 18.262187545855703, 54.833678231171376, 0.0 ], [ 18.255545182224264, 54.833420812491525, 0.0 ], [ 18.253198320126863, 54.833359069320892, 0.0 ], [ 18.247399569306502, 54.833479817200917, 0.0 ], [ 18.243852021305486, 54.833419974559405, 0.0 ], [ 18.241002128228168, 54.833350381234247, 0.0 ], [ 18.236866814225891, 54.833190251952857, 0.0 ], [ 18.236118460426805, 54.83317724572251, 0.0 ], [ 18.235739665055814, 54.83312587554434, 0.0 ], [ 18.235531576170601, 54.833097621747662, 0.0 ], [ 18.23348388525531, 54.83281966514155, 0.0 ], [ 18.228251574556847, 54.832651015946517, 0.0 ], [ 18.222579357113304, 54.832965468942319, 0.0 ], [ 18.215351360567432, 54.833076516651523, 0.0 ], [ 18.212950941643797, 54.833113451283708, 0.0 ], [ 18.207158907945839, 54.832920348366549, 0.0 ], [ 18.201177012219055, 54.832998863542137, 0.0 ], [ 18.198305426468583, 54.832927494686992, 0.0 ], [ 18.196378317408751, 54.833069247103253, 0.0 ], [ 18.196144486818593, 54.833086514509176, 0.0 ], [ 18.195283373868367, 54.833149800332343, 0.0 ], [ 18.195098568764227, 54.833167616301516, 0.0 ], [ 18.195013479039908, 54.833175837762006, 0.0 ], [ 18.194335549024633, 54.833241069341788, 0.0 ], [ 18.190358749530095, 54.833320138112775, 0.0 ], [ 18.18556340597798, 54.833319026396381, 0.0 ], [ 18.181003635304126, 54.833444765519154, 0.0 ], [ 18.172273259922829, 54.833405899350375, 0.0 ], [ 18.166890942751706, 54.83353721337307, 0.0 ], [ 18.159384347347558, 54.833430599410654, 0.0 ], [ 18.154644781971651, 54.833407351554946, 0.0 ], [ 18.147373493115072, 54.833239594067003, 0.0 ], [ 18.141466139887008, 54.832961296174503, 0.0 ], [ 18.141276415550056, 54.832958462115151, 0.0 ], [ 18.135032983972568, 54.832865486864826, 0.0 ], [ 18.132826135950726, 54.832815097034455, 0.0 ], [ 18.129022737677765, 54.832536119639641, 0.0 ], [ 18.12091667941861, 54.832234971166308, 0.0 ], [ 18.11702673770267, 54.83222620543409, 0.0 ], [ 18.114681409980154, 54.832329960194194, 0.0 ], [ 18.111236385787727, 54.832598726126101, 0.0 ], [ 18.103776266541558, 54.832828039140445, 0.0 ], [ 18.097003482522577, 54.83325120447919, 0.0 ], [ 18.091263194818701, 54.833609705451202, 0.0 ], [ 18.087192988026672, 54.833784285747925, 0.0 ], [ 18.081614988934515, 54.83404932143047, 0.0 ], [ 18.078313807046722, 54.833961838067282, 0.0 ], [ 18.07313565650411, 54.833940271891855, 0.0 ], [ 18.069606967196879, 54.833945041716191, 0.0 ], [ 18.066249843976191, 54.833794195815209, 0.0 ], [ 18.062663821013825, 54.833650652340346, 0.0 ], [ 18.062580396998463, 54.833647640328799, 0.0 ], [ 18.062412458287163, 54.833641438702983, 0.0 ], [ 18.057735439388534, 54.8334701863551, 0.0 ], [ 18.056758173018963, 54.833434352738138, 0.0 ], [ 18.045051421841247, 54.832936977786929, 0.0 ], [ 18.037888526056499, 54.832764599907321, 0.0 ], [ 18.024178328288773, 54.831989391922882, 0.0 ], [ 18.020461753229277, 54.831885593759218, 0.0 ], [ 18.015456599900201, 54.831745738177204, 0.0 ], [ 18.009152824824909, 54.831765871059552, 0.0 ], [ 18.000364316474769, 54.831407853083491, 0.0 ], [ 17.99586630162047, 54.831411466920159, 0.0 ], [ 17.99140104360287, 54.831345976167754, 0.0 ], [ 17.986756085207485, 54.831277675229259, 0.0 ], [ 17.985894584892339, 54.831268233621167, 0.0 ], [ 17.978896339512541, 54.831191307454837, 0.0 ], [ 17.967705234345399, 54.830863724440356, 0.0 ], [ 17.962609661358066, 54.830425703257099, 0.0 ], [ 17.959180198179471, 54.830130777055601, 0.0 ], [ 17.956940049466102, 54.829988597904638, 0.0 ], [ 17.954919823707364, 54.829831278102674, 0.0 ], [ 17.954177587812499, 54.82977350370561, 0.0 ], [ 17.948007866829695, 54.82898898115473, 0.0 ], [ 17.937173060799104, 54.827847140710553, 0.0 ], [ 17.934301965899568, 54.827486500546776, 0.0 ], [ 17.934229485052235, 54.827477394853759, 0.0 ], [ 17.931320228855579, 54.827111882688378, 0.0 ], [ 17.924689849001535, 54.826902042840601, 0.0 ], [ 17.92190286753199, 54.826611262907988, 0.0 ], [ 17.918892472260314, 54.826301116539049, 0.0 ], [ 17.915472106457656, 54.825950881654705, 0.0 ], [ 17.915835847823544, 54.824932283515317, 0.0 ], [ 17.915871256264186, 54.824516179447052, 0.0 ], [ 17.915857749951822, 54.82450143671683, 0.0 ], [ 17.915815440130189, 54.824494938501786, 0.0 ], [ 17.915695030838304, 54.82433467489674, 0.0 ], [ 17.915408689523147, 54.82420555763607, 0.0 ], [ 17.915188386886861, 54.824194803236928, 0.0 ], [ 17.914766247663945, 54.824049419873212, 0.0 ], [ 17.914777922214881, 54.823973245650961, 0.0 ], [ 17.914706123123498, 54.823932319005749, 0.0 ], [ 17.914726161873563, 54.823874207503515, 0.0 ], [ 17.905568670413601, 54.824570411318199, 0.0 ], [ 17.900208084907245, 54.824219528960334, 0.0 ], [ 17.896077780730444, 54.823485861542501, 0.0 ], [ 17.886453630851648, 54.82205447930388, 0.0 ], [ 17.881710035060614, 54.821258567633379, 0.0 ], [ 17.875097792416557, 54.819951001521872, 0.0 ], [ 17.869406769126563, 54.818854649820892, 0.0 ], [ 17.867312255085459, 54.818281728220271, 0.0 ], [ 17.857071827339954, 54.816273632965469, 0.0 ], [ 17.854540111170564, 54.815891868921675, 0.0 ], [ 17.852246965571517, 54.815497585106968, 0.0 ], [ 17.847333447148827, 54.81472527622094, 0.0 ], [ 17.847091227710134, 54.814687239493438, 0.0 ], [ 17.845341602486794, 54.814412185235199, 0.0 ], [ 17.841320575000609, 54.813730514992585, 0.0 ], [ 17.839481620590888, 54.813407195069892, 0.0 ], [ 17.834671085441226, 54.812411890560071, 0.0 ], [ 17.830617339896591, 54.811572963887876, 0.0 ], [ 17.828843287087999, 54.811209954899866, 0.0 ], [ 17.827692525320931, 54.810996488400619, 0.0 ], [ 17.825208325984065, 54.810520927069362, 0.0 ], [ 17.824877625181934, 54.810443779806278, 0.0 ], [ 17.822922131871483, 54.809987568211852, 0.0 ], [ 17.820058902738136, 54.809428606539541, 0.0 ], [ 17.81586676660601, 54.808747724433445, 0.0 ], [ 17.808169376453769, 54.807595307770406, 0.0 ], [ 17.805795396766996, 54.80735157512953, 0.0 ], [ 17.804774332110199, 54.807318044146662, 0.0 ], [ 17.802327075662934, 54.807118146652208, 0.0 ], [ 17.797410311056211, 54.806548100951112, 0.0 ], [ 17.7908490226793, 54.805579117085266, 0.0 ], [ 17.789166569425564, 54.805455194046417, 0.0 ], [ 17.786745984655138, 54.805246942374957, 0.0 ], [ 17.786464300740843, 54.80520704994958, 0.0 ], [ 17.784209430142077, 54.804887687681969, 0.0 ], [ 17.781514230095173, 54.804539503415299, 0.0 ], [ 17.780440315098598, 54.80443866310425, 0.0 ], [ 17.777566956194484, 54.804168807231015, 0.0 ], [ 17.777284514625538, 54.804142277420837, 0.0 ], [ 17.776578962710278, 54.804078003968982, 0.0 ], [ 17.776252635010856, 54.804030417715651, 0.0 ], [ 17.772267200716186, 54.803464839107974, 0.0 ], [ 17.76973046456164, 54.803179757118215, 0.0 ], [ 17.764844801717018, 54.802654997548444, 0.0 ], [ 17.762850232542466, 54.802440704817833, 0.0 ], [ 17.761364752983699, 54.802311031152435, 0.0 ], [ 17.756115286334882, 54.801633546132599, 0.0 ], [ 17.754714667551738, 54.801378452706274, 0.0 ], [ 17.74919731617582, 54.8003733955209, 0.0 ], [ 17.745754888409103, 54.799746160914431, 0.0 ], [ 17.743606304709093, 54.79915535546693, 0.0 ], [ 17.742300903596472, 54.798979381690764, 0.0 ], [ 17.737372246635136, 54.797575241963678, 0.0 ], [ 17.734211045858149, 54.796767089949284, 0.0 ], [ 17.731785196742511, 54.796276714828373, 0.0 ], [ 17.728139781600536, 54.795527704822611, 0.0 ], [ 17.726572962983163, 54.795247302503228, 0.0 ], [ 17.725996449744109, 54.795104955387153, 0.0 ], [ 17.721574001398199, 54.794105227846352, 0.0 ], [ 17.719291111039375, 54.793694078107698, 0.0 ], [ 17.718048685479893, 54.793490498433457, 0.0 ], [ 17.713688294323394, 54.792319934027319, 0.0 ], [ 17.711100975884342, 54.791892099490504, 0.0 ], [ 17.708890954713819, 54.79147643467563, 0.0 ], [ 17.707219807256781, 54.791129500560317, 0.0 ], [ 17.704064612097792, 54.790650463611271, 0.0 ], [ 17.700690964918891, 54.790184460983284, 0.0 ], [ 17.697810763281254, 54.789478557325602, 0.0 ], [ 17.695623996243061, 54.788962088847221, 0.0 ], [ 17.694858382328558, 54.788709337057874, 0.0 ], [ 17.692471299504589, 54.78823498165319, 0.0 ], [ 17.691353725158844, 54.788089120487491, 0.0 ], [ 17.690948535671694, 54.788036252610134, 0.0 ], [ 17.68948471986727, 54.787754464612114, 0.0 ], [ 17.687909831887097, 54.787646660078501, 0.0 ], [ 17.686443046271929, 54.787351351875358, 0.0 ], [ 17.6849813198844, 54.787047864472441, 0.0 ], [ 17.681664834628545, 54.786309929017975, 0.0 ], [ 17.681259106838692, 54.786219644950208, 0.0 ], [ 17.680843519763766, 54.786127163884267, 0.0 ], [ 17.677936574226976, 54.785677745767494, 0.0 ], [ 17.674862012388417, 54.784989826233485, 0.0 ], [ 17.67333329023613, 54.78461100213844, 0.0 ], [ 17.671872601295291, 54.784280406956412, 0.0 ], [ 17.670374546340458, 54.784055702329802, 0.0 ], [ 17.668859967484348, 54.783686473685684, 0.0 ], [ 17.668107814871945, 54.783549839688199, 0.0 ], [ 17.667373155840117, 54.783403367220373, 0.0 ], [ 17.666641969916267, 54.783251059602215, 0.0 ], [ 17.666588739914783, 54.783240582594011, 0.0 ], [ 17.665924634732644, 54.783097528836336, 0.0 ], [ 17.665182112822269, 54.782964048149836, 0.0 ], [ 17.664379776094545, 54.782846477939025, 0.0 ], [ 17.663635370574752, 54.782716396772926, 0.0 ], [ 17.662903581425887, 54.782564963334167, 0.0 ], [ 17.662175112083769, 54.782407695909079, 0.0 ], [ 17.661442705623536, 54.782257150302748, 0.0 ], [ 17.660721022209025, 54.782107529538322, 0.0 ], [ 17.65992727492582, 54.781970190192197, 0.0 ], [ 17.659175943215292, 54.781854075632879, 0.0 ], [ 17.6584085754052, 54.781778340452149, 0.0 ], [ 17.657633277940516, 54.781721802180797, 0.0 ], [ 17.656833943113885, 54.781603921909735, 0.0 ], [ 17.656081190494124, 54.781492186579023, 0.0 ], [ 17.65532035000955, 54.781399829836126, 0.0 ], [ 17.654568296683806, 54.781298329144953, 0.0 ], [ 17.653547936481992, 54.781164164832809, 0.0 ], [ 17.652790133925173, 54.781063356125593, 0.0 ], [ 17.652013681451809, 54.781017200400989, 0.0 ], [ 17.65126672520168, 54.780884789447825, 0.0 ], [ 17.650498090919498, 54.780815827053395, 0.0 ], [ 17.64997406139813, 54.780824019740706, 0.0 ], [ 17.649713029207156, 54.780795236131482, 0.0 ], [ 17.648917638188514, 54.780801023042571, 0.0 ], [ 17.648155706668664, 54.780712480249804, 0.0 ], [ 17.647395694839396, 54.780617919776404, 0.0 ], [ 17.646630419839138, 54.7805391510704, 0.0 ], [ 17.645867378481896, 54.780454274672053, 0.0 ], [ 17.645084720186055, 54.780355679943632, 0.0 ], [ 17.644573293033854, 54.780274226498648, 0.0 ], [ 17.643815370708438, 54.780173809664781, 0.0 ], [ 17.643056341655964, 54.780075990069342, 0.0 ], [ 17.642914330213518, 54.780034965639743, 0.0 ], [ 17.642352232093117, 54.779831441151643, 0.0 ], [ 17.641593904721557, 54.779708011350259, 0.0 ], [ 17.64088183659511, 54.779521466247353, 0.0 ], [ 17.640158091066617, 54.779355365708824, 0.0 ], [ 17.639425194600094, 54.779205494448497, 0.0 ], [ 17.638682348915516, 54.779073646801521, 0.0 ], [ 17.637947566255832, 54.77892726508216, 0.0 ], [ 17.637209469954467, 54.778786797726582, 0.0 ], [ 17.636577861457251, 54.778696595353317, 0.0 ], [ 17.635833140525936, 54.778568048962022, 0.0 ], [ 17.63509395426258, 54.778429362541551, 0.0 ], [ 17.634361092167737, 54.77827946084674, 0.0 ], [ 17.633603906242936, 54.778173232517588, 0.0 ], [ 17.63284989275396, 54.778025953092381, 0.0 ], [ 17.632124467310334, 54.777863303216535, 0.0 ], [ 17.631391626699237, 54.777713383688578, 0.0 ], [ 17.63064788650075, 54.777583190861691, 0.0 ], [ 17.629902366513235, 54.777444364222951, 0.0 ], [ 17.629157215329919, 54.777316763338277, 0.0 ], [ 17.628429607559088, 54.777157588033859, 0.0 ], [ 17.62768383580476, 54.777030964448549, 0.0 ], [ 17.627393008110168, 54.777001862023191, 0.0 ], [ 17.626914681723292, 54.776946039274314, 0.0 ], [ 17.626453045979009, 54.776748949104274, 0.0 ], [ 17.625683115317447, 54.776665002506171, 0.0 ], [ 17.624910022801771, 54.776586970346315, 0.0 ], [ 17.624551080343156, 54.776495931411098, 0.0 ], [ 17.624220371137771, 54.776360238436581, 0.0 ], [ 17.623479525033346, 54.77622497981875, 0.0 ], [ 17.622731888262795, 54.776101734225257, 0.0 ], [ 17.621997217018119, 54.775955255543082, 0.0 ], [ 17.621274878626984, 54.775786710945304, 0.0 ], [ 17.620528521323358, 54.775661118845306, 0.0 ], [ 17.619777587411516, 54.775543504704778, 0.0 ], [ 17.618985797575796, 54.775507240830272, 0.0 ], [ 17.618357658574816, 54.775437797810575, 0.0 ], [ 17.617355967966109, 54.775181565555357, 0.0 ], [ 17.616918132807491, 54.775087740008203, 0.0 ], [ 17.616171954837984, 54.77496248169345, 0.0 ], [ 17.615430214017074, 54.774828608118931, 0.0 ], [ 17.614686278946351, 54.774697238394616, 0.0 ], [ 17.61393742424816, 54.774577168049824, 0.0 ], [ 17.613191583573798, 54.774450994304694, 0.0 ], [ 17.612510701054738, 54.774260429364304, 0.0 ], [ 17.611954762575682, 54.774249488676382, 0.0 ], [ 17.611176774287813, 54.774235947647476, 0.0 ], [ 17.611043587551222, 54.774219978839056, 0.0 ], [ 17.61041186049761, 54.774139342217644, 0.0 ], [ 17.609624764526661, 54.774184067454726, 0.0 ], [ 17.608824251890297, 54.774121387052453, 0.0 ], [ 17.608728645261724, 54.774092509502943, 0.0 ], [ 17.607971395821558, 54.773991691737123, 0.0 ], [ 17.607220045873849, 54.773875794521338, 0.0 ], [ 17.606477313933716, 54.773737101311099, 0.0 ], [ 17.605721829961642, 54.773631782844788, 0.0 ], [ 17.604963573904534, 54.773524204455391, 0.0 ], [ 17.60452994794375, 54.77346565413108, 0.0 ], [ 17.604108670702544, 54.773390718293975, 0.0 ], [ 17.565170861871906, 54.846407855437626, 0.0 ], [ 17.56842936264924, 54.846987554188374, 0.0 ], [ 17.571896344712659, 54.848467685573418, 0.0 ], [ 17.59236310511589, 54.850860046553649, 0.0 ], [ 17.598384407076853, 54.852599415557329, 0.0 ], [ 17.612464461250745, 54.854415445230359, 0.0 ], [ 17.613370889962003, 54.854559809559795, 0.0 ], [ 17.619248917503654, 54.855300459885434, 0.0 ], [ 17.622506140920809, 54.855662840779921, 0.0 ], [ 17.624177667945887, 54.855834921237673, 0.0 ], [ 17.62420891688333, 54.855733882841484, 0.0 ], [ 17.627780168315912, 54.856604482652983, 0.0 ], [ 17.633372498133355, 54.857443851664613, 0.0 ], [ 17.633669489888931, 54.857509961433394, 0.0 ], [ 17.63407610295215, 54.857600469508547, 0.0 ], [ 17.638792439820392, 54.85865015918332, 0.0 ], [ 17.642264893860464, 54.859371328871106, 0.0 ], [ 17.657978785585641, 54.862534783986824, 0.0 ], [ 17.662432915410953, 54.863024113080321, 0.0 ], [ 17.665794080314964, 54.863722058086957, 0.0 ], [ 17.671783332940745, 54.865329926029958, 0.0 ], [ 17.677960201876687, 54.866342698907914, 0.0 ], [ 17.680825111293188, 54.867050157679699, 0.0 ], [ 17.684443644754257, 54.867698078551832, 0.0 ], [ 17.697367481648943, 54.871380087582402, 0.0 ], [ 17.704367017642607, 54.872324573987939, 0.0 ], [ 17.709348698575834, 54.873232512914925, 0.0 ], [ 17.71487492639374, 54.874239412215545, 0.0 ], [ 17.721686153794586, 54.875480031522308, 0.0 ], [ 17.736992184244389, 54.877455776745364, 0.0 ], [ 17.740829720755716, 54.877790930561197, 0.0 ], [ 17.743988887155545, 54.878130318019764, 0.0 ], [ 17.749985889842264, 54.87900480572344, 0.0 ], [ 17.755796854999478, 54.879534409994193, 0.0 ], [ 17.761151844334531, 54.880292748765939, 0.0 ], [ 17.764943985234662, 54.880619221451894, 0.0 ], [ 17.767938905235532, 54.881061451548319, 0.0 ], [ 17.779991457037784, 54.882458998095352, 0.0 ], [ 17.785909240591309, 54.883489637277094, 0.0 ], [ 17.789969633315341, 54.884330161514868, 0.0 ], [ 17.797809692615623, 54.885952583768891, 0.0 ], [ 17.803353337710007, 54.886927522574396, 0.0 ], [ 17.809266670179131, 54.887930172106643, 0.0 ], [ 17.812296028013545, 54.888406514990407, 0.0 ], [ 17.812521653438967, 54.88844195011113, 0.0 ], [ 17.812555556824314, 54.888447277207547, 0.0 ], [ 17.815927263080912, 54.88897736679526, 0.0 ], [ 17.817845751465843, 54.889307274430458, 0.0 ], [ 17.819881027236363, 54.889864044763158, 0.0 ], [ 17.832647723986774, 54.892324596451907, 0.0 ], [ 17.841718587022186, 54.894118634096635, 0.0 ], [ 17.851412894424993, 54.895745576245176, 0.0 ], [ 17.860034756127611, 54.897028307313619, 0.0 ], [ 17.861228797619365, 54.897240432566534, 0.0 ], [ 17.873013885714681, 54.899333345892785, 0.0 ], [ 17.898489334510344, 54.901812964233947, 0.0 ], [ 17.905958229823671, 54.902592169750655, 0.0 ], [ 17.909209323216519, 54.902931193434718, 0.0 ], [ 17.914115405055728, 54.903086870114606, 0.0 ], [ 17.921834332545505, 54.903900499964941, 0.0 ], [ 17.931019352732463, 54.905068286608056, 0.0 ], [ 17.937196125117101, 54.905549280776562, 0.0 ], [ 17.940828030128159, 54.905832116961029, 0.0 ], [ 17.942158111204566, 54.905916570616917, 0.0 ], [ 17.943074262738698, 54.905995356850617, 0.0 ], [ 17.95454773110631, 54.90698143844056, 0.0 ], [ 17.974276300534488, 54.907559434830702, 0.0 ], [ 17.983375764879288, 54.907659606772377, 0.0 ], [ 17.983806503037979, 54.907664331439207, 0.0 ], [ 17.988027878070781, 54.907726428126679, 0.0 ], [ 17.994273359552267, 54.907818031820163, 0.0 ], [ 17.995780425265661, 54.907816873099421, 0.0 ], [ 18.00484635648445, 54.908185892923811, 0.0 ], [ 18.014052931152321, 54.9081568316576, 0.0 ], [ 18.014049173799734, 54.908201466528247, 0.0 ], [ 18.0144991814009, 54.90821404445299, 0.0 ], [ 18.028657972023126, 54.90901431652717, 0.0 ], [ 18.037417551596665, 54.909225391905011, 0.0 ], [ 18.047691622327577, 54.90966185511008, 0.0 ], [ 18.049331853757145, 54.909722013685005, 0.0 ], [ 18.053874670438216, 54.909888387472421, 0.0 ], [ 18.056515948032917, 54.909994134374671, 0.0 ], [ 18.064607365173778, 54.910357567943443, 0.0 ], [ 18.07217306587, 54.910347600574411, 0.0 ], [ 18.072810909628696, 54.910346738694585, 0.0 ], [ 18.074793165525868, 54.910355024863684, 0.0 ], [ 18.084021654384145, 54.910599227627728, 0.0 ], [ 18.097546199749665, 54.909957219266225, 0.0 ], [ 18.103310819683085, 54.909709936465156, 0.0 ], [ 18.111269680193516, 54.909213003253058, 0.0 ], [ 18.114444091625703, 54.909014732686693, 0.0 ], [ 18.119500000314645, 54.908859256738999, 0.0 ], [ 18.121826577179345, 54.909029801264616, 0.0 ], [ 18.130699379698068, 54.909232633024857, 0.0 ], [ 18.134356278633547, 54.909287180565762, 0.0 ], [ 18.139327051362205, 54.90952125613628, 0.0 ], [ 18.151432947955914, 54.909800664062388, 0.0 ], [ 18.157187754311867, 54.90982900373286, 0.0 ], [ 18.168061562886624, 54.909983263582866, 0.0 ], [ 18.174561028044678, 54.909824944514106, 0.0 ], [ 18.183659570038426, 54.909865245904989, 0.0 ], [ 18.188701774193948, 54.909726378520702, 0.0 ], [ 18.192615010412243, 54.909727222065918, 0.0 ], [ 18.206843311703185, 54.909444088107271, 0.0 ], [ 18.210891739305314, 54.909578867578823, 0.0 ], [ 18.218879364756805, 54.909456198366115, 0.0 ], [ 18.227998924766922, 54.909316074907807, 0.0 ], [ 18.227986178209335, 54.909425283250087, 0.0 ], [ 18.233760328610256, 54.909648866303776, 0.0 ], [ 18.239111337874842, 54.909779583389756, 0.0 ], [ 18.2478518282362, 54.909926949032126, 0.0 ], [ 18.251672173987249, 54.909847587991976, 0.0 ], [ 18.254918433886047, 54.91001427944461, 0.0 ], [ 18.259723544956866, 54.910196477229384, 0.0 ], [ 18.267928410735841, 54.910444910381948, 0.0 ], [ 18.277192284336301, 54.911656798811343, 0.0 ], [ 18.28352037569757, 54.912004018997528, 0.0 ], [ 18.283610968985535, 54.912007710150391, 0.0 ], [ 18.28370156604953, 54.912011365299946, 0.0 ], [ 18.283792168449512, 54.912014984455411, 0.0 ], [ 18.283882774625059, 54.912018567607603, 0.0 ], [ 18.28397338455995, 54.912022115655297, 0.0 ], [ 18.284063999846079, 54.912025626810035, 0.0 ], [ 18.28415461889108, 54.912029102860295, 0.0 ], [ 18.284245241710678, 54.912032542907205, 0.0 ], [ 18.284335868304623, 54.912035946950773, 0.0 ], [ 18.284426500216924, 54.912039315899023, 0.0 ], [ 18.284517134342902, 54.912042648834714, 0.0 ], [ 18.284607773818649, 54.912045944877349, 0.0 ], [ 18.28469841705185, 54.912049205815464, 0.0 ], [ 18.284789064042251, 54.91205243164903, 0.0 ], [ 18.284879714821486, 54.912055620580325, 0.0 ], [ 18.284970369357449, 54.912058774407072, 0.0 ], [ 18.285061027665847, 54.91206189223039, 0.0 ], [ 18.285151689746435, 54.912064974050281, 0.0 ], [ 18.28524235403874, 54.912068019857557, 0.0 ], [ 18.285333023662957, 54.912071029670543, 0.0 ], [ 18.28542369704272, 54.912074004378937, 0.0 ], [ 18.285514372633497, 54.91207694307468, 0.0 ], [ 18.285605051995244, 54.912079845766932, 0.0 ], [ 18.285695736687927, 54.912082712464894, 0.0 ], [ 18.285786422030704, 54.912085543141018, 0.0 ], [ 18.285877112703929, 54.91208833782278, 0.0 ], [ 18.285967805571051, 54.912091097390757, 0.0 ], [ 18.28605850220795, 54.912093820955185, 0.0 ], [ 18.286149202614379, 54.9120965085161, 0.0 ], [ 18.286239905229884, 54.912099160064308, 0.0 ], [ 18.286330611598544, 54.912101776507818, 0.0 ], [ 18.286421320191685, 54.912104356039777, 0.0 ], [ 18.286512032537505, 54.91210690046703, 0.0 ], [ 18.286602748651653, 54.912109408890714, 0.0 ], [ 18.286693466973677, 54.912111881301641, 0.0 ], [ 18.286784187503315, 54.912114317699853, 0.0 ], [ 18.286874911800574, 54.912116718094452, 0.0 ], [ 18.286965638289072, 54.912119083375146, 0.0 ], [ 18.287056368560588, 54.91212141175339, 0.0 ], [ 18.287147101022878, 54.91212370501772, 0.0 ], [ 18.287237835691592, 54.912125962269272, 0.0 ], [ 18.287328574110813, 54.912128184416062, 0.0 ], [ 18.287419314751862, 54.912130369651194, 0.0 ], [ 18.287510057598606, 54.912132518873541, 0.0 ], [ 18.287600802634934, 54.912134632981946, 0.0 ], [ 18.28769155143668, 54.912136711086681, 0.0 ], [ 18.287782302443407, 54.912138753178624, 0.0 ], [ 18.28787305565487, 54.912140759257717, 0.0 ], [ 18.287963811070814, 54.91214272932401, 0.0 ], [ 18.288054568675136, 54.91214466427634, 0.0 ], [ 18.288145328499329, 54.912146562316941, 0.0 ], [ 18.288236090511422, 54.912148425243586, 0.0 ], [ 18.288326854727043, 54.912150252157389, 0.0 ], [ 18.288417621145946, 54.912152043058327, 0.0 ], [ 18.288508389767884, 54.912153797946402, 0.0 ], [ 18.288599160576759, 54.912155517720478, 0.0 ], [ 18.288689933604054, 54.912157200582833, 0.0 ], [ 18.288780708817793, 54.912158848331167, 0.0 ], [ 18.2888714846734, 54.9121604600575, 0.0 ], [ 18.288962264291047, 54.912162035780071, 0.0 ], [ 18.289053044550066, 54.912163575480612, 0.0 ], [ 18.289143827010424, 54.912165079168282, 0.0 ], [ 18.28923461167188, 54.912166546843039, 0.0 ], [ 18.289325396958144, 54.912167979394624, 0.0 ], [ 18.289416184445038, 54.912169375933296, 0.0 ], [ 18.289506974132305, 54.912170736459068, 0.0 ], [ 18.289597764459476, 54.912172060962803, 0.0 ], [ 18.289688556986551, 54.912173349453603, 0.0 ], [ 18.289779350153058, 54.912174601922359, 0.0 ], [ 18.289870145518968, 54.912175818378188, 0.0 ], [ 18.289960943068213, 54.912176999719932, 0.0 ], [ 18.290051741256182, 54.912178145039618, 0.0 ], [ 18.290142540082606, 54.912179254337246, 0.0 ], [ 18.290233341107459, 54.912180327621925, 0.0 ], [ 18.290324142770309, 54.912181364884525, 0.0 ], [ 18.290414946631092, 54.912182366134182, 0.0 ], [ 18.290505751129384, 54.912183331361767, 0.0 ], [ 18.290596556249106, 54.91218426146613, 0.0 ], [ 18.290687363566061, 54.912185155557538, 0.0 ], [ 18.29077817151979, 54.912186013626837, 0.0 ], [ 18.290868980110044, 54.912186835674078, 0.0 ], [ 18.290959789336569, 54.912187621699211, 0.0 ], [ 18.291050599199146, 54.912188371702271, 0.0 ], [ 18.291141411257726, 54.912189085692333, 0.0 ], [ 18.291232223936071, 54.912189764559166, 0.0 ], [ 18.291323037249732, 54.912190407403891, 0.0 ], [ 18.291413851214251, 54.912191013327678, 0.0 ], [ 18.29150466579781, 54.912191584128202, 0.0 ], [ 18.291595481000169, 54.912192119805511, 0.0 ], [ 18.291686296852653, 54.912192618561832, 0.0 ], [ 18.29177711333924, 54.91219308129606, 0.0 ], [ 18.291867928883693, 54.912193508897943, 0.0 ], [ 18.291958746637746, 54.912193899587947, 0.0 ], [ 18.2920495650094, 54.912194255154702, 0.0 ], [ 18.292140382453955, 54.912194574690247, 0.0 ], [ 18.292231202091621, 54.912194858212764, 0.0 ], [ 18.292322020785953, 54.912195106602944, 0.0 ], [ 18.292412840128456, 54.912195318072129, 0.0 ], [ 18.292503658527128, 54.912195494408984, 0.0 ], [ 18.292594479133705, 54.912195633833939, 0.0 ], [ 18.29268529879598, 54.912195738126542, 0.0 ], [ 18.292776119089677, 54.912195806397008, 0.0 ], [ 18.29286693845436, 54.912195838636286, 0.0 ], [ 18.292957758449976, 54.912195834853442, 0.0 ], [ 18.293048579060557, 54.912195795947326, 0.0 ], [ 18.293139398757123, 54.912195720111129, 0.0 ], [ 18.293230217507947, 54.912195609142593, 0.0 ], [ 18.293321036888749, 54.912195462151935, 0.0 ], [ 18.293411856899283, 54.912195279139148, 0.0 ], [ 18.293502675979095, 54.912195060095137, 0.0 ], [ 18.29359349568815, 54.91219480502901, 0.0 ], [ 18.293684312905775, 54.912194513922586, 0.0 ], [ 18.293775132296648, 54.912194187701971, 0.0 ], [ 18.293865949195609, 54.912193825441101, 0.0 ], [ 18.293956766738589, 54.912193426259215, 0.0 ], [ 18.294047583333647, 54.912192991944984, 0.0 ], [ 18.294138400540763, 54.912192522507475, 0.0 ], [ 18.29422921527074, 54.912192016130852, 0.0 ], [ 18.294320030628004, 54.912191473732086, 0.0 ], [ 18.29441084503641, 54.912190896200997, 0.0 ], [ 18.294501658511415, 54.912190282638704, 0.0 ], [ 18.294592472628729, 54.912189632155396, 0.0 ], [ 18.294683284236221, 54.912188946530712, 0.0 ], [ 18.294774094893878, 54.91218822577369, 0.0 ], [ 18.294864906193101, 54.912187468095681, 0.0 ], [ 18.294955714997496, 54.912186674377409, 0.0 ], [ 18.295046524411543, 54.91218584553588, 0.0 ], [ 18.295137331330306, 54.912184980654096, 0.0 ], [ 18.295228137313725, 54.912184079741138, 0.0 ], [ 18.295318943921764, 54.912183142806043, 0.0 ], [ 18.295409748033787, 54.9121821698307, 0.0 ], [ 18.295500551209738, 54.912181160824183, 0.0 ], [ 18.295591351873487, 54.912180116676318, 0.0 ], [ 18.295682153160893, 54.912179036506302, 0.0 ], [ 18.295772951951289, 54.91217792029606, 0.0 ], [ 18.295863749804667, 54.912176768054664, 0.0 ], [ 18.295954546720758, 54.912175579782101, 0.0 ], [ 18.296045342699333, 54.912174355478356, 0.0 ], [ 18.29613613616425, 54.91217309603325, 0.0 ], [ 18.296226927130945, 54.912171800547974, 0.0 ], [ 18.296317718735306, 54.912170468141689, 0.0 ], [ 18.296408506265053, 54.912169100585039, 0.0 ], [ 18.296499294400618, 54.912167697905133, 0.0 ], [ 18.296590080052674, 54.912166258286163, 0.0 ], [ 18.296680863189625, 54.912164783525874, 0.0 ], [ 18.296771645402789, 54.912163271835595, 0.0 ], [ 18.296862426660589, 54.912161725012993, 0.0 ], [ 18.29695320385801, 54.912160142141204, 0.0 ], [ 18.297043980115248, 54.91215852323829, 0.0 ], [ 18.297134755416398, 54.912156869203102, 0.0 ], [ 18.297225528232325, 54.912155178228865, 0.0 ], [ 18.297316298531463, 54.912153452113344, 0.0 ], [ 18.297376076248341, 54.912152291983993, 0.0 ], [ 18.297391367863177, 54.912152203295896, 0.0 ], [ 18.297481467127216, 54.912151645405693, 0.0 ], [ 18.297571565455225, 54.91215105148536, 0.0 ], [ 18.297661664375873, 54.912150423341664, 0.0 ], [ 18.30027445799659, 54.912131142999428, 0.0 ], [ 18.30065429050325, 54.912128285282016, 0.0 ], [ 18.300744248767508, 54.912127573138534, 0.0 ], [ 18.30083420765235, 54.912126824974138, 0.0 ], [ 18.300924164005959, 54.91212604256858, 0.0 ], [ 18.301014120964105, 54.912125225040988, 0.0 ], [ 18.301104075421701, 54.912124371474519, 0.0 ], [ 18.30119402890756, 54.91212348367587, 0.0 ], [ 18.301283983012819, 54.912122559856314, 0.0 ], [ 18.30137393458568, 54.912121601795626, 0.0 ], [ 18.301463885217256, 54.912120607705042, 0.0 ], [ 18.301553834891738, 54.912119578483441, 0.0 ], [ 18.301643783608885, 54.912118514130832, 0.0 ], [ 18.301733729808262, 54.912117414638217, 0.0 ], [ 18.3018236750654, 54.912116279115743, 0.0 ], [ 18.301913619348952, 54.912115109361103, 0.0 ], [ 18.302003562674237, 54.912113904475454, 0.0 ], [ 18.302093505056561, 54.912112663559945, 0.0 ], [ 18.30218344490439, 54.912111388403311, 0.0 ], [ 18.302273382248583, 54.912110077207871, 0.0 ], [ 18.302363320193766, 54.912108730890367, 0.0 ], [ 18.302453255619294, 54.912107349432901, 0.0 ], [ 18.302543188524936, 54.912105932835495, 0.0 ], [ 18.302633120470666, 54.912104481107093, 0.0 ], [ 18.302723051456233, 54.912102994247689, 0.0 ], [ 18.302812979921221, 54.912101472248352, 0.0 ], [ 18.302902905865359, 54.91209991510906, 0.0 ], [ 18.302992830864188, 54.912098321939929, 0.0 ], [ 18.303082753326169, 54.91209669452973, 0.0 ], [ 18.303172674842358, 54.912095031089699, 0.0 ], [ 18.303262593821255, 54.912093333408578, 0.0 ], [ 18.303352510293657, 54.912091599688715, 0.0 ], [ 18.303442424243819, 54.912089830828904, 0.0 ], [ 18.3035323372162, 54.912088027736999, 0.0 ], [ 18.303622247681393, 54.912086188606331, 0.0 ], [ 18.303712157183838, 54.912084314344696, 0.0 ], [ 18.303802062602895, 54.912082404934239, 0.0 ], [ 18.303891967074243, 54.912080459493936, 0.0 ], [ 18.303981867446225, 54.912078479803689, 0.0 ], [ 18.304071766854531, 54.912076464982505, 0.0 ], [ 18.304161663738711, 54.912074415021429, 0.0 ], [ 18.304251558114039, 54.912072329021605, 0.0 ], [ 18.304341449949277, 54.91207020878079, 0.0 ], [ 18.304431339275176, 54.912068052501233, 0.0 ], [ 18.304521226060523, 54.912065861980693, 0.0 ], [ 18.304611110336076, 54.91206363542144, 0.0 ], [ 18.304700992086083, 54.912061373722317, 0.0 ], [ 18.304790871310331, 54.912059076883367, 0.0 ], [ 18.304880746432868, 54.912056745794501, 0.0 ], [ 18.304970620604877, 54.912054378675876, 0.0 ], [ 18.305060490690206, 54.912051976408506, 0.0 ], [ 18.305150358248824, 54.912049539001295, 0.0 ], [ 18.305240223280506, 54.912047066454271, 0.0 ], [ 18.305330084224796, 54.912044558758517, 0.0 ], [ 18.305419942641681, 54.91204201592295, 0.0 ], [ 18.305509798546407, 54.912039437048733, 0.0 ], [ 18.305599651907766, 54.912036823933562, 0.0 ], [ 18.305689501180808, 54.912034175669724, 0.0 ], [ 18.306901269047597, 54.911997975240901, 0.0 ], [ 18.306978240534669, 54.91199804740986, 0.0 ], [ 18.307068943604968, 54.911998097140213, 0.0 ], [ 18.30715964571797, 54.911998111738455, 0.0 ], [ 18.307250348464517, 54.911998089415782, 0.0 ], [ 18.307341050253271, 54.911998031961005, 0.0 ], [ 18.30743175265966, 54.911997938484163, 0.0 ], [ 18.307522455667986, 54.911997809884113, 0.0 ], [ 18.307613157748687, 54.911997644354251, 0.0 ], [ 18.307703858870632, 54.911997443692286, 0.0 ], [ 18.307794560609235, 54.911997207008284, 0.0 ], [ 18.307885262948826, 54.911996935201039, 0.0 ], [ 18.307975962799599, 54.911996626455107, 0.0 ], [ 18.308066663250877, 54.911996282585967, 0.0 ], [ 18.308157364317839, 54.911995902694741, 0.0 ], [ 18.308248064424614, 54.911995487671433, 0.0 ], [ 18.308338763601814, 54.911995035718292, 0.0 ], [ 18.308429461818335, 54.911994548633075, 0.0 ], [ 18.308520159089369, 54.911994025516911, 0.0 ], [ 18.308610856959476, 54.91199346727754, 0.0 ], [ 18.308701553899013, 54.911992872108343, 0.0 ], [ 18.308792249876937, 54.91199224180707, 0.0 ], [ 18.308882944908387, 54.91199157547485, 0.0 ], [ 18.308973638977751, 54.911990874010549, 0.0 ], [ 18.309064332115561, 54.911990135616421, 0.0 ], [ 18.309155025851002, 54.911989362099106, 0.0 ], [ 18.309245717078809, 54.911988552541956, 0.0 ], [ 18.309336407343558, 54.911987707852738, 0.0 ], [ 18.30942709667578, 54.911986826233722, 0.0 ], [ 18.309517785044459, 54.911985909482638, 0.0 ], [ 18.309608472464749, 54.911984956700593, 0.0 ], [ 18.309699158921021, 54.911983968786501, 0.0 ], [ 18.309789844443799, 54.911982943942618, 0.0 ], [ 18.309880529002069, 54.911981883966654, 0.0 ], [ 18.309971211035403, 54.911980788849753, 0.0 ], [ 18.310061892134502, 54.911979656803069, 0.0 ], [ 18.310152572268372, 54.911978489624339, 0.0 ], [ 18.310243251452167, 54.911977286414675, 0.0 ], [ 18.31033392812542, 54.911976047165247, 0.0 ], [ 18.310424603832733, 54.911974772783744, 0.0 ], [ 18.310515277044399, 54.911973461463624, 0.0 ], [ 18.310605949274283, 54.911972115910309, 0.0 ], [ 18.310696620568223, 54.911970733427211, 0.0 ], [ 18.310787289350415, 54.911969314904375, 0.0 ], [ 18.310877957165474, 54.911967861249472, 0.0 ], [ 18.310968622468295, 54.911966371554847, 0.0 ], [ 18.311059286803498, 54.911964846728161, 0.0 ], [ 18.311149948625996, 54.911963285861731, 0.0 ], [ 18.311240607935545, 54.911961688955557, 0.0 ], [ 18.311331266292097, 54.911960056018515, 0.0 ], [ 18.311421923695413, 54.911958387050582, 0.0 ], [ 18.311512577009506, 54.911956682932932, 0.0 ], [ 18.311603229369876, 54.911954942784391, 0.0 ], [ 18.311693879200746, 54.911953167495007, 0.0 ], [ 18.311784528092762, 54.911951355275882, 0.0 ], [ 18.311875172894588, 54.911949507907075, 0.0 ], [ 18.311965816741729, 54.911947624507413, 0.0 ], [ 18.312056458058407, 54.911945705966886, 0.0 ], [ 18.312147096859711, 54.911943751386666, 0.0 ], [ 18.312237733145405, 54.911941760766766, 0.0 ], [ 18.312328368475459, 54.91193973411599, 0.0 ], [ 18.312418999713877, 54.911937672315588, 0.0 ], [ 18.312509628435961, 54.911935574475493, 0.0 ], [ 18.31260025620168, 54.911933440604557, 0.0 ], [ 18.312690879890361, 54.91193127068513, 0.0 ], [ 18.312781501046668, 54.911929065624918, 0.0 ], [ 18.312872121245885, 54.91192682453385, 0.0 ], [ 18.312962737352031, 54.911924548293172, 0.0 ], [ 18.3130533509404, 54.91192223601287, 0.0 ], [ 18.313143962010734, 54.911919887692903, 0.0 ], [ 18.313234569002599, 54.911917503324496, 0.0 ], [ 18.313325175020861, 54.91191508382412, 0.0 ], [ 18.313415776960159, 54.91191262827531, 0.0 ], [ 18.31350637638047, 54.911910136686906, 0.0 ], [ 18.313596971721335, 54.911907609050033, 0.0 ], [ 18.313687566087641, 54.911905046281248, 0.0 ], [ 18.313778154813807, 54.91190244745524, 0.0 ], [ 18.313868742564939, 54.911899813497321, 0.0 ], [ 18.313959326235679, 54.911897143490982, 0.0 ], [ 18.314049907385968, 54.911894437445063, 0.0 ], [ 18.314140484455379, 54.911891695350747, 0.0 ], [ 18.314231058988579, 54.911888918115743, 0.0 ], [ 18.314321629440414, 54.911886104832355, 0.0 ], [ 18.314412197355569, 54.911883256408267, 0.0 ], [ 18.31450276120415, 54.911880371036958, 0.0 ], [ 18.314593320955357, 54.911877450516158, 0.0 ], [ 18.314683878169177, 54.911874494854693, 0.0 ], [ 18.314774432860638, 54.911871503153691, 0.0 ], [ 18.314864981909075, 54.911868475395543, 0.0 ], [ 18.314955528434655, 54.911865411597915, 0.0 ], [ 18.315046070861687, 54.911862312650797, 0.0 ], [ 18.315136609205172, 54.911859177655408, 0.0 ], [ 18.315227145025101, 54.911856006620496, 0.0 ], [ 18.315317676745757, 54.911852800436165, 0.0 ], [ 18.315408204382152, 54.911849558203549, 0.0 ], [ 18.31549872791879, 54.911846280821528, 0.0 ], [ 18.315589247370696, 54.911842967391244, 0.0 ], [ 18.31567976273762, 54.911839617912719, 0.0 ], [ 18.315770274019336, 54.911836232385951, 0.0 ], [ 18.315860782760542, 54.911832811718568, 0.0 ], [ 18.315951285855853, 54.91182935499419, 0.0 ], [ 18.316041784849979, 54.911825863120441, 0.0 ], [ 18.316132281318136, 54.911822335207255, 0.0 ], [ 18.316222772139664, 54.911818771237094, 0.0 ], [ 18.316313258859289, 54.911815172117599, 0.0 ], [ 18.316403741492024, 54.911811536949926, 0.0 ], [ 18.316494218477409, 54.911807865725294, 0.0 ], [ 18.316584692920394, 54.911804159360123, 0.0 ], [ 18.316675161715551, 54.911800416938028, 0.0 ], [ 18.316765626407634, 54.911796639366628, 0.0 ], [ 18.316856087011608, 54.911792825747099, 0.0 ], [ 18.316946543527237, 54.911788976079428, 0.0 ], [ 18.317036994378874, 54.911785091253734, 0.0 ], [ 18.317127441141686, 54.911781170379925, 0.0 ], [ 18.317217882255232, 54.911777213449241, 0.0 ], [ 18.317308319264267, 54.91177322136933, 0.0 ], [ 18.317398752183774, 54.911769193241305, 0.0 ], [ 18.317489179438073, 54.911765129955342, 0.0 ], [ 18.317579601042159, 54.911761030612524, 0.0 ], [ 18.317670018555987, 54.91175689522165, 0.0 ], [ 18.317760431964118, 54.911752724681591, 0.0 ], [ 18.317850839721306, 54.911748518084742, 0.0 ], [ 18.317941241812111, 54.911744276329955, 0.0 ], [ 18.318031639811711, 54.911739998527167, 0.0 ], [ 18.318122032159646, 54.911735684667605, 0.0 ], [ 18.318212420400709, 54.911731335658907, 0.0 ], [ 18.31830280141422, 54.911726951483558, 0.0 ], [ 18.31839317835076, 54.911722530361381, 0.0 ], [ 18.318483549619508, 54.911718074081357, 0.0 ], [ 18.318573916780402, 54.911713582652226, 0.0 ], [ 18.318664276728011, 54.911709055157658, 0.0 ], [ 18.318754632582504, 54.91170449161514, 0.0 ], [ 18.31884498276823, 54.911699892914797, 0.0 ], [ 18.318935327300153, 54.91169525815782, 0.0 ], [ 18.319025666162855, 54.911690588243054, 0.0 ], [ 18.319115999371281, 54.911685882271627, 0.0 ], [ 18.319206326909992, 54.911681141142445, 0.0 ], [ 18.319296650354151, 54.911676363965391, 0.0 ], [ 18.319386966583107, 54.911671550723, 0.0 ], [ 18.319477277141665, 54.911666702322876, 0.0 ], [ 18.319567582029578, 54.911661818765033, 0.0 ], [ 18.319657879701563, 54.911656899141882, 0.0 ], [ 18.319748173277812, 54.911651943470915, 0.0 ], [ 18.319838461182698, 54.911646952642258, 0.0 ], [ 18.31992874187096, 54.911641925748349, 0.0 ], [ 18.320019016887397, 54.911636863696785, 0.0 ], [ 18.320109286246922, 54.911631765588723, 0.0 ], [ 18.320199549949297, 54.911626631424134, 0.0 ], [ 18.320289806403807, 54.91162146299208, 0.0 ], [ 18.320380057215836, 54.91161625760472, 0.0 ], [ 18.320470300794661, 54.911611017051008, 0.0 ], [ 18.320560540260438, 54.91160574134846, 0.0 ], [ 18.320650770947488, 54.911600429572019, 0.0 ], [ 18.32074099753617, 54.911595081747905, 0.0 ], [ 18.320831216890703, 54.911589698757503, 0.0 ], [ 18.320921429010856, 54.911584280600856, 0.0 ], [ 18.321011635471717, 54.911578826387846, 0.0 ], [ 18.321101834697728, 54.911573337008619, 0.0 ], [ 18.321192028263987, 54.911567811573029, 0.0 ], [ 18.321282214610036, 54.911562250072393, 0.0 ], [ 18.321372395280733, 54.91155665341428, 0.0 ], [ 18.321462568715638, 54.911551021590014, 0.0 ], [ 18.321552734929636, 54.911545353700745, 0.0 ], [ 18.32164289390737, 54.911539650645338, 0.0 ], [ 18.321661850534028, 54.911538443991645, 0.0 ], [ 18.321741742981004, 54.91153567705134, 0.0 ], [ 18.321831656138883, 54.911532527289786, 0.0 ], [ 18.321921566737036, 54.911529343287533, 0.0 ], [ 18.322011473245244, 54.911526123238119, 0.0 ], [ 18.322101375633082, 54.911522868939279, 0.0 ], [ 18.322191273930517, 54.911519578593307, 0.0 ], [ 18.322281168122203, 54.91151625309908, 0.0 ], [ 18.322371059768098, 54.911512892465268, 0.0 ], [ 18.322460945747586, 54.911509496674526, 0.0 ], [ 18.322550829195908, 54.911506064845369, 0.0 ], [ 18.322640706962268, 54.911502598758155, 0.0 ], [ 18.322730582181897, 54.911499097531397, 0.0 ], [ 18.322820451749276, 54.911495560248895, 0.0 ], [ 18.322910318769459, 54.911491987826849, 0.0 ], [ 18.323000180106742, 54.911488381146803, 0.0 ], [ 18.323090037351253, 54.911484738419674, 0.0 ], [ 18.323179890487669, 54.911481060544375, 0.0 ], [ 18.323269739515769, 54.911477347520908, 0.0 ], [ 18.323359584435298, 54.911473599349272, 0.0 ], [ 18.32344942524605, 54.911469816029474, 0.0 ], [ 18.323539260402647, 54.911465996653995, 0.0 ], [ 18.323629091434906, 54.911462143029247, 0.0 ], [ 18.323718918357677, 54.911458254256338, 0.0 ], [ 18.323808739625594, 54.911454329427784, 0.0 ], [ 18.325126120667409, 54.91139624646673, 0.0 ], [ 18.325216278568899, 54.911392235270128, 0.0 ], [ 18.325306432358751, 54.911388188924981, 0.0 ], [ 18.325396582051763, 54.911384106532402, 0.0 ], [ 18.325486726072491, 54.911379988982617, 0.0 ], [ 18.325576864435703, 54.911375835376774, 0.0 ], [ 18.325666998686337, 54.911371646622413, 0.0 ], [ 18.325757127263966, 54.911367422710853, 0.0 ], [ 18.325847251728558, 54.911363163650826, 0.0 ], [ 18.325937370534703, 54.911358868534741, 0.0 ], [ 18.326027485242346, 54.911354537371324, 0.0 ], [ 18.326117594261021, 54.911350171949636, 0.0 ], [ 18.326207697620529, 54.911345770471947, 0.0 ], [ 18.326297795305614, 54.911341333837179, 0.0 ], [ 18.326387888891265, 54.911336861155085, 0.0 ], [ 18.326477976802032, 54.911332353315913, 0.0 ], [ 18.326568059037662, 54.911327810319648, 0.0 ], [ 18.326658135612952, 54.911323231267481, 0.0 ], [ 18.326748206512644, 54.911318617058228, 0.0 ], [ 18.326838273296712, 54.911313967700607, 0.0 ], [ 18.326928332859509, 54.911309282278438, 0.0 ], [ 18.327018388306215, 54.911304561707922, 0.0 ], [ 18.327108436516191, 54.91129980597173, 0.0 ], [ 18.327198480609582, 54.911295015087205, 0.0 ], [ 18.327288519040977, 54.911290188146822, 0.0 ], [ 18.327378550234943, 54.911285326040826, 0.0 ], [ 18.327468577326623, 54.911280427887647, 0.0 ], [ 18.327558597180392, 54.911275494568891, 0.0 ], [ 18.327648611356231, 54.911270526093219, 0.0 ], [ 18.327738619853893, 54.911265522460624, 0.0 ], [ 18.32782862268812, 54.911260482772249, 0.0 ], [ 18.327918619843715, 54.911255407926973, 0.0 ], [ 18.328008609760243, 54.911250297916183, 0.0 ], [ 18.328098593997655, 54.911245152748528, 0.0 ], [ 18.328188572570685, 54.911239971525156, 0.0 ], [ 18.328278545464151, 54.911234755144925, 0.0 ], [ 18.328368511132563, 54.91122950270038, 0.0 ], [ 18.328458471105968, 54.911224215997876, 0.0 ], [ 18.328548423853871, 54.911218893231094, 0.0 ], [ 18.328638370921251, 54.91121353530751, 0.0 ], [ 18.328728312322845, 54.91120814132826, 0.0 ], [ 18.328818246468298, 54.911202713082503, 0.0 ], [ 18.328833148647327, 54.911201807439348, 0.0 ], [ 18.328850745302418, 54.911201571106986, 0.0 ], [ 18.328941037377419, 54.911200324845993, 0.0 ], [ 18.329031330045417, 54.911199042563332, 0.0 ], [ 18.329121618610682, 54.911197725132084, 0.0 ], [ 18.329211907768475, 54.911196371679203, 0.0 ], [ 18.329302194383246, 54.91119498308634, 0.0 ], [ 18.329392480014924, 54.911193559362097, 0.0 ], [ 18.329482763118062, 54.911192099598978, 0.0 ], [ 18.329573043677438, 54.911190604695896, 0.0 ], [ 18.329663324828157, 54.91118907377119, 0.0 ], [ 18.329753601874472, 54.911187507697925, 0.0 ], [ 18.329843877936522, 54.911185906493287, 0.0 ], [ 18.329934153029004, 54.911184269258392, 0.0 ], [ 18.330024424016365, 54.911182596874973, 0.0 ], [ 18.330114695593878, 54.911180888469907, 0.0 ], [ 18.330204963065782, 54.911179144916304, 0.0 ], [ 18.330295229552249, 54.911177366231357, 0.0 ], [ 18.330385493507755, 54.911175551507597, 0.0 ], [ 18.330475754917153, 54.911173701643897, 0.0 ], [ 18.330566013780192, 54.911171816640277, 0.0 ], [ 18.330656271671767, 54.911169895606442, 0.0 ], [ 18.330746527031419, 54.911167938533822, 0.0 ], [ 18.330836779829088, 54.911165947220148, 0.0 ], [ 18.330927030094376, 54.911163919867697, 0.0 ], [ 18.331017277812133, 54.911161857375326, 0.0 ], [ 18.331107522997033, 54.911159758844192, 0.0 ], [ 18.331197765633913, 54.911157625173153, 0.0 ], [ 18.331288005737441, 54.91115545546338, 0.0 ], [ 18.331378243292502, 54.91115325061368, 0.0 ], [ 18.331468478298834, 54.911151010624096, 0.0 ], [ 18.331558710756202, 54.911148735494656, 0.0 ], [ 18.331648940679294, 54.911146424326439, 0.0 ], [ 18.331739168067834, 54.911144077119516, 0.0 ], [ 18.331829391331627, 54.911141695663019, 0.0 ], [ 18.33191961206041, 54.911139278167788, 0.0 ], [ 18.332009831814123, 54.911136824642412, 0.0 ], [ 18.332100045897086, 54.911134335960043, 0.0 ], [ 18.33219025898962, 54.911131812146401, 0.0 ], [ 18.332280467971113, 54.911129253184349, 0.0 ], [ 18.332370674416399, 54.911126658183591, 0.0 ], [ 18.332460878310371, 54.911124028043027, 0.0 ], [ 18.332551078107464, 54.911121361855194, 0.0 ], [ 18.332641275352746, 54.911118660527563, 0.0 ], [ 18.332731468485836, 54.911115924051536, 0.0 ], [ 18.332821659066628, 54.911113152435718, 0.0 ], [ 18.332911847109802, 54.91111034478125, 0.0 ], [ 18.333002031054907, 54.911107501079542, 0.0 ], [ 18.333092210871971, 54.911104623128374, 0.0 ], [ 18.333182388150689, 54.911101709138535, 0.0 ], [ 18.333272561315766, 54.911098760000392, 0.0 ], [ 18.333362731942028, 54.911095774823593, 0.0 ], [ 18.333452898454158, 54.911092754498505, 0.0 ], [ 18.333543060851952, 54.911089699025098, 0.0 ], [ 18.333633219150002, 54.911086607504522, 0.0 ], [ 18.333723374893424, 54.911083480844212, 0.0 ], [ 18.333813526521801, 54.911080319035626, 0.0 ], [ 18.333903675609907, 54.911077121188427, 0.0 ], [ 18.333993819007468, 54.911073889083283, 0.0 ], [ 18.334083959879123, 54.911070620040697, 0.0 ], [ 18.334174095059755, 54.91106731674018, 0.0 ], [ 18.334264227699176, 54.911063977401106, 0.0 ], [ 18.334354356222121, 54.911060602913793, 0.0 ], [ 18.334444480643199, 54.911057192379381, 0.0 ], [ 18.334534600932496, 54.911053747595595, 0.0 ], [ 18.334624717134286, 54.911050265865896, 0.0 ], [ 18.334714829203818, 54.91104674988685, 0.0 ], [ 18.334804937170542, 54.911043197860749, 0.0 ], [ 18.334895041019365, 54.911039610686458, 0.0 ], [ 18.334985140750081, 54.911035988363984, 0.0 ], [ 18.33507523637725, 54.91103232999447, 0.0 ], [ 18.335165326325637, 54.911028636468266, 0.0 ], [ 18.335255413715387, 54.911024907802449, 0.0 ], [ 18.335345495425884, 54.911021143979958, 0.0 ], [ 18.335435573031905, 54.911017344110462, 0.0 ], [ 18.335525644958206, 54.911013509084327, 0.0 ], [ 18.335615714324906, 54.911009638918593, 0.0 ], [ 18.335705778026234, 54.911005732697355, 0.0 ], [ 18.33579583604714, 54.911001791319499, 0.0 ], [ 18.335885891507751, 54.910997814802087, 0.0 ], [ 18.335975939742088, 54.910993802220673, 0.0 ], [ 18.336065985400854, 54.910989755398575, 0.0 ], [ 18.336156025393063, 54.910985672521036, 0.0 ], [ 18.336246059718462, 54.910981553588059, 0.0 ], [ 18.336336089907423, 54.910977400405912, 0.0 ], [ 18.336426115989266, 54.910973211176852, 0.0 ], [ 18.336516136388834, 54.910968986791282, 0.0 ], [ 18.336606151120627, 54.910964726350294, 0.0 ], [ 18.336696161715054, 54.910960431660179, 0.0 ], [ 18.33678616664125, 54.910956100914682, 0.0 ], [ 18.336876165884217, 54.910951735012702, 0.0 ], [ 18.336966161003865, 54.910947333962753, 0.0 ], [ 18.3370561504546, 54.910942896857456, 0.0 ], [ 18.337146135781548, 54.91093842460419, 0.0 ], [ 18.337236113864151, 54.910933917185993, 0.0 ], [ 18.337326087822511, 54.910929374619869, 0.0 ], [ 18.337416056110996, 54.91092479599844, 0.0 ], [ 18.337506018714581, 54.910920182220586, 0.0 ], [ 18.337595975633057, 54.910915533286328, 0.0 ], [ 18.337685926866179, 54.910910849195687, 0.0 ], [ 18.340991735758291, 54.910737341816898, 0.0 ], [ 18.341082171517751, 54.910732557159946, 0.0 ], [ 18.34117260313365, 54.910727738253385, 0.0 ], [ 18.341263029089578, 54.910722882392101, 0.0 ], [ 18.341353449355967, 54.910717991373922, 0.0 ], [ 18.34144386238707, 54.910713064291507, 0.0 ], [ 18.341534271288314, 54.910708102060632, 0.0 ], [ 18.341624672953813, 54.910703103765542, 0.0 ], [ 18.341715068943465, 54.910698069414686, 0.0 ], [ 18.341805459242394, 54.910692999907006, 0.0 ], [ 18.341895842304844, 54.910687894335119, 0.0 ], [ 18.341986221250927, 54.910682752715992, 0.0 ], [ 18.342076592945382, 54.910677575931579, 0.0 ], [ 18.342166957402654, 54.91067236308303, 0.0 ], [ 18.342257317742831, 54.91066711418727, 0.0 ], [ 18.34234767083068, 54.910661830126244, 0.0 ], [ 18.342438016680632, 54.910656510001168, 0.0 ], [ 18.342528356837942, 54.910651154719304, 0.0 ], [ 18.342618691317046, 54.910645763381851, 0.0 ], [ 18.342709018542884, 54.91064033687919, 0.0 ], [ 18.342799340104666, 54.910634873422055, 0.0 ], [ 18.342889654398068, 54.910629375698647, 0.0 ], [ 18.342979961466781, 54.910623841012388, 0.0 ], [ 18.343070262841437, 54.91061827116944, 0.0 ], [ 18.343160556961653, 54.91061266616137, 0.0 ], [ 18.343250845401986, 54.910607025097775, 0.0 ], [ 18.343341126602031, 54.910601347970228, 0.0 ], [ 18.343431400546915, 54.910595635677623, 0.0 ], [ 18.343521668811217, 54.91058988732955, 0.0 ], [ 18.343611928259708, 54.910584103808006, 0.0 ], [ 18.343702182041767, 54.910578283332136, 0.0 ], [ 18.343792428553101, 54.910572428590122, 0.0 ], [ 18.343882669382872, 54.910566537792683, 0.0 ], [ 18.343972901410542, 54.910560610922964, 0.0 ], [ 18.344063126181407, 54.910554648888301, 0.0 ], [ 18.344153345270023, 54.910548650798262, 0.0 ], [ 18.344243557101347, 54.910542617543285, 0.0 ], [ 18.344333760129608, 54.910536548216108, 0.0 ], [ 18.344423957474909, 54.910530442833576, 0.0 ], [ 18.344514146002052, 54.91052430227775, 0.0 ], [ 18.344604328831156, 54.910518126565478, 0.0 ], [ 18.344694502856235, 54.910511914781068, 0.0 ], [ 18.344784671197406, 54.910505666941376, 0.0 ], [ 18.344874830719498, 54.910499383928439, 0.0 ], [ 18.344964982997023, 54.910493064851849, 0.0 ], [ 18.345055128015165, 54.910486710610463, 0.0 ], [ 18.345145264228112, 54.910480320297026, 0.0 ], [ 18.345235394741362, 54.910473894827234, 0.0 ], [ 18.345325516434357, 54.910467434184305, 0.0 ], [ 18.345415629336042, 54.910460936570523, 0.0 ], [ 18.345505736522739, 54.910454404699287, 0.0 ], [ 18.345595834917649, 54.910447835857234, 0.0 ], [ 18.345685926036946, 54.910441232749363, 0.0 ], [ 18.345776008349397, 54.910434593569583, 0.0 ], [ 18.345866083414933, 54.910427918326278, 0.0 ], [ 18.345956149658587, 54.910421207909948, 0.0 ], [ 18.346046208654837, 54.910414461430157, 0.0 ], [ 18.346136258828725, 54.910407679777357, 0.0 ], [ 18.346226301754751, 54.910400862061131, 0.0 ], [ 18.346316335857953, 54.910394009171931, 0.0 ] ] ] ] } }
]
}
