{
"type": "FeatureCollection",
"name": "18005",
"crs": { "type": "name", "properties": { "name": "urn:ogc:def:crs:OGC:1.3:CRS84" } },
"features": [
{ "type": "Feature", "properties": { "area_km2": 800.75461641599998, "PROJECT_NO": 18005.0, "NAME": "Ławica Słupska", "TYPE": "OTH", "NO": 0, "status": "COMPLETED", "geotechnic": null, "ORIG_FID": 31, "Shape_Leng": 120038.00591599999, "Shape_Area": 800754616.41600013 }, "geometry": { "type": "MultiPolygon", "coordinates": [ [ [ [ 17.02313129599267, 54.890000832582928, 0.0 ], [ 17.023466365599432, 54.890105504282829, 0.0 ], [ 16.976528501816517, 54.879373207559254, 0.0 ], [ 16.908860755496676, 54.863835277483211, 0.0 ], [ 16.815571157023786, 54.842173374845729, 0.0 ], [ 16.776320966928285, 54.842910267263427, 0.0 ], [ 16.776267399579492, 54.84300936629581, 0.0 ], [ 16.762866671339932, 54.843260271665244, 0.0 ], [ 16.706674225920537, 54.844200102086475, 0.0 ], [ 16.601019194721587, 54.846035692787858, 0.0 ], [ 16.5417958927593, 54.846938683796346, 0.0 ], [ 16.526803895513503, 54.849122337790682, 0.0 ], [ 16.526495168952987, 54.849147046726088, 0.0 ], [ 16.49844653996924, 54.853086425197212, 0.0 ], [ 16.451687099502564, 54.859637524893024, 0.0 ], [ 16.405742749263606, 54.866220220563974, 0.0 ], [ 16.399672974432093, 54.873422912230858, 0.0 ], [ 16.376149251486478, 54.901382611643669, 0.0 ], [ 16.358432126886171, 54.922516056284032, 0.0 ], [ 16.371685586068608, 54.930776887891213, 0.0 ], [ 16.37170859029904, 54.930919319482129, 0.0 ], [ 16.464101845297566, 54.989287259445362, 0.0 ], [ 16.517395545266695, 55.001947690580238, 0.0 ], [ 16.517185202108898, 55.001832488739105, 0.0 ], [ 16.658870013843121, 55.034686029447997, 0.0 ], [ 16.766086781544104, 55.032525863259465, 0.0 ], [ 16.766095350818965, 55.032553564896446, 0.0 ], [ 16.858519449138434, 55.030605598989055, 0.0 ], [ 17.018115390214245, 55.001454705115869, 0.0 ], [ 17.017952357198688, 55.001531692155069, 0.0 ], [ 17.179655238587724, 54.971921186491834, 0.0 ], [ 17.171702540906679, 54.953020210791394, 0.0 ], [ 17.15795149424153, 54.945386885753329, 0.0 ], [ 17.15787399329772, 54.945293758923164, 0.0 ], [ 17.08692028527545, 54.904664946219015, 0.0 ], [ 17.02313129599267, 54.890000832582928, 0.0 ] ] ] ] } }
]
}
