{
"type": "FeatureCollection",
"name": "18011",
"crs": { "type": "name", "properties": { "name": "urn:ogc:def:crs:OGC:1.3:CRS84" } },
"features": [
{ "type": "Feature", "properties": { "area_km2": 125.076241622, "PROJECT_NO": 18011.0, "NAME": "Wolin 3D", "TYPE": "OTH", "NO": 0, "status": "COMPLETED", "geotechnic": null, "ORIG_FID": 16, "Shape_Leng": 45351.708964600002, "Shape_Area": 125076241.62199998 }, "geometry": { "type": "MultiPolygon", "coordinates": [ [ [ [ 14.228025175131116, 53.932679659088414, 0.0 ], [ 14.242795201258026, 53.987817775996021, 0.0 ], [ 14.237750305773512, 54.005189863828342, 0.0 ], [ 14.435899078142528, 54.006294843679356, 0.0 ], [ 14.441854643755429, 53.952868403734129, 0.0 ], [ 14.438083787360966, 53.950818113415444, 0.0 ], [ 14.438168152506742, 53.950291749176053, 0.0 ], [ 14.442528192695114, 53.947685215221014, 0.0 ], [ 14.44367064565054, 53.936979079899288, 0.0 ], [ 14.43988432646878, 53.933254784690135, 0.0 ], [ 14.433484864284429, 53.930569672926609, 0.0 ], [ 14.425121077469065, 53.928025099035587, 0.0 ], [ 14.407226209943268, 53.922915771870969, 0.0 ], [ 14.395977339283448, 53.920002216968172, 0.0 ], [ 14.381917787156622, 53.917063641927491, 0.0 ], [ 14.371764292056202, 53.915196405923439, 0.0 ], [ 14.360400354910452, 53.913840043914874, 0.0 ], [ 14.34757367978842, 53.913121393927604, 0.0 ], [ 14.338623692642445, 53.913658857684318, 0.0 ], [ 14.327792339752769, 53.915213133442492, 0.0 ], [ 14.317300729030052, 53.918028636948144, 0.0 ], [ 14.301740316731067, 53.922320389210363, 0.0 ], [ 14.292558978406138, 53.924647633952937, 0.0 ], [ 14.283477091366024, 53.927270579186008, 0.0 ], [ 14.282317814378022, 53.928758450010022, 0.0 ], [ 14.280025789393692, 53.930786647120236, 0.0 ], [ 14.277427816897681, 53.932201993702215, 0.0 ], [ 14.276652729256327, 53.926978077235447, 0.0 ], [ 14.270937324400899, 53.92564600944943, 0.0 ], [ 14.265717803687773, 53.92537667575661, 0.0 ], [ 14.253959164185135, 53.925844301670246, 0.0 ], [ 14.241010171379507, 53.928761424779367, 0.0 ], [ 14.228025175131116, 53.932679659088414, 0.0 ] ] ] ] } }
]
}
