{
"type": "FeatureCollection",
"name": "19020",
"crs": { "type": "name", "properties": { "name": "urn:ogc:def:crs:OGC:1.3:CRS84" } },
"features": [
{ "type": "Feature", "properties": { "area_km2": 170.575094038, "PROJECT_NO": 19020.0, "NAME": "BC-Wind [DSU EDPR]", "TYPE": "OWF", "NO": 0, "status": "COMPLETED", "geotechnic": null, "ORIG_FID": 17, "Shape_Leng": 63481.495885099997, "Shape_Area": 170575094.03799999 }, "geometry": { "type": "MultiPolygon", "coordinates": [ [ [ [ 18.052367602444196, 55.118824331892782, 0.0 ], [ 18.054267906242281, 55.118803450998662, 0.0 ], [ 18.056161751516228, 55.118711351318439, 0.0 ], [ 18.058041017872938, 55.118548429772872, 0.0 ], [ 18.059897650347644, 55.118315383626467, 0.0 ], [ 18.061723689385364, 55.118013211599369, 0.0 ], [ 18.063511304054714, 55.117643210501612, 0.0 ], [ 18.065252833235906, 55.117206965628583, 0.0 ], [ 18.06694081407792, 55.116706348242637, 0.0 ], [ 18.068568009119886, 55.116143502251653, 0.0 ], [ 18.070127448798168, 55.115520842685875, 0.0 ], [ 18.071612450784087, 55.114841037811864, 0.0 ], [ 18.073016653198231, 55.114107000338777, 0.0 ], [ 18.073049321133105, 55.11408873619029, 0.0 ], [ 18.082858088919647, 55.108595195338303, 0.0 ], [ 18.0967638368226, 55.101632816331481, 0.0 ], [ 18.097926802654349, 55.1010175245071, 0.0 ], [ 18.099243272190272, 55.100232127553262, 0.0 ], [ 18.1004672894076, 55.09939902850747, 0.0 ], [ 18.100629898367771, 55.099279584790629, 0.0 ], [ 18.109670922442465, 55.092574319287472, 0.0 ], [ 18.120342925314642, 55.086588191898315, 0.0 ], [ 18.128984957399819, 55.082907225090551, 0.0 ], [ 18.151415132486036, 55.07595581709657, 0.0 ], [ 18.159796856480398, 55.073729924865553, 0.0 ], [ 18.160127192878509, 55.073640729729711, 0.0 ], [ 18.161812159361045, 55.073138783679852, 0.0 ], [ 18.163436260774191, 55.07257465753937, 0.0 ], [ 18.164992536210573, 55.071950769094357, 0.0 ], [ 18.166474318498544, 55.071269791884866, 0.0 ], [ 18.167875259527325, 55.07053464633119, 0.0 ], [ 18.169189358882495, 55.069748480992004, 0.0 ], [ 18.170410992153634, 55.068914668201771, 0.0 ], [ 18.171534927111281, 55.068036778949292, 0.0 ], [ 18.172556356711219, 55.067118575850863, 0.0 ], [ 18.173470907270918, 55.066163993370544, 0.0 ], [ 18.174274671585124, 55.065177122707972, 0.0 ], [ 18.174964212369272, 55.064162191094553, 0.0 ], [ 18.175536584362209, 55.063123546614776, 0.0 ], [ 18.175989345537129, 55.062065638464588, 0.0 ], [ 18.176320566709659, 55.060992998103906, 0.0 ], [ 18.176528836432887, 55.059910220384467, 0.0 ], [ 18.176613275331299, 55.058821942051928, 0.0 ], [ 18.176615280183348, 55.058613392786775, 0.0 ], [ 18.176597622243783, 55.045065312655488, 0.0 ], [ 18.17655588509837, 55.044184742581123, 0.0 ], [ 18.176392188194416, 55.043099445833512, 0.0 ], [ 18.176105242529442, 55.04202261945769, 0.0 ], [ 18.17569628434617, 55.04095887438401, 0.0 ], [ 18.175167073356182, 55.039912764513211, 0.0 ], [ 18.174519886688735, 55.038888766925339, 0.0 ], [ 18.173757501805447, 55.037891266515793, 0.0 ], [ 18.172883192137814, 55.036924531734364, 0.0 ], [ 18.171900703779009, 55.035992699191183, 0.0 ], [ 18.170814252562174, 55.035099757506551, 0.0 ], [ 18.169628491502213, 55.034249527367962, 0.0 ], [ 18.16834850319303, 55.033445647153222, 0.0 ], [ 18.166979767249011, 55.032691555688828, 0.0 ], [ 18.165528144877815, 55.031990480519688, 0.0 ], [ 18.163999851112084, 55.031345418902987, 0.0 ], [ 18.162401426790336, 55.03075913228291, 0.0 ], [ 18.160739713975982, 55.03023412730267, 0.0 ], [ 18.159021820150691, 55.029772651119025, 0.0 ], [ 18.157255098306024, 55.029376676034595, 0.0 ], [ 18.155447104907886, 55.029047895658671, 0.0 ], [ 18.153605573604477, 55.028787717574708, 0.0 ], [ 18.151738381166876, 55.028597254149595, 0.0 ], [ 18.14985351489667, 55.028477318739334, 0.0 ], [ 18.14944147395968, 55.028460607950485, 0.0 ], [ 18.041205843626628, 55.024467369610029, 0.0 ], [ 18.04094051001087, 55.024466365812685, 0.0 ], [ 18.039723655350883, 55.024433870609961, 0.0 ], [ 18.037827814378598, 55.024454543134624, 0.0 ], [ 18.035938379625374, 55.024546375431001, 0.0 ], [ 18.034063431023156, 55.024708975296448, 0.0 ], [ 18.033348855140684, 55.024798731779256, 0.0 ], [ 18.033269898962132, 55.024780940038767, 0.0 ], [ 18.031463150086456, 55.024450323602352, 0.0 ], [ 18.029622656033592, 55.024188273598647, 0.0 ], [ 18.027756289136011, 55.023995911295948, 0.0 ], [ 18.025872033182093, 55.023874058168623, 0.0 ], [ 18.025632667485134, 55.023863691836482, 0.0 ], [ 18.009991882688574, 55.0232227101924, 0.0 ], [ 18.009805772945601, 55.023221638367161, 0.0 ], [ 18.008337207563351, 55.023182042391277, 0.0 ], [ 18.006441415561344, 55.02320222616494, 0.0 ], [ 18.004551974017911, 55.023293571150603, 0.0 ], [ 18.002676962870254, 55.023455688127115, 0.0 ], [ 18.000824402703454, 55.023687882231897, 0.0 ], [ 17.999002217210183, 55.023989160725343, 0.0 ], [ 17.997218200466968, 55.02435823539281, 0.0 ], [ 17.995479982565644, 55.024793527622521, 0.0 ], [ 17.993795003005502, 55.02529317533844, 0.0 ], [ 17.992170468398712, 55.025855040696399, 0.0 ], [ 17.990613331988072, 55.026476720651807, 0.0 ], [ 17.989130259082614, 55.027155556507509, 0.0 ], [ 17.98772759405373, 55.02788864257186, 0.0 ], [ 17.986411347394021, 55.028672844869384, 0.0 ], [ 17.98518715181849, 55.029504805209399, 0.0 ], [ 17.984060253800578, 55.030380966224989, 0.0 ], [ 17.983035480499467, 55.031297578228568, 0.0 ], [ 17.982117223551921, 55.032250718795112, 0.0 ], [ 17.9813094213862, 55.033236307841321, 0.0 ], [ 17.980615539808667, 55.034250128087521, 0.0 ], [ 17.980038557397506, 55.035287840170909, 0.0 ], [ 17.979580952325861, 55.036345002271105, 0.0 ], [ 17.979244692318876, 55.037417088868899, 0.0 ], [ 17.97903122929009, 55.038499509551464, 0.0 ], [ 17.978941484507182, 55.039587630442234, 0.0 ], [ 17.97893839450623, 55.039825743978689, 0.0 ], [ 17.978927434512745, 55.060573549354039, 0.0 ], [ 17.939641160751009, 55.062430263407428, 0.0 ], [ 17.939611809795345, 55.062431654684289, 0.0 ], [ 17.856685007791938, 55.06635729377647, 0.0 ], [ 17.856650945213538, 55.066358905809672, 0.0 ], [ 17.792904933318653, 55.069380991358166, 0.0 ], [ 17.791990987985358, 55.069432442898325, 0.0 ], [ 17.790113011291716, 55.069591268743096, 0.0 ], [ 17.788257138503749, 55.069820208493134, 0.0 ], [ 17.786431307439635, 55.070118283322557, 0.0 ], [ 17.784643327719781, 55.070484218715244, 0.0 ], [ 17.782900846333735, 55.070916449482517, 0.0 ], [ 17.781211320966744, 55.071413126649041, 0.0 ], [ 17.77958197761804, 55.071972125074815, 0.0 ], [ 17.778019790040737, 55.07259105398645, 0.0 ], [ 17.776531443522945, 55.073267266448475, 0.0 ], [ 17.775123309606041, 55.073997868940609, 0.0 ], [ 17.773801417505727, 55.074779735394095, 0.0 ], [ 17.772571425503941, 55.075609521226234, 0.0 ], [ 17.771438604897181, 55.076483675703052, 0.0 ], [ 17.770407806576372, 55.077398457723419, 0.0 ], [ 17.769483452556887, 55.078349954553445, 0.0 ], [ 17.768669502667322, 55.079334092222119, 0.0 ], [ 17.767969450560162, 55.080346659701497, 0.0 ], [ 17.767386299610919, 55.0813833238984, 0.0 ], [ 17.766922557593517, 55.082439644841777, 0.0 ], [ 17.766580218417776, 55.083511103330821, 0.0 ], [ 17.766360756936006, 55.084593110742674, 0.0 ], [ 17.766265121673257, 55.085681035008243, 0.0 ], [ 17.766293734091882, 55.086770217671948, 0.0 ], [ 17.766446479906637, 55.087855994475035, 0.0 ], [ 17.76672271606564, 55.088933716105402, 0.0 ], [ 17.767121269983232, 55.089998766180251, 0.0 ], [ 17.767640444935324, 55.091046582894776, 0.0 ], [ 17.768278023980706, 55.092072677966428, 0.0 ], [ 17.769031286403518, 55.093072656612165, 0.0 ], [ 17.769897011775097, 55.094042232911768, 0.0 ], [ 17.770871502563033, 55.09497725435422, 0.0 ], [ 17.771950586777965, 55.095873713601861, 0.0 ], [ 17.773129650142767, 55.09672776954632, 0.0 ], [ 17.774403643408274, 55.097535761823806, 0.0 ], [ 17.775767114715599, 55.098294227383199, 0.0 ], [ 17.777214224748946, 55.098999916881425, 0.0 ], [ 17.778738774674562, 55.099649804015876, 0.0 ], [ 17.780334233807285, 55.100241104741471, 0.0 ], [ 17.781993764609826, 55.100771282075208, 0.0 ], [ 17.783710258252544, 55.101238065386518, 0.0 ], [ 17.785476355046182, 55.101639452451664, 0.0 ], [ 17.787284486485465, 55.101973723405692, 0.0 ], [ 17.789126901968832, 55.102239443747195, 0.0 ], [ 17.790369109693977, 55.102377811867505, 0.0 ], [ 17.818486691254204, 55.105143062949224, 0.0 ], [ 17.818723603174011, 55.105165755176344, 0.0 ], [ 17.85017294872393, 55.108097168352693, 0.0 ], [ 17.850323135285308, 55.108110915835681, 0.0 ], [ 17.898806547340971, 55.112464033795057, 0.0 ], [ 17.899015301729115, 55.112482287610568, 0.0 ], [ 17.930191077319069, 55.11513773492338, 0.0 ], [ 17.930222016209239, 55.115140356423176, 0.0 ], [ 17.932110250961053, 55.115263704805109, 0.0 ], [ 17.933224746817562, 55.115303045792864, 0.0 ], [ 17.981891224313713, 55.116473211083495, 0.0 ], [ 18.0164205102419, 55.117315495924331, 0.0 ], [ 18.021367745037558, 55.117527551048347, 0.0 ], [ 18.021489199819356, 55.117528357455683, 0.0 ], [ 18.023125772594479, 55.11757221657686, 0.0 ], [ 18.025026026729183, 55.11755179064172, 0.0 ], [ 18.026919874550387, 55.117460146361033, 0.0 ], [ 18.028799197307084, 55.117297675123005, 0.0 ], [ 18.029329156824588, 55.117231288180818, 0.0 ], [ 18.029594368985592, 55.117290925534775, 0.0 ], [ 18.03140528276009, 55.117621580927064, 0.0 ], [ 18.033250075198829, 55.117883616667974, 0.0 ], [ 18.035120837734542, 55.118075909689672, 0.0 ], [ 18.037009552045859, 55.118197634071052, 0.0 ], [ 18.03714209391612, 55.118203490806316, 0.0 ], [ 18.050601532206421, 55.118779749125039, 0.0 ], [ 18.05071709031953, 55.11878049751477, 0.0 ], [ 18.052367602444196, 55.118824331892782, 0.0 ] ] ] ] } }
]
}
