{
"type": "FeatureCollection",
"name": "19035",
"crs": { "type": "name", "properties": { "name": "urn:ogc:def:crs:OGC:1.3:CRS84" } },
"features": [
{ "type": "Feature", "properties": { "area_km2": 77.622482005600006, "PROJECT_NO": 19035.0, "NAME": "Baltic Power [Orlen]", "TYPE": "CON", "NO": 13, "status": "COMPLETED", "geotechnic": null, "ORIG_FID": 3, "Shape_Leng": 111475.04511399999, "Shape_Area": 77622482.005600005 }, "geometry": { "type": "MultiPolygon", "coordinates": [ [ [ [ 17.860840180534925, 55.024448682304545, 0.0 ], [ 17.904984133531418, 54.824217951384462, 0.0 ], [ 17.902585763339093, 54.82389396133722, 0.0 ], [ 17.901206853266956, 54.823681171084331, 0.0 ], [ 17.899642475249955, 54.823466289356588, 0.0 ], [ 17.89788817138032, 54.8233376530928, 0.0 ], [ 17.896388068220624, 54.823217607420638, 0.0 ], [ 17.894546232742368, 54.823015188803069, 0.0 ], [ 17.893168198457666, 54.822903106517472, 0.0 ], [ 17.891823809200055, 54.822734314946253, 0.0 ], [ 17.889883746275373, 54.822532176373578, 0.0 ], [ 17.889552590362022, 54.822489294964626, 0.0 ], [ 17.888193236808604, 54.822313269028825, 0.0 ], [ 17.886443772464634, 54.821935529988394, 0.0 ], [ 17.88468536165345, 54.821525810364392, 0.0 ], [ 17.883178665914826, 54.821203001965607, 0.0 ], [ 17.881763664092972, 54.820849395503863, 0.0 ], [ 17.880577305778857, 54.820553601903448, 0.0 ], [ 17.879271214144602, 54.820184360623863, 0.0 ], [ 17.878325661089288, 54.820005329753158, 0.0 ], [ 17.866036103823742, 54.870863883204834, 0.0 ], [ 17.862670912474417, 54.875359542824164, 0.0 ], [ 17.828763961286882, 54.890264954801559, 0.0 ], [ 17.825911669123283, 54.903183075740984, 0.0 ], [ 17.711725157844363, 54.994799153179599, 0.0 ], [ 17.711722914889961, 54.994798831860372, 0.0 ], [ 17.675468497800122, 54.989584043224497, 0.0 ], [ 17.648759257138334, 54.985005695110637, 0.0 ], [ 17.638246008585533, 54.983108374901711, 0.0 ], [ 17.626934850916349, 54.98093936438913, 0.0 ], [ 17.612265180445114, 54.977846089673996, 0.0 ], [ 17.59535894191886, 54.973765417051119, 0.0 ], [ 17.56878104134864, 54.969050994675186, 0.0 ], [ 17.564175969376294, 54.977635030782238, 0.0 ], [ 17.590020569517311, 54.982219570140465, 0.0 ], [ 17.606426470224029, 54.986183161437737, 0.0 ], [ 17.621774031215924, 54.989419489326188, 0.0 ], [ 17.633435489159371, 54.991655731126748, 0.0 ], [ 17.644187099884164, 54.993596111186683, 0.0 ], [ 17.671330319697315, 54.998248912303438, 0.0 ], [ 17.690624411518975, 55.001037219870092, 0.0 ], [ 17.718234189053778, 55.004986950903664, 0.0 ], [ 17.860840180534925, 55.024448682304545, 0.0 ] ], [ [ 17.728103061702075, 54.997090143152377, 0.0 ], [ 17.825058574280213, 54.919298936580738, 0.0 ], [ 17.860079287125298, 54.895467374412156, 0.0 ], [ 17.831935618221372, 55.011287892105173, 0.0 ], [ 17.728103061702075, 54.997090143152377, 0.0 ] ] ] ] } }
]
}
