{
"type": "FeatureCollection",
"name": "19071",
"crs": { "type": "name", "properties": { "name": "urn:ogc:def:crs:OGC:1.3:CRS84" } },
"features": [
{ "type": "Feature", "properties": { "area_km2": 286.545822649, "PROJECT_NO": 19071.0, "NAME": "Baltic II [Sharco Geofusion]", "TYPE": "OWF", "NO": 0, "status": "COMPLETED", "geotechnic": null, "ORIG_FID": 18, "Shape_Leng": 75980.268376699998, "Shape_Area": 286545822.64899999 }, "geometry": { "type": "MultiPolygon", "coordinates": [ [ [ [ 16.743516273865723, 55.122366717115504, 0.0 ], [ 16.7437840796619, 55.122058945465575, 0.0 ], [ 16.744040722698081, 55.121748065896497, 0.0 ], [ 16.744286092134775, 55.121434211294137, 0.0 ], [ 16.744520081744913, 55.12111751642567, 0.0 ], [ 16.744742594716435, 55.120798116230162, 0.0 ], [ 16.744953534147015, 55.120476147440691, 0.0 ], [ 16.745152809363283, 55.120151747802105, 0.0 ], [ 16.745340337487388, 55.119825056099828, 0.0 ], [ 16.745516038734909, 55.119496212072782, 0.0 ], [ 16.74567983646488, 55.119165355515037, 0.0 ], [ 16.745831660161922, 55.118832629028297, 0.0 ], [ 16.745971448772252, 55.118498174487016, 0.0 ], [ 16.746099139631802, 55.118162134631646, 0.0 ], [ 16.746214680952299, 55.11782465419882, 0.0 ], [ 16.746318021052961, 55.117485876125443, 0.0 ], [ 16.746409117560358, 55.117145945315329, 0.0 ], [ 16.746487931189787, 55.116805007625025, 0.0 ], [ 16.74655442887893, 55.116463209921761, 0.0 ], [ 16.746608583989445, 55.116120696490484, 0.0 ], [ 16.746650371301634, 55.115777614336125, 0.0 ], [ 16.746679773433819, 55.115434110604902, 0.0 ], [ 16.746696780892105, 55.115090331686034, 0.0 ], [ 16.746701382566428, 55.114746424834287, 0.0 ], [ 16.746693579934274, 55.114402536634351, 0.0 ], [ 16.746673375989612, 55.114058814594365, 0.0 ], [ 16.746640780044501, 55.113715405436487, 0.0 ], [ 16.746595804543823, 55.113372455937075, 0.0 ], [ 16.74653847133246, 55.11303011304274, 0.0 ], [ 16.746468803921015, 55.112688521928881, 0.0 ], [ 16.74638683198366, 55.11234782967972, 0.0 ], [ 16.746292591559769, 55.112008181695245, 0.0 ], [ 16.746186123385158, 55.111669723458959, 0.0 ], [ 16.74606747299265, 55.111332598741292, 0.0 ], [ 16.745936690559677, 55.110996952294414, 0.0 ], [ 16.745793834142468, 55.110662928113861, 0.0 ], [ 16.745638963509283, 55.110330667526156, 0.0 ], [ 16.745472147771618, 55.110000312926829, 0.0 ], [ 16.74529345451694, 55.109672005780951, 0.0 ], [ 16.745102962342781, 55.109345886855337, 0.0 ], [ 16.744900754689986, 55.109022094306226, 0.0 ], [ 16.744686914888817, 55.108700768083381, 0.0 ], [ 16.74446153748023, 55.108382043845829, 0.0 ], [ 16.744391665561967, 55.108288816633291, 0.0 ], [ 16.760867385623008, 55.099595006350604, 0.0 ], [ 16.762064748072216, 55.098971617790788, 0.0 ], [ 16.762488219383822, 55.098745125138855, 0.0 ], [ 16.762903517100977, 55.09851371188379, 0.0 ], [ 16.763310468136353, 55.09827747293506, 0.0 ], [ 16.763708902198214, 55.098036509547953, 0.0 ], [ 16.764098652292127, 55.097790920341247, 0.0 ], [ 16.764479554219324, 55.097540810279114, 0.0 ], [ 16.764851450160808, 55.097286282644603, 0.0 ], [ 16.765214183677223, 55.097027444342494, 0.0 ], [ 16.765567602891736, 55.096764405058316, 0.0 ], [ 16.765911560740399, 55.096497272767202, 0.0 ], [ 16.76624591300482, 55.096226160890652, 0.0 ], [ 16.766570520178945, 55.095951182935806, 0.0 ], [ 16.76688524585245, 55.095672453364791, 0.0 ], [ 16.767077743935332, 55.095503634121819, 0.0 ], [ 16.802454017958762, 55.063661089152305, 0.0 ], [ 16.802770387630943, 55.063369431526652, 0.0 ], [ 16.803076196822463, 55.063074087577917, 0.0 ], [ 16.803371313487428, 55.0627751826772, 0.0 ], [ 16.80365561327087, 55.062472845030229, 0.0 ], [ 16.803928976575207, 55.062167202027517, 0.0 ], [ 16.804191285134618, 55.06185838557743, 0.0 ], [ 16.804442426955703, 55.061546527699306, 0.0 ], [ 16.804682297980424, 55.061231758755213, 0.0 ], [ 16.804910792203863, 55.060914216262702, 0.0 ], [ 16.80512781644715, 55.060594032573462, 0.0 ], [ 16.805333275632933, 55.060271346296155, 0.0 ], [ 16.805527084231393, 55.059946293511508, 0.0 ], [ 16.805709159655656, 55.059619013946993, 0.0 ], [ 16.805879424072085, 55.059289646513697, 0.0 ], [ 16.806037804252327, 55.058958332000856, 0.0 ], [ 16.80618423480075, 55.058625211335915, 0.0 ], [ 16.806318651845171, 55.058290426369524, 0.0 ], [ 16.806441000860712, 55.057954120016682, 0.0 ], [ 16.80655122727994, 55.057616436087372, 0.0 ], [ 16.806649285979688, 55.057277517659188, 0.0 ], [ 16.806735136487593, 55.056937508789169, 0.0 ], [ 16.806808739753581, 55.056596556253751, 0.0 ], [ 16.806870066317245, 55.056254803402098, 0.0 ], [ 16.806919089704, 55.055912396330939, 0.0 ], [ 16.806955791217025, 55.055569482172501, 0.0 ], [ 16.806980152260206, 55.055226206258993, 0.0 ], [ 16.80699216675723, 55.05488271414437, 0.0 ], [ 16.806991826969913, 55.054539153147253, 0.0 ], [ 16.806979133082539, 55.054195668926972, 0.0 ], [ 16.806954093004599, 55.053852409076626, 0.0 ], [ 16.806916716356859, 55.05350951851905, 0.0 ], [ 16.806867020483928, 55.053167144110766, 0.0 ], [ 16.806805025956002, 55.052825430964596, 0.0 ], [ 16.806730757985569, 55.052484525172403, 0.0 ], [ 16.806644251169708, 55.052144572991708, 0.0 ], [ 16.806545541862757, 55.051805717111534, 0.0 ], [ 16.806434672476595, 55.051468103923185, 0.0 ], [ 16.806311690308359, 55.051131876306052, 0.0 ], [ 16.806176647343303, 55.050797177220694, 0.0 ], [ 16.806029603432499, 55.050464148867086, 0.0 ], [ 16.805870618321947, 55.050132935238331, 0.0 ], [ 16.805699762996973, 55.049803675132331, 0.0 ], [ 16.805517108287564, 55.049476510038559, 0.0 ], [ 16.805322734599027, 55.049151578019732, 0.0 ], [ 16.805116723744732, 55.048829019858594, 0.0 ], [ 16.80489916413066, 55.048508970160185, 0.0 ], [ 16.804670147085215, 55.048191567176254, 0.0 ], [ 16.804429773509877, 55.047876945732213, 0.0 ], [ 16.804178142829073, 55.047565238826387, 0.0 ], [ 16.803915363793525, 55.047256580522287, 0.0 ], [ 16.803641550032182, 55.046951101372912, 0.0 ], [ 16.803356816726307, 55.046648931957449, 0.0 ], [ 16.80306128383631, 55.04635020114133, 0.0 ], [ 16.802755080843735, 55.046055035262917, 0.0 ], [ 16.80243833721692, 55.045763560658919, 0.0 ], [ 16.802111187251459, 55.045475901054601, 0.0 ], [ 16.80177377153592, 55.045192179388657, 0.0 ], [ 16.80142623235675, 55.044912515932118, 0.0 ], [ 16.801068719857152, 55.04463703019811, 0.0 ], [ 16.800701384264251, 55.044365839902412, 0.0 ], [ 16.800324383809102, 55.044099059308508, 0.0 ], [ 16.799937879787226, 55.043836803634242, 0.0 ], [ 16.799542035339048, 55.043579182735925, 0.0 ], [ 16.799137019797779, 55.043326307481109, 0.0 ], [ 16.798729049372135, 55.043081832815524, 0.0 ], [ 16.798312506797075, 55.042842172933973, 0.0 ], [ 16.797887565129425, 55.042607427087944, 0.0 ], [ 16.79745440068805, 55.042377691891367, 0.0 ], [ 16.797013192955109, 55.042153063117233, 0.0 ], [ 16.79656412311061, 55.041933633873015, 0.0 ], [ 16.79610737721017, 55.041719493759267, 0.0 ], [ 16.795643144473033, 55.041510731536043, 0.0 ], [ 16.795171617331356, 55.041307434225111, 0.0 ], [ 16.794692991529107, 55.041109685313387, 0.0 ], [ 16.794207464409983, 55.040917567419626, 0.0 ], [ 16.793715235115062, 55.04073115870154, 0.0 ], [ 16.793216510642292, 55.04055053656252, 0.0 ], [ 16.792711493382608, 55.04037577652646, 0.0 ], [ 16.792200395345976, 55.040206949798595, 0.0 ], [ 16.791683426965445, 55.040044127558332, 0.0 ], [ 16.791160802086484, 55.03988737565497, 0.0 ], [ 16.790632736156066, 55.039736759070799, 0.0 ], [ 16.790099447836507, 55.039592341051232, 0.0 ], [ 16.789561159154182, 55.039454180410402, 0.0 ], [ 16.78901808909518, 55.039322334112306, 0.0 ], [ 16.78847046611844, 55.039196857498276, 0.0 ], [ 16.787918515742408, 55.0390778022633, 0.0 ], [ 16.787362463624149, 55.038965217411153, 0.0 ], [ 16.786802543380357, 55.038859149396771, 0.0 ], [ 16.786238982510977, 55.038759641870364, 0.0 ], [ 16.785672018040565, 55.038666735962018, 0.0 ], [ 16.785101882392468, 55.038580470923968, 0.0 ], [ 16.784528809744831, 55.038500882447984, 0.0 ], [ 16.783953040772957, 55.038428001852772, 0.0 ], [ 16.783374809889381, 55.038361860347301, 0.0 ], [ 16.782794357955293, 55.038302485665838, 0.0 ], [ 16.782211924510428, 55.038249901027427, 0.0 ], [ 16.781627750653719, 55.038204129684019, 0.0 ], [ 16.781042077777517, 55.038165189502628, 0.0 ], [ 16.780455147320112, 55.038133097456651, 0.0 ], [ 16.779867202578572, 55.038107865163134, 0.0 ], [ 16.779278486797665, 55.038089505142025, 0.0 ], [ 16.778689242003878, 55.038078023601749, 0.0 ], [ 16.778099713400003, 55.038073425914227, 0.0 ], [ 16.777510144822735, 55.038075713834701, 0.0 ], [ 16.776920778743381, 55.038084885501561, 0.0 ], [ 16.656846848825339, 55.040596051267791, 0.0 ], [ 16.656549818137748, 55.040569479964873, 0.0 ], [ 16.655956969462569, 55.040520041509602, 0.0 ], [ 16.65536246882964, 55.040477648334367, 0.0 ], [ 16.654766571693511, 55.0404423179303, 0.0 ], [ 16.654169528970566, 55.040414065008584, 0.0 ], [ 16.653571599551562, 55.040392901741519, 0.0 ], [ 16.652973036226367, 55.040378837491318, 0.0 ], [ 16.652374095121075, 55.040371878092884, 0.0 ], [ 16.651775030954237, 55.040372026661494, 0.0 ], [ 16.651176100218031, 55.040379282754976, 0.0 ], [ 16.650577557945809, 55.040393644109713, 0.0 ], [ 16.64997966105113, 55.040415103108394, 0.0 ], [ 16.649382663320893, 55.040443652078309, 0.0 ], [ 16.648786818859573, 55.040479277962845, 0.0 ], [ 16.648582107030258, 55.040493979547691, 0.0 ], [ 16.648291857197634, 55.040304924715976, 0.0 ], [ 16.647886707879689, 55.040051834832667, 0.0 ], [ 16.647472488338458, 55.039803635864018, 0.0 ], [ 16.647049377086383, 55.039560434573971, 0.0 ], [ 16.646617555748314, 55.039322337787404, 0.0 ], [ 16.646177214122073, 55.039089446193906, 0.0 ], [ 16.645728538809436, 55.038861861321543, 0.0 ], [ 16.645271727502301, 55.038639682216669, 0.0 ], [ 16.644806974960105, 55.038423004273625, 0.0 ], [ 16.644334483904739, 55.038211920345006, 0.0 ], [ 16.643854455531759, 55.038006522356483, 0.0 ], [ 16.643367102127147, 55.037806899752873, 0.0 ], [ 16.642872630022893, 55.037613136470945, 0.0 ], [ 16.642371254814211, 55.037425318427417, 0.0 ], [ 16.641863192398372, 55.03724352615238, 0.0 ], [ 16.641348663455663, 55.037067838472971, 0.0 ], [ 16.640827888916352, 55.036898329728068, 0.0 ], [ 16.640301095952591, 55.036735074380658, 0.0 ], [ 16.639768508806721, 55.036578143243204, 0.0 ], [ 16.639230359791444, 55.036427602792259, 0.0 ], [ 16.638686882770724, 55.036283519537811, 0.0 ], [ 16.63813830878572, 55.036145954543713, 0.0 ], [ 16.637584878301645, 55.036014968161162, 0.0 ], [ 16.637013142707108, 55.035880136716948, 0.0 ], [ 16.597318314474805, 55.026700617151207, 0.0 ], [ 16.496329600404376, 55.003275141324266, 0.0 ], [ 16.470309491391752, 54.997221656315446, 0.0 ], [ 16.469753608139914, 54.997096073595955, 0.0 ], [ 16.469193338692794, 54.99697710692142, 0.0 ], [ 16.468628921941981, 54.99686480886561, 0.0 ], [ 16.468060600289331, 54.996759225785034, 0.0 ], [ 16.467488611497636, 54.996660403044558, 0.0 ], [ 16.46691320291966, 54.996568382616218, 0.0 ], [ 16.466334615821289, 54.996483203651984, 0.0 ], [ 16.465753097878714, 54.996404902744274, 0.0 ], [ 16.465168897044009, 54.996333511999659, 0.0 ], [ 16.464582259700407, 54.996269063496719, 0.0 ], [ 16.463993435745667, 54.996211583097455, 0.0 ], [ 16.463402676690745, 54.99616109580306, 0.0 ], [ 16.462810234211553, 54.996117623925343, 0.0 ], [ 16.462216357195697, 54.996081184327508, 0.0 ], [ 16.46162130083189, 54.996051793109935, 0.0 ], [ 16.461025317351709, 54.996029463618541, 0.0 ], [ 16.46042865926777, 54.996014204714029, 0.0 ], [ 16.459831580823046, 54.996006022600504, 0.0 ], [ 16.459234336429461, 54.996004920792927, 0.0 ], [ 16.458637180668518, 54.99601090011722, 0.0 ], [ 16.458040365224697, 54.996023957746793, 0.0 ], [ 16.457444145077517, 54.996044088231272, 0.0 ], [ 16.456848773816013, 54.996071283398507, 0.0 ], [ 16.456254503753108, 54.996105530558509, 0.0 ], [ 16.455661588823073, 54.996146816160795, 0.0 ], [ 16.45507027850438, 54.996195122969709, 0.0 ], [ 16.454480828811672, 54.996250429395026, 0.0 ], [ 16.453893484886429, 54.996312712724496, 0.0 ], [ 16.453308501531673, 54.996381945956713, 0.0 ], [ 16.452726122735328, 54.996458100069916, 0.0 ], [ 16.45214660058619, 54.996541141720471, 0.0 ], [ 16.451570177807262, 54.996631037373035, 0.0 ], [ 16.450997102213503, 54.996727747308725, 0.0 ], [ 16.450427615436258, 54.996831230784053, 0.0 ], [ 16.449861960905029, 54.996941443500603, 0.0 ], [ 16.449300377485855, 54.997058339269806, 0.0 ], [ 16.448743107406081, 54.997181868380657, 0.0 ], [ 16.448190383758394, 54.997311977337446, 0.0 ], [ 16.44764244276983, 54.997448612713953, 0.0 ], [ 16.447099519572276, 54.997591713870754, 0.0 ], [ 16.446561842946323, 54.997741221836961, 0.0 ], [ 16.446029641969275, 54.997897073155052, 0.0 ], [ 16.445503142891539, 54.998059199815259, 0.0 ], [ 16.44498256879454, 54.998227534643377, 0.0 ], [ 16.444468143114893, 54.998402005080209, 0.0 ], [ 16.443960084672995, 54.998582537573022, 0.0 ], [ 16.443458606282487, 54.998769054848452, 0.0 ], [ 16.442963925571274, 54.998961477938266, 0.0 ], [ 16.442476250979709, 54.999159724985546, 0.0 ], [ 16.441995788066595, 54.999363710478001, 0.0 ], [ 16.441522745472206, 54.999573349869067, 0.0 ], [ 16.441330205952024, 54.999662376573625, 0.0 ], [ 16.360979193382253, 54.999666332131703, 0.0 ], [ 16.360382133485647, 54.999669702004468, 0.0 ], [ 16.35978532025069, 54.999680146809865, 0.0 ], [ 16.359189007006609, 54.999697663064651, 0.0 ], [ 16.358593450620766, 54.999722241072796, 0.0 ], [ 16.357998900033763, 54.999753872769446, 0.0 ], [ 16.357405610908852, 54.999792543046745, 0.0 ], [ 16.356813834285006, 54.999838235802017, 0.0 ], [ 16.356223821440878, 54.999890931345561, 0.0 ], [ 16.355635822215163, 54.999950608162706, 0.0 ], [ 16.355050086687537, 55.000017241151674, 0.0 ], [ 16.3544668652384, 55.000090800725708, 0.0 ], [ 16.353886405188931, 55.000171256336785, 0.0 ], [ 16.353308952541134, 55.00025857381565, 0.0 ], [ 16.352734751978382, 55.000352715371804, 0.0 ], [ 16.352164049812814, 55.000453642355204, 0.0 ], [ 16.351597084909105, 55.000561310562404, 0.0 ], [ 16.351034102448075, 55.000675675032333, 0.0 ], [ 16.350475338483779, 55.000796687012148, 0.0 ], [ 16.349921032440864, 55.000924294229272, 0.0 ], [ 16.349371417505584, 55.001058444278932, 0.0 ], [ 16.348826728851385, 55.00119907850857, 0.0 ], [ 16.348287198538433, 55.001346138201193, 0.0 ], [ 16.347753055810372, 55.00149956008552, 0.0 ], [ 16.34722452691685, 55.001659279029695, 0.0 ], [ 16.346701835173278, 55.001825227143136, 0.0 ], [ 16.346185205588277, 55.001997334776547, 0.0 ], [ 16.34567485560985, 55.002175528521484, 0.0 ], [ 16.345171004439308, 55.00235973231257, 0.0 ], [ 16.344673863658695, 55.002549867222797, 0.0 ], [ 16.344183644923117, 55.002745853429658, 0.0 ], [ 16.343700558576945, 55.002947607487236, 0.0 ], [ 16.343224808908239, 55.003155043121438, 0.0 ], [ 16.342756598716651, 55.003368073128158, 0.0 ], [ 16.342296124805298, 55.003586606576832, 0.0 ], [ 16.341843585732406, 55.003810549878892, 0.0 ], [ 16.341399173881854, 55.004039808412827, 0.0 ], [ 16.340963077084623, 55.00427428566006, 0.0 ], [ 16.340535480359552, 55.004513880545204, 0.0 ], [ 16.340116565675618, 55.004758491027538, 0.0 ], [ 16.339706513454747, 55.005008015033063, 0.0 ], [ 16.33930549511738, 55.005262344895634, 0.0 ], [ 16.338913683720801, 55.005521372085887, 0.0 ], [ 16.338531244466662, 55.005784988801693, 0.0 ], [ 16.338158341425746, 55.006053080921262, 0.0 ], [ 16.337795132375216, 55.006325535083903, 0.0 ], [ 16.337441770539151, 55.006602236030169, 0.0 ], [ 16.337098409394361, 55.006883064908436, 0.0 ], [ 16.336765192998783, 55.007167903559171, 0.0 ], [ 16.33644226247856, 55.00745663105981, 0.0 ], [ 16.336129757649715, 55.007749122860886, 0.0 ], [ 16.335827810351798, 55.008045256934544, 0.0 ], [ 16.33553654967049, 55.008344905795525, 0.0 ], [ 16.335256098395696, 55.008647942718241, 0.0 ], [ 16.334986577946605, 55.008954238247391, 0.0 ], [ 16.334728100380659, 55.009263662720578, 0.0 ], [ 16.33448077944912, 55.009576084711831, 0.0 ], [ 16.334244718037816, 55.009891371655563, 0.0 ], [ 16.334020017660389, 55.010209388255909, 0.0 ], [ 16.33380677196973, 55.010529999941397, 0.0 ], [ 16.333605076251374, 55.010853071274447, 0.0 ], [ 16.333415013480188, 55.011178463847081, 0.0 ], [ 16.333236665078221, 55.011506039214325, 0.0 ], [ 16.333070106226707, 55.011835658791412, 0.0 ], [ 16.332915410731975, 55.012167181262583, 0.0 ], [ 16.332772642854554, 55.012500467797324, 0.0 ], [ 16.33264186409534, 55.012835374105855, 0.0 ], [ 16.332523129473572, 55.013171759349838, 0.0 ], [ 16.332416492571753, 55.013509480857564, 0.0 ], [ 16.332321994656766, 55.013848392985977, 0.0 ], [ 16.332239679887333, 55.014188353748892, 0.0 ], [ 16.332169581727502, 55.014529217324956, 0.0 ], [ 16.332111731963519, 55.014870839650911, 0.0 ], [ 16.332066153188521, 55.015213073760421, 0.0 ], [ 16.332032866197252, 55.015555776240973, 0.0 ], [ 16.332011885774889, 55.01589879994755, 0.0 ], [ 16.332003221901051, 55.016241999424501, 0.0 ], [ 16.332006876802744, 55.016585228143107, 0.0 ], [ 16.332022849522378, 55.016928340400277, 0.0 ], [ 16.332051135917151, 55.017271191318649, 0.0 ], [ 16.332091721083529, 55.017613633083279, 0.0 ], [ 16.332144589877831, 55.017955521467321, 0.0 ], [ 16.332209719400367, 55.01829671117089, 0.0 ], [ 16.332287083682935, 55.018637055923882, 0.0 ], [ 16.332376647258144, 55.018976411042821, 0.0 ], [ 16.332478374595027, 55.019314632738556, 0.0 ], [ 16.332592223847364, 55.019651577979182, 0.0 ], [ 16.332718143965998, 55.019987100829866, 0.0 ], [ 16.332856081975283, 55.020321060705655, 0.0 ], [ 16.333005981887016, 55.020653315153808, 0.0 ], [ 16.333167778269488, 55.020983722410627, 0.0 ], [ 16.33334140400143, 55.021312142470769, 0.0 ], [ 16.33352678263612, 55.021638434222204, 0.0 ], [ 16.333723839042658, 55.021962460175985, 0.0 ], [ 16.333932488763509, 55.022284081736544, 0.0 ], [ 16.334152640960767, 55.022603161964476, 0.0 ], [ 16.334384204667266, 55.022919565713423, 0.0 ], [ 16.33462708103124, 55.023233158561155, 0.0 ], [ 16.334881166560777, 55.023543805082248, 0.0 ], [ 16.335146354269074, 55.023851375168029, 0.0 ], [ 16.335422529402404, 55.024155737638488, 0.0 ], [ 16.33570957713534, 55.024456762209461, 0.0 ], [ 16.336007374636207, 55.02475432111742, 0.0 ], [ 16.336315794311929, 55.025048287392345, 0.0 ], [ 16.33663470687404, 55.025338535824197, 0.0 ], [ 16.336963976589828, 55.025624943758373, 0.0 ], [ 16.33730346146066, 55.025907388402018, 0.0 ], [ 16.337653019235628, 55.026185750552912, 0.0 ], [ 16.33801250145692, 55.026459909973021, 0.0 ], [ 16.338381754605752, 55.02672975170848, 0.0 ], [ 16.338760620518983, 55.026995159804208, 0.0 ], [ 16.339148940780525, 55.02725602189642, 0.0 ], [ 16.339546547521234, 55.02751222631376, 0.0 ], [ 16.339953274181941, 55.027763665010681, 0.0 ], [ 16.340368944809587, 55.028010229736587, 0.0 ], [ 16.340793386324165, 55.028251815901207, 0.0 ], [ 16.351455846162452, 55.034195455939695, 0.0 ], [ 16.348279520744089, 55.043531773079103, 0.0 ], [ 16.348171858300553, 55.04386627297179, 0.0 ], [ 16.348076124995483, 55.044201966215837, 0.0 ], [ 16.347992358586847, 55.044538712478989, 0.0 ], [ 16.34792059527345, 55.044876371391631, 0.0 ], [ 16.347860863439198, 55.045214802410328, 0.0 ], [ 16.347813191590308, 55.045553863192254, 0.0 ], [ 16.34777759717042, 55.045893412948367, 0.0 ], [ 16.347754097684906, 55.046233309988168, 0.0 ], [ 16.347742701376514, 55.046573410617192, 0.0 ], [ 16.347743413123961, 55.04691357466092, 0.0 ], [ 16.347756234856863, 55.047253659179319, 0.0 ], [ 16.347781160566612, 55.047593522854122, 0.0 ], [ 16.3478181797304, 55.047933021567403, 0.0 ], [ 16.34786727683548, 55.048272015585084, 0.0 ], [ 16.347928433358234, 55.04861036330545, 0.0 ], [ 16.348001623012255, 55.048947922054829, 0.0 ], [ 16.348086814697464, 55.049284550849634, 0.0 ], [ 16.348183974122843, 55.04962010953264, 0.0 ], [ 16.348293062241929, 55.049954458738696, 0.0 ], [ 16.348414030738251, 55.050287457099024, 0.0 ], [ 16.348546831052449, 55.050618966833184, 0.0 ], [ 16.34869140848204, 55.050948848225246, 0.0 ], [ 16.348847701883802, 55.051276964113598, 0.0 ], [ 16.349015646979467, 55.051603177265299, 0.0 ], [ 16.349195173167711, 55.051927351206039, 0.0 ], [ 16.349386206592296, 55.052249351186219, 0.0 ], [ 16.349588667191547, 55.05256904141914, 0.0 ], [ 16.349802470024393, 55.052886288706979, 0.0 ], [ 16.350027526893459, 55.053200961576984, 0.0 ], [ 16.350263743453606, 55.053512926621693, 0.0 ], [ 16.350511020419585, 55.053822053920733, 0.0 ], [ 16.35076925681259, 55.054128215313341, 0.0 ], [ 16.351038343821852, 55.054431282466183, 0.0 ], [ 16.351318169437423, 55.054731127873723, 0.0 ], [ 16.351608615202668, 55.055027626586146, 0.0 ], [ 16.351909562530086, 55.055320655447701, 0.0 ], [ 16.352220885057925, 55.055610090232854, 0.0 ], [ 16.352542451363036, 55.055895812000117, 0.0 ], [ 16.352874130127709, 55.056177700010728, 0.0 ], [ 16.353215780457507, 55.056455636014405, 0.0 ], [ 16.353567259642929, 55.056729505317598, 0.0 ], [ 16.353928421891361, 55.056999192259831, 0.0 ], [ 16.354299116525478, 55.057264583771726, 0.0 ], [ 16.354679187923853, 55.057525570273093, 0.0 ], [ 16.355068477381355, 55.057782041217372, 0.0 ], [ 16.355466824317809, 55.058033890513528, 0.0 ], [ 16.355874060316907, 55.058281011900412, 0.0 ], [ 16.35629001508719, 55.058523303572855, 0.0 ], [ 16.356714515312248, 55.058760661861982, 0.0 ], [ 16.357147384117784, 55.058992989317112, 0.0 ], [ 16.357588439921752, 55.05922018838627, 0.0 ], [ 16.35803749944461, 55.059442163280131, 0.0 ], [ 16.358494374403204, 55.059658822598266, 0.0 ], [ 16.358958873430158, 55.059870073975496, 0.0 ], [ 16.359430803224271, 55.060075830401665, 0.0 ], [ 16.359909965717701, 55.060276005664207, 0.0 ], [ 16.360396161086552, 55.060470516212206, 0.0 ], [ 16.489268398444604, 55.110777534788141, 0.0 ], [ 16.491557349816834, 55.112045751535412, 0.0 ], [ 16.491989962150011, 55.112280557456472, 0.0 ], [ 16.492430892278875, 55.112510223324982, 0.0 ], [ 16.492879956358628, 55.112734653548671, 0.0 ], [ 16.493336965829677, 55.112953752439338, 0.0 ], [ 16.493801725625907, 55.113167427773185, 0.0 ], [ 16.494274042064362, 55.11337559005397, 0.0 ], [ 16.494753716691235, 55.113578150588289, 0.0 ], [ 16.49524054449039, 55.113775025045584, 0.0 ], [ 16.495734323508504, 55.113966130059666, 0.0 ], [ 16.496234843776087, 55.114151384799271, 0.0 ], [ 16.496741895141096, 55.114330711129462, 0.0 ], [ 16.497255264135894, 55.114504033547256, 0.0 ], [ 16.497774733977472, 55.114671279181856, 0.0 ], [ 16.498300086134531, 55.114832377827035, 0.0 ], [ 16.498831098817213, 55.114987261011002, 0.0 ], [ 16.499367548431849, 55.115135863824932, 0.0 ], [ 16.499909209693676, 55.115278123126899, 0.0 ], [ 16.500455852381464, 55.115413979273946, 0.0 ], [ 16.501007247661082, 55.115543375352644, 0.0 ], [ 16.501563161874984, 55.115666256152743, 0.0 ], [ 16.502123362697546, 55.115782570091916, 0.0 ], [ 16.502687611357796, 55.115892268157062, 0.0 ], [ 16.503255672040524, 55.115995304097424, 0.0 ], [ 16.503827305619755, 55.116091634296012, 0.0 ], [ 16.504402269603172, 55.11618121866784, 0.0 ], [ 16.504980321378309, 55.116264018928227, 0.0 ], [ 16.505561218101111, 55.116340000388917, 0.0 ], [ 16.506144716752448, 55.116409131060095, 0.0 ], [ 16.50673056787161, 55.116471381522196, 0.0 ], [ 16.507318524957615, 55.116526725118483, 0.0 ], [ 16.507908342791119, 55.116575139719039, 0.0 ], [ 16.508499769824905, 55.116616603968438, 0.0 ], [ 16.509092558928284, 55.116651101102299, 0.0 ], [ 16.509686459721518, 55.116678616092983, 0.0 ], [ 16.589352072762228, 55.119871766717381, 0.0 ], [ 16.589950008690263, 55.119891985916489, 0.0 ], [ 16.590548547057235, 55.119905128639161, 0.0 ], [ 16.591147432066318, 55.119911190719669, 0.0 ], [ 16.591746406244383, 55.119910169762541, 0.0 ], [ 16.592345218331875, 55.119902064399326, 0.0 ], [ 16.59294360880164, 55.11988688029647, 0.0 ], [ 16.593541326016616, 55.119864622382195, 0.0 ], [ 16.59413811488281, 55.11983530091635, 0.0 ], [ 16.594733720254215, 55.119798927061851, 0.0 ], [ 16.595327888176499, 55.119755518304267, 0.0 ], [ 16.595920366265648, 55.119705092164978, 0.0 ], [ 16.596510901925612, 55.119647669762649, 0.0 ], [ 16.597099243915977, 55.119583275844136, 0.0 ], [ 16.597631094690531, 55.119518518317882, 0.0 ], [ 16.597966408279856, 55.119617418902145, 0.0 ], [ 16.59850728084357, 55.119768901759102, 0.0 ], [ 16.599053521687456, 55.119913924075959, 0.0 ], [ 16.599604892786918, 55.120052422645891, 0.0 ], [ 16.600161160537116, 55.120184338848787, 0.0 ], [ 16.691471542414799, 55.141160198894042, 0.0 ], [ 16.692026923623569, 55.141283736409498, 0.0 ], [ 16.692586613674212, 55.141400723577988, 0.0 ], [ 16.693150376692959, 55.141511109121176, 0.0 ], [ 16.693717974865582, 55.141614848021895, 0.0 ], [ 16.69428917036867, 55.141711895267015, 0.0 ], [ 16.69486372349132, 55.141802211206709, 0.0 ], [ 16.695441389758706, 55.141885757004502, 0.0 ], [ 16.696021929185218, 55.14196249750983, 0.0 ], [ 16.696605093731048, 55.142032401020764, 0.0 ], [ 16.6971906415184, 55.142095437754833, 0.0 ], [ 16.697778324184458, 55.142151581408086, 0.0 ], [ 16.698367894825513, 55.142200807507137, 0.0 ], [ 16.698959104706432, 55.142243096044389, 0.0 ], [ 16.699551704932709, 55.142278429711503, 0.0 ], [ 16.700145448122548, 55.142306792132615, 0.0 ], [ 16.700740080257201, 55.142328173105362, 0.0 ], [ 16.701335355155667, 55.142342562580232, 0.0 ], [ 16.701931018588265, 55.142349953957265, 0.0 ], [ 16.702526822338065, 55.142350345250499, 0.0 ], [ 16.703122514948209, 55.14234373621607, 0.0 ], [ 16.703717846426667, 55.14233012844084, 0.0 ], [ 16.704312563284695, 55.142309529744686, 0.0 ], [ 16.7049064184102, 55.142281946274196, 0.0 ], [ 16.705499159524567, 55.142247392175705, 0.0 ], [ 16.706090539158943, 55.142205879892629, 0.0 ], [ 16.706680306350581, 55.142157428101385, 0.0 ], [ 16.70726821322496, 55.142102056440308, 0.0 ], [ 16.707854013222232, 55.142039789072875, 0.0 ], [ 16.708437458116347, 55.141970651934024, 0.0 ], [ 16.709018304236292, 55.141894673746393, 0.0 ], [ 16.709596306194516, 55.141811885902101, 0.0 ], [ 16.71017122143731, 55.141722325245816, 0.0 ], [ 16.710742805901479, 55.141626027698941, 0.0 ], [ 16.71131082149488, 55.141523034694096, 0.0 ], [ 16.711875026946053, 55.141413388507438, 0.0 ], [ 16.71243518538774, 55.141297136896604, 0.0 ], [ 16.712991063097864, 55.141174327682194, 0.0 ], [ 16.713542423022389, 55.141045012222527, 0.0 ], [ 16.714089034132499, 55.140909246488327, 0.0 ], [ 16.714630666977961, 55.140767086483486, 0.0 ], [ 16.715167095049985, 55.140618591866961, 0.0 ], [ 16.715698088509878, 55.140463825835027, 0.0 ], [ 16.716223426835992, 55.140302853560101, 0.0 ], [ 16.716742889416103, 55.140135742014024, 0.0 ], [ 16.71725625539397, 55.139962562662632, 0.0 ], [ 16.717763311766028, 55.13978338712149, 0.0 ], [ 16.718263842149447, 55.139598291441111, 0.0 ], [ 16.718757636344133, 55.139407353588346, 0.0 ], [ 16.719244488713695, 55.139210654315121, 0.0 ], [ 16.719724193533182, 55.139008276171978, 0.0 ], [ 16.720196548125127, 55.138800303566612, 0.0 ], [ 16.720661354325223, 55.138586824589368, 0.0 ], [ 16.721118415449201, 55.138367929158115, 0.0 ], [ 16.7215675425645, 55.138143709135306, 0.0 ], [ 16.722008543463915, 55.137914259020668, 0.0 ], [ 16.722441233641071, 55.137679676156345, 0.0 ], [ 16.7228654317402, 55.137440057944254, 0.0 ], [ 16.723280957732563, 55.13719550630735, 0.0 ], [ 16.723687639443718, 55.13694612331583, 0.0 ], [ 16.724085304509586, 55.136692014633212, 0.0 ], [ 16.724473786801294, 55.136433286938725, 0.0 ], [ 16.724852920102613, 55.136170048708138, 0.0 ], [ 16.740117505629467, 55.12534307676259, 0.0 ], [ 16.740251616731008, 55.125245268969877, 0.0 ], [ 16.740624014980661, 55.124975569731689, 0.0 ], [ 16.740986601357445, 55.124701514539773, 0.0 ], [ 16.741339215490154, 55.124423221890005, 0.0 ], [ 16.741681711179609, 55.124140809641155, 0.0 ], [ 16.742013938903678, 55.123854399185952, 0.0 ], [ 16.74233576007552, 55.123564113017892, 0.0 ], [ 16.742647032886421, 55.123270075367707, 0.0 ], [ 16.742947628029636, 55.122972411595597, 0.0 ], [ 16.743237416110691, 55.122671248856719, 0.0 ], [ 16.743516273865723, 55.122366717115504, 0.0 ] ] ] ] } }
]
}
