{
"type": "FeatureCollection",
"name": "19085",
"crs": { "type": "name", "properties": { "name": "urn:ogc:def:crs:OGC:1.3:CRS84" } },
"features": [
{ "type": "Feature", "properties": { "area_km2": 93.380453230699999, "PROJECT_NO": 19085.0, "NAME": "Harmony Link (PSE/Litgrid)", "TYPE": "CON", "NO": 12, "status": "COMPLETED", "geotechnic": "x", "ORIG_FID": 19, "Shape_Leng": 605405.272551, "Shape_Area": 93380453.230699986 }, "geometry": { "type": "MultiPolygon", "coordinates": [ [ [ [ 20.958084913542329, 56.019373438257063, 0.0 ], [ 20.89637485368328, 56.005769555120956, 0.0 ], [ 20.896962741484852, 56.00493361621298, 0.0 ], [ 20.867128800774072, 55.998342280023053, 0.0 ], [ 20.866540368828719, 55.999178076651866, 0.0 ], [ 20.857283210335694, 55.997130922132378, 0.0 ], [ 20.855379107436757, 55.964094851755682, 0.0 ], [ 20.854493514104337, 55.948707429549501, 0.0 ], [ 20.85609395074075, 55.948678429541573, 0.0 ], [ 20.855577054620575, 55.939698095723621, 0.0 ], [ 20.8539769894034, 55.939727088284059, 0.0 ], [ 20.853963141708988, 55.939486272494584, 0.0 ], [ 20.853952499844681, 55.939395788111035, 0.0 ], [ 20.85393104208223, 55.939305910589702, 0.0 ], [ 20.853898864805394, 55.939217046597506, 0.0 ], [ 20.853856112237953, 55.939129598482822, 0.0 ], [ 20.853802979471521, 55.939043960634422, 0.0 ], [ 20.85373970943462, 55.938960523122979, 0.0 ], [ 20.853666584416843, 55.938879661940526, 0.0 ], [ 20.814048953141231, 55.898448674754263, 0.0 ], [ 20.810619918855647, 55.894944553376369, 0.0 ], [ 20.805960298654227, 55.890182136152333, 0.0 ], [ 20.750472286476789, 55.83336081995494, 0.0 ], [ 20.749734146549127, 55.83260382965134, 0.0 ], [ 20.749644519217149, 55.832519375058617, 0.0 ], [ 20.749544188731974, 55.83243882393225, 0.0 ], [ 20.749433683968363, 55.832362606509733, 0.0 ], [ 20.749313596585321, 55.832291128762336, 0.0 ], [ 20.749184568175195, 55.832224770780662, 0.0 ], [ 20.74904728220184, 55.832163885092179, 0.0 ], [ 20.748902472062507, 55.832108798345104, 0.0 ], [ 20.74875090791555, 55.832059802506969, 0.0 ], [ 20.748593396883003, 55.832017159357285, 0.0 ], [ 20.748430782769642, 55.831981094199371, 0.0 ], [ 20.748263927151974, 55.831951801523566, 0.0 ], [ 20.748093716998415, 55.831929436808863, 0.0 ], [ 20.74792106475196, 55.831914118320071, 0.0 ], [ 20.747746887622167, 55.831905928301389, 0.0 ], [ 20.747572110618773, 55.831904909337773, 0.0 ], [ 20.702301176298388, 55.832562943848409, 0.0 ], [ 20.572465100620434, 55.83435761074869, 0.0 ], [ 20.523238545597842, 55.835002341862619, 0.0 ], [ 20.24170172645541, 55.832895751669597, 0.0 ], [ 20.227455264308965, 55.832771868758968, 0.0 ], [ 20.211519669917802, 55.832631596852536, 0.0 ], [ 20.2114217415876, 55.832631854703855, 0.0 ], [ 20.211389509155715, 55.832632433667477, 0.0 ], [ 20.21120945453854, 55.832636348509915, 0.0 ], [ 19.964273200370108, 55.837892056590789, 0.0 ], [ 19.824502374340899, 55.840646448585119, 0.0 ], [ 19.814255915024997, 55.833552020428336, 0.0 ], [ 19.806962764869763, 55.828500456317762, 0.0 ], [ 19.806849177957794, 55.828427319030538, 0.0 ], [ 19.806726526321118, 55.828358976076153, 0.0 ], [ 19.806595446514898, 55.828295784580703, 0.0 ], [ 19.806456622364223, 55.82823807170017, 0.0 ], [ 19.806310772265757, 55.828186138299529, 0.0 ], [ 19.806158655426344, 55.82814025172199, 0.0 ], [ 19.806001062414278, 55.828100652143277, 0.0 ], [ 19.805838810222067, 55.828067545414029, 0.0 ], [ 19.805672743883232, 55.828041103948408, 0.0 ], [ 19.80550372522341, 55.828021463203044, 0.0 ], [ 19.805332631358745, 55.828008726181352, 0.0 ], [ 19.805160353008496, 55.828002958950648, 0.0 ], [ 19.80498778335815, 55.828004192512957, 0.0 ], [ 19.804815819584153, 55.828012419199851, 0.0 ], [ 19.80464535656262, 55.828027597207644, 0.0 ], [ 19.804477277217689, 55.828049647065249, 0.0 ], [ 19.502011963768506, 55.873829842405335, 0.0 ], [ 19.279801954809866, 55.906922119270817, 0.0 ], [ 19.136581497634438, 55.928008966847734, 0.0 ], [ 19.049155032183922, 55.94078861588212, 0.0 ], [ 19.011627902048705, 55.946248176745442, 0.0 ], [ 18.986468020972818, 55.941627211738485, 0.0 ], [ 18.931762605080099, 55.90879237877121, 0.0 ], [ 18.900680504931724, 55.890101129004805, 0.0 ], [ 18.893130071477469, 55.881390359056383, 0.0 ], [ 18.889453333381379, 55.877149477144883, 0.0 ], [ 18.884491826591972, 55.871423557845091, 0.0 ], [ 18.88445528662729, 55.871383123225279, 0.0 ], [ 18.883780813980792, 55.870666801161157, 0.0 ], [ 18.865315146651906, 55.851004863502958, 0.0 ], [ 18.866726578500593, 55.850584783530977, 0.0 ], [ 18.859271679313615, 55.842640792308927, 0.0 ], [ 18.857860380019893, 55.843060811621193, 0.0 ], [ 18.828123492482877, 55.811335865610317, 0.0 ], [ 18.829533948220213, 55.810916178342225, 0.0 ], [ 18.822093984745113, 55.802970032520797, 0.0 ], [ 18.820683741388599, 55.803389636965342, 0.0 ], [ 18.770109727384742, 55.749276060329969, 0.0 ], [ 18.770101946756814, 55.749267793858635, 0.0 ], [ 18.764913518298265, 55.743799199908807, 0.0 ], [ 18.761157082363564, 55.739838844794335, 0.0 ], [ 18.762565660472731, 55.739419897364861, 0.0 ], [ 18.756542387217692, 55.733068006184766, 0.0 ], [ 18.756716869712388, 55.723442726328379, 0.0 ], [ 18.755125299509238, 55.723433529675219, 0.0 ], [ 18.755168774250375, 55.721039416446821, 0.0 ], [ 18.755165380390558, 55.720952423923507, 0.0 ], [ 18.755152047952826, 55.720865734263008, 0.0 ], [ 18.755128838415619, 55.720779712500672, 0.0 ], [ 18.755095846757275, 55.720694713849475, 0.0 ], [ 18.755053207756884, 55.720611094498352, 0.0 ], [ 18.755001102430043, 55.720529200839408, 0.0 ], [ 18.754939745249214, 55.720449375734425, 0.0 ], [ 18.754869393747583, 55.720371950444914, 0.0 ], [ 18.753068031495662, 55.718537582267963, 0.0 ], [ 18.711912728121955, 55.676574767700359, 0.0 ], [ 18.71330358733913, 55.676139722192765, 0.0 ], [ 18.705606107901438, 55.668280124622875, 0.0 ], [ 18.704215447436482, 55.668715085514002, 0.0 ], [ 18.703138071125515, 55.667614692723959, 0.0 ], [ 18.691444708701024, 55.655666986601368, 0.0 ], [ 18.692835042423479, 55.655232165473933, 0.0 ], [ 18.677459389883033, 55.639510034434672, 0.0 ], [ 18.676069451994817, 55.639944684802771, 0.0 ], [ 18.672227545068544, 55.636013819746033, 0.0 ], [ 18.673617381230564, 55.635579211583774, 0.0 ], [ 18.665935653700334, 55.627717219232785, 0.0 ], [ 18.664546014630776, 55.628151742100385, 0.0 ], [ 18.661416454441259, 55.624947597767481, 0.0 ], [ 18.661416665120925, 55.624946376845664, 0.0 ], [ 18.661415274164838, 55.624946675910998, 0.0 ], [ 18.664200452882458, 55.608873801765213, 0.0 ], [ 18.684735177670166, 55.552932332349073, 0.0 ], [ 18.684758262206397, 55.552859307460061, 0.0 ], [ 18.68477422100289, 55.552785672806131, 0.0 ], [ 18.68478300949684, 55.552711652085314, 0.0 ], [ 18.684784595811148, 55.552637469026983, 0.0 ], [ 18.68370498703467, 55.512888128444963, 0.0 ], [ 18.683696697874186, 55.512794499062323, 0.0 ], [ 18.683676956689368, 55.512701422555082, 0.0 ], [ 18.68364585655679, 55.512609351274932, 0.0 ], [ 18.683603552396093, 55.512518728741831, 0.0 ], [ 18.683550246661987, 55.512429995899225, 0.0 ], [ 18.68348619735611, 55.51234357944989, 0.0 ], [ 18.683411714792619, 55.512259899937746, 0.0 ], [ 18.683327158508188, 55.512179361852795, 0.0 ], [ 18.683232940421608, 55.512102354538712, 0.0 ], [ 18.683129515343403, 55.512029250371114, 0.0 ], [ 18.683017382566465, 55.511960403863256, 0.0 ], [ 18.677672733538188, 55.508899401991172, 0.0 ], [ 18.677551071488292, 55.508834453280841, 0.0 ], [ 18.677421664989097, 55.508774518465934, 0.0 ], [ 18.677285153052718, 55.508719894924518, 0.0 ], [ 18.677142214501139, 55.508670852276971, 0.0 ], [ 18.676993553697937, 55.508627634146769, 0.0 ], [ 18.676839906921231, 55.508590453683539, 0.0 ], [ 18.676682036022271, 55.50855949444562, 0.0 ], [ 18.676520718916709, 55.508534911274282, 0.0 ], [ 18.67635675755681, 55.508516824023232, 0.0 ], [ 18.606423712003995, 55.502221222039097, 0.0 ], [ 18.606423278224401, 55.502221050763481, 0.0 ], [ 18.605956926339442, 55.502035801310164, 0.0 ], [ 18.564189062698503, 55.485508045706162, 0.0 ], [ 18.506032820874047, 55.462448513753223, 0.0 ], [ 18.506032816712491, 55.462448466995959, 0.0 ], [ 18.497339864705115, 55.388742392963813, 0.0 ], [ 18.497325396143928, 55.388658710143268, 0.0 ], [ 18.497301793700139, 55.388575703474352, 0.0 ], [ 18.497269144928087, 55.388493695105822, 0.0 ], [ 18.497227580022685, 55.388413006460979, 0.0 ], [ 18.497177260890904, 55.388333948305331, 0.0 ], [ 18.353760038199354, 55.182069633718477, 0.0 ], [ 18.353697553537216, 55.181987372829134, 0.0 ], [ 18.353625647918946, 55.181907672394807, 0.0 ], [ 18.353544640901635, 55.181830881968786, 0.0 ], [ 18.353454892959963, 55.181757345926776, 0.0 ], [ 18.35335679949354, 55.181687385457174, 0.0 ], [ 18.353250793749506, 55.181621312060749, 0.0 ], [ 18.330566274374799, 55.168387056634351, 0.0 ], [ 18.248535188202062, 55.042279152274993, 0.0 ], [ 18.24492801842575, 55.033943408720063, 0.0 ], [ 18.184606695115928, 54.894021907543511, 0.0 ], [ 18.184583772490548, 54.893972570794631, 0.0 ], [ 18.184533615396674, 54.893883908810636, 0.0 ], [ 18.162330635112262, 54.858768572010277, 0.0 ], [ 18.163794516556774, 54.858460812879734, 0.0 ], [ 18.155546219597891, 54.845399972842145, 0.0 ], [ 18.156311158171693, 54.833438856754967, 0.0 ], [ 18.156502473439808, 54.83042246088435, 0.0 ], [ 18.148725334078811, 54.830256661552966, 0.0 ], [ 18.148530302806687, 54.833272854010424, 0.0 ], [ 18.147734884570049, 54.845673111506628, 0.0 ], [ 18.147732860234882, 54.845797096495573, 0.0 ], [ 18.147742688935789, 54.845920957012233, 0.0 ], [ 18.147764339778998, 54.846044316168843, 0.0 ], [ 18.147797750678912, 54.846166798653208, 0.0 ], [ 18.147842814319013, 54.846288031529333, 0.0 ], [ 18.147899399956785, 54.846407644390624, 0.0 ], [ 18.147967329925518, 54.846525275487792, 0.0 ], [ 18.156474203923207, 54.859999577431758, 0.0 ], [ 18.157938452518739, 54.859691830961999, 0.0 ], [ 18.180095148090167, 54.894740073505083, 0.0 ], [ 18.240371472164416, 55.034593642538781, 0.0 ], [ 18.244009714247373, 55.043003380829497, 0.0 ], [ 18.244032793211723, 55.043052705637052, 0.0 ], [ 18.244087162797797, 55.043147414967734, 0.0 ], [ 18.32632809573451, 55.169598684003034, 0.0 ], [ 18.326390841487079, 55.169685483143773, 0.0 ], [ 18.326463993218262, 55.169769571990656, 0.0 ], [ 18.326547195140495, 55.169850539556663, 0.0 ], [ 18.326640045569004, 55.169927995274712, 0.0 ], [ 18.326742093886455, 55.170001562689016, 0.0 ], [ 18.326852842036708, 55.170070883958353, 0.0 ], [ 18.349553326873099, 55.183315301524154, 0.0 ], [ 18.374385035286839, 55.219195730839246, 0.0 ], [ 18.396013549134267, 55.25039456375977, 0.0 ], [ 18.437247431960785, 55.309727525532715, 0.0 ], [ 18.468300929026611, 55.354284969029123, 0.0 ], [ 18.49263825353723, 55.389134103082831, 0.0 ], [ 18.501373668133258, 55.463273818674075, 0.0 ], [ 18.501390172808208, 55.463366033855898, 0.0 ], [ 18.501417792816813, 55.463457387360556, 0.0 ], [ 18.501456392893513, 55.463547446280081, 0.0 ], [ 18.501505793370601, 55.463635785612688, 0.0 ], [ 18.501565760696224, 55.463721987325407, 0.0 ], [ 18.501636012122045, 55.463805644867847, 0.0 ], [ 18.501675411645618, 55.4638452973646, 0.0 ], [ 18.501716214131221, 55.463886362267324, 0.0 ], [ 18.501805988719802, 55.463963757750172, 0.0 ], [ 18.501904910209124, 55.464037465526999, 0.0 ], [ 18.502012513132353, 55.464107137622911, 0.0 ], [ 18.502128285894695, 55.464172444751242, 0.0 ], [ 18.502251684988401, 55.464233078169372, 0.0 ], [ 18.5023821254895, 55.464288750539659, 0.0 ], [ 18.561472384503052, 55.487719714266916, 0.0 ], [ 18.603480383252077, 55.504342864188594, 0.0 ], [ 18.612112472506592, 55.520518146386436, 0.0 ], [ 18.659379125299498, 55.608843042724025, 0.0 ], [ 18.657939787849145, 55.617273180508569, 0.0 ], [ 18.65660500759591, 55.625088021194685, 0.0 ], [ 18.656602702352142, 55.62510131645633, 0.0 ], [ 18.656602618480662, 55.625102006519334, 0.0 ], [ 18.656602375661684, 55.625103434072905, 0.0 ], [ 18.656601413841205, 55.625112060102559, 0.0 ], [ 18.656592993504216, 55.6251823165735, 0.0 ], [ 18.656592913794519, 55.625188344770834, 0.0 ], [ 18.656592367434754, 55.62519323914227, 0.0 ], [ 18.65659253145386, 55.625217358676032, 0.0 ], [ 18.656591923117048, 55.625263499960852, 0.0 ], [ 18.656592913696823, 55.625274115162249, 0.0 ], [ 18.656592975462075, 55.625283221332843, 0.0 ], [ 18.656596096324083, 55.625308185948796, 0.0 ], [ 18.656599495402325, 55.625344572714511, 0.0 ], [ 18.656602545945447, 55.625359774993299, 0.0 ], [ 18.656604196951523, 55.625372981558172, 0.0 ], [ 18.65660978414499, 55.625395846230404, 0.0 ], [ 18.656615684389738, 55.625425240844294, 0.0 ], [ 18.656621794472038, 55.625444988954868, 0.0 ], [ 18.656625979897854, 55.62546211699604, 0.0 ], [ 18.656640115507326, 55.625504200900792, 0.0 ], [ 18.65664044664992, 55.62550520851169, 0.0 ], [ 18.656640790579253, 55.625506207170133, 0.0 ], [ 18.656656541556323, 55.625549407440161, 0.0 ], [ 18.656699150584487, 55.625636381943494, 0.0 ], [ 18.656751950365742, 55.625721547743609, 0.0 ], [ 18.656814701236133, 55.625804523953867, 0.0 ], [ 18.656887123732293, 55.625884938562727, 0.0 ], [ 18.660374587375181, 55.629455942842107, 0.0 ], [ 18.658984823858354, 55.629890400636157, 0.0 ], [ 18.666665565426531, 55.637752815990922, 0.0 ], [ 18.668055526118327, 55.637318272909589, 0.0 ], [ 18.671897138765718, 55.641249264679679, 0.0 ], [ 18.670507079477151, 55.641683850870344, 0.0 ], [ 18.685880759803464, 55.657406827886931, 0.0 ], [ 18.68727121508276, 55.65697207185093, 0.0 ], [ 18.69896368123657, 55.668920163881339, 0.0 ], [ 18.697572926241524, 55.669355048472269, 0.0 ], [ 18.705268991065068, 55.677215135051888, 0.0 ], [ 18.706659943308473, 55.676780164955566, 0.0 ], [ 18.707737664773294, 55.677880528258456, 0.0 ], [ 18.748889817719625, 55.719844700517164, 0.0 ], [ 18.747497776292391, 55.720280137674031, 0.0 ], [ 18.748789442422616, 55.721595682365866, 0.0 ], [ 18.748569190285508, 55.733611649460201, 0.0 ], [ 18.748575538059285, 55.733754667058598, 0.0 ], [ 18.74860248367245, 55.733912904943701, 0.0 ], [ 18.748649191626832, 55.734069671454442, 0.0 ], [ 18.748715423469349, 55.734224182321299, 0.0 ], [ 18.748800851451698, 55.734375664767867, 0.0 ], [ 18.748905047362939, 55.734523359286435, 0.0 ], [ 18.749015247819333, 55.734652214413146, 0.0 ], [ 18.759159542095713, 55.745510364258777, 0.0 ], [ 18.760568320461044, 55.745091450156842, 0.0 ], [ 18.816352711787641, 55.804678137878838, 0.0 ], [ 18.814942348243427, 55.805097675393476, 0.0 ], [ 18.822392805266535, 55.813040801264968, 0.0 ], [ 18.823803382626732, 55.812621179906493, 0.0 ], [ 18.853583894014747, 55.844333392837868, 0.0 ], [ 18.852172473759364, 55.844753346735864, 0.0 ], [ 18.859637964371707, 55.852694289788701, 0.0 ], [ 18.861049596981307, 55.852274251825044, 0.0 ], [ 18.880197938160467, 55.872624636802129, 0.0 ], [ 18.888833138255873, 55.88259031581692, 0.0 ], [ 18.888876869281866, 55.882636505054919, 0.0 ], [ 18.896526862739893, 55.891463209343982, 0.0 ], [ 18.896593202146114, 55.891534278629088, 0.0 ], [ 18.896666956448389, 55.891603001990887, 0.0 ], [ 18.896747857620426, 55.891669135621832, 0.0 ], [ 18.896835623203692, 55.891732447385849, 0.0 ], [ 18.896929940332146, 55.891792709615011, 0.0 ], [ 18.928257310518347, 55.910632597256566, 0.0 ], [ 18.983382921610048, 55.943721154311888, 0.0 ], [ 18.983504975308147, 55.943789259914041, 0.0 ], [ 18.983635406090741, 55.943852283050227, 0.0 ], [ 18.983773549437569, 55.943909900947247, 0.0 ], [ 18.983918694357008, 55.943961817790367, 0.0 ], [ 18.984070091394145, 55.944007765623972, 0.0 ], [ 18.984226967043867, 55.94404750884771, 0.0 ], [ 18.984388510940143, 55.944080843316875, 0.0 ], [ 19.010814283556233, 55.948934341185357, 0.0 ], [ 19.010981193080319, 55.948961267107876, 0.0 ], [ 19.011151134610589, 55.948981354674878, 0.0 ], [ 19.011323219052194, 55.948994497900586, 0.0 ], [ 19.01149654610315, 55.949000627654556, 0.0 ], [ 19.01167021066383, 55.948999711661564, 0.0 ], [ 19.011843301237864, 55.948991755400343, 0.0 ], [ 19.012014914350249, 55.948976801203678, 0.0 ], [ 19.012184152947466, 55.948954926460694, 0.0 ], [ 19.050379056777075, 55.943393867988441, 0.0 ], [ 19.137786874106467, 55.930617694938235, 0.0 ], [ 19.281023633355488, 55.909528435519249, 0.0 ], [ 19.503247522858345, 55.876434044802139, 0.0 ], [ 19.80422828638094, 55.830880564923426, 0.0 ], [ 19.810539002856196, 55.835251841116282, 0.0 ], [ 19.821535810586735, 55.842866165759958, 0.0 ], [ 19.821647571166434, 55.842938155764607, 0.0 ], [ 19.821768122604595, 55.843005507465591, 0.0 ], [ 19.821896853921949, 55.84306788246726, 0.0 ], [ 19.822033119478231, 55.843124965975676, 0.0 ], [ 19.822176234256762, 55.843176470425924, 0.0 ], [ 19.822325478713651, 55.843222138146906, 0.0 ], [ 19.822480101897373, 55.843261737745685, 0.0 ], [ 19.822639324815238, 55.843295072174932, 0.0 ], [ 19.822802345074763, 55.843321971511898, 0.0 ], [ 19.822968346658662, 55.84334230188152, 0.0 ], [ 19.823136490229327, 55.843355960128832, 0.0 ], [ 19.823305932392849, 55.843362878184408, 0.0 ], [ 19.823475820852295, 55.843363020400545, 0.0 ], [ 19.964445692745151, 55.84058572315665, 0.0 ], [ 20.211396662581802, 55.835329764651249, 0.0 ], [ 20.211509319830885, 55.835327316002434, 0.0 ], [ 20.227380844955906, 55.835467021715047, 0.0 ], [ 20.241628270459874, 55.835590916884257, 0.0 ], [ 20.523225528698315, 55.837697956257564, 0.0 ], [ 20.523307371857111, 55.837697688047456, 0.0 ], [ 20.572578234124411, 55.837052390833904, 0.0 ], [ 20.702423271873194, 55.83525761297318, 0.0 ], [ 20.746237643847806, 55.834621014375216, 0.0 ], [ 20.746273199296365, 55.834657478620166, 0.0 ], [ 20.801756853710103, 55.891480606795938, 0.0 ], [ 20.806416121586839, 55.896243189972402, 0.0 ], [ 20.80984486634814, 55.899747402089105, 0.0 ], [ 20.849101950854966, 55.939815297423472, 0.0 ], [ 20.847576708374806, 55.939842856123278, 0.0 ], [ 20.848091753526649, 55.948823221622838, 0.0 ], [ 20.849692196775052, 55.948794305682199, 0.0 ], [ 20.850575887799124, 55.96418176984826, 0.0 ], [ 20.852526841671569, 55.998102922244676, 0.0 ], [ 20.852538813964429, 55.998200598284598, 0.0 ], [ 20.852563407053463, 55.99829752733158, 0.0 ], [ 20.852600490864297, 55.9983932016344, 0.0 ], [ 20.852649872758182, 55.998487113479307, 0.0 ], [ 20.852711290202585, 55.998578769683611, 0.0 ], [ 20.852784418483044, 55.998667685187549, 0.0 ], [ 20.85286887429406, 55.998753391091135, 0.0 ], [ 20.852964209325652, 55.9988354347512, 0.0 ], [ 20.853069921654757, 55.998913383206514, 0.0 ], [ 20.85318545422729, 55.998986824998987, 0.0 ], [ 20.853310195029472, 55.999055373767703, 0.0 ], [ 20.853443488222435, 55.999118666284296, 0.0 ], [ 20.853584629677407, 55.999176369712252, 0.0 ], [ 20.853732874818991, 55.999228177894018, 0.0 ], [ 20.853887440616141, 55.999273819412124, 0.0 ], [ 20.854047510091174, 55.999313051229585, 0.0 ], [ 20.864774922467447, 56.001685448292228, 0.0 ], [ 20.864186388576943, 56.002521233079769, 0.0 ], [ 20.894023046803635, 56.009113277204058, 0.0 ], [ 20.89461103652253, 56.008277351002469, 0.0 ], [ 20.955869242948342, 56.02178190433365, 0.0 ], [ 20.963649456919875, 56.026053566865606, 0.0 ], [ 20.966360021662499, 56.027541386038493, 0.0 ], [ 20.995408371481314, 56.043475385112117, 0.0 ], [ 20.995532757307664, 56.0435389550275, 0.0 ], [ 20.99566477959851, 56.043597503730417, 0.0 ], [ 20.995803792193634, 56.043650741397002, 0.0 ], [ 20.995949113588065, 56.043698409341538, 0.0 ], [ 20.996100033027211, 56.043740273625659, 0.0 ], [ 20.996255813995489, 56.043776130396161, 0.0 ], [ 20.996415690822722, 56.0438058023446, 0.0 ], [ 20.996578883452781, 56.043829144761425, 0.0 ], [ 21.05486438651749, 56.05094549604442, 0.0 ], [ 21.054941138265491, 56.05095411891044, 0.0 ], [ 21.055111611157464, 56.05096815475801, 0.0 ], [ 21.070012418375732, 56.051890670135599, 0.0 ], [ 21.075841805709192, 56.052251778250117, 0.0 ], [ 21.076371510479586, 56.049572667433296, 0.0 ], [ 21.070542008070337, 56.049211552960578, 0.0 ], [ 21.055766363017092, 56.048296794016522, 0.0 ], [ 20.998283236520376, 56.041278569284763, 0.0 ], [ 20.969729341205205, 56.025616370324727, 0.0 ], [ 20.967018793615416, 56.024128632680544, 0.0 ], [ 20.958889371981847, 56.019665419703003, 0.0 ], [ 20.95877084249253, 56.01960454800227, 0.0 ], [ 20.958645320499464, 56.019548246085137, 0.0 ], [ 20.958513364448201, 56.019496765758916, 0.0 ], [ 20.958375563756494, 56.019450336765274, 0.0 ], [ 20.95823253239999, 56.019409166882625, 0.0 ], [ 20.958084913542329, 56.019373438257063, 0.0 ] ], [ [ 18.608884517584965, 55.505173085629139, 0.0 ], [ 18.608884079127396, 55.505172263584001, 0.0 ], [ 18.67484664661562, 55.511109791917342, 0.0 ], [ 18.678970859135024, 55.513471947159843, 0.0 ], [ 18.680026982435379, 55.552529903128395, 0.0 ], [ 18.661384659337617, 55.603306403513038, 0.0 ], [ 18.616658595275489, 55.519736813263151, 0.0 ], [ 18.608884517584965, 55.505173085629139, 0.0 ] ] ] ] } }
]
}
