{
"type": "FeatureCollection",
"name": "20032",
"crs": { "type": "name", "properties": { "name": "urn:ogc:def:crs:OGC:1.3:CRS84" } },
"features": [
{ "type": "Feature", "properties": { "area_km2": 41.339770729599998, "PROJECT_NO": 20032.0, "NAME": "BC-Wind (DSU EDPR)", "TYPE": "CON", "NO": 14, "status": "COMPLETED", "geotechnic": null, "ORIG_FID": 20, "Shape_Leng": 60239.1906495, "Shape_Area": 41339770.729599997 }, "geometry": { "type": "MultiPolygon", "coordinates": [ [ [ [ 18.031501387766092, 55.036283055671682, 0.0 ], [ 18.093469677542071, 55.038585261668864, 0.0 ], [ 18.008585173701025, 55.01081509869303, 0.0 ], [ 17.906936635873759, 54.863703421829413, 0.0 ], [ 17.899270494193011, 54.834288331112731, 0.0 ], [ 17.89795048261221, 54.823349944393044, 0.0 ], [ 17.896388099622452, 54.823217597817205, 0.0 ], [ 17.896360259856287, 54.823214538945351, 0.0 ], [ 17.894964978046708, 54.823061234463871, 0.0 ], [ 17.894546248907499, 54.82301522401108, 0.0 ], [ 17.893691696717305, 54.822945679649678, 0.0 ], [ 17.89316815121099, 54.822903069227877, 0.0 ], [ 17.891735334902648, 54.82271790245867, 0.0 ], [ 17.890229670754934, 54.822566882486541, 0.0 ], [ 17.889883693770727, 54.822532160610479, 0.0 ], [ 17.889457445581595, 54.822476978538447, 0.0 ], [ 17.888193173780284, 54.822313296320388, 0.0 ], [ 17.887199662320739, 54.822098765745842, 0.0 ], [ 17.887157118342003, 54.822156977627259, 0.0 ], [ 17.887114020052039, 54.822432826674216, 0.0 ], [ 17.8881306608173, 54.831489490782531, 0.0 ], [ 17.88860306714361, 54.836050033235395, 0.0 ], [ 17.881892563716161, 54.86385508896371, 0.0 ], [ 18.000099999695433, 55.03499999991071, 0.0 ], [ 18.031401388530551, 55.036283055537552, 0.0 ], [ 18.031501387766092, 55.036283055671682, 0.0 ] ] ] ] } }
]
}
