{
"type": "FeatureCollection",
"name": "20041",
"crs": { "type": "name", "properties": { "name": "urn:ogc:def:crs:OGC:1.3:CRS84" } },
"features": [
{ "type": "Feature", "properties": { "area_km2": 190.34715824, "PROJECT_NO": 20041.0, "NAME": "Bałtyk 1 [Bałtyk Północny]", "TYPE": "OWF", "NO": 0, "status": "COMPLETED", "geotechnic": null, "ORIG_FID": 21, "Shape_Leng": 55410.4619618, "Shape_Area": 190347158.24000001 }, "geometry": { "type": "MultiPolygon", "coordinates": [ [ [ [ 17.423212397917705, 55.471001073442686, 0.0 ], [ 17.422288576875065, 55.47049899741986, 0.0 ], [ 17.421327104364849, 55.47002028351983, 0.0 ], [ 17.420329811056192, 55.469565839968794, 0.0 ], [ 17.419298595464344, 55.469136532748067, 0.0 ], [ 17.418235417953348, 55.468733177433876, 0.0 ], [ 17.417142303836066, 55.46835654104337, 0.0 ], [ 17.416021330803751, 55.468007340081613, 0.0 ], [ 17.41487463062915, 55.467686237874027, 0.0 ], [ 17.41370438440093, 55.467393845410463, 0.0 ], [ 17.412512817868439, 55.467130719493476, 0.0 ], [ 17.41130219844251, 55.466897359109645, 0.0 ], [ 17.41007482561907, 55.46669420800756, 0.0 ], [ 17.408833034201265, 55.466521653845589, 0.0 ], [ 17.407579186633114, 55.466380022702786, 0.0 ], [ 17.406315664864394, 55.466269585269586, 0.0 ], [ 17.405044873757628, 55.466190551501349, 0.0 ], [ 17.403769225300724, 55.466143070414915, 0.0 ], [ 17.40249114797944, 55.466127233808386, 0.0 ], [ 17.401213071208783, 55.466143070665183, 0.0 ], [ 17.399937423599106, 55.466190551626347, 0.0 ], [ 17.39866663154918, 55.466269585375827, 0.0 ], [ 17.397403109604092, 55.466380023007943, 0.0 ], [ 17.396149262247427, 55.466521653554118, 0.0 ], [ 17.394907471094903, 55.466694208307366, 0.0 ], [ 17.393680099738866, 55.466897359084498, 0.0 ], [ 17.392469479467678, 55.467130719832852, 0.0 ], [ 17.391277912490089, 55.467393845768996, 0.0 ], [ 17.390107667031288, 55.46768623780406, 0.0 ], [ 17.388960966393331, 55.468007339697422, 0.0 ], [ 17.387839993610196, 55.468356540808585, 0.0 ], [ 17.386273013996114, 55.468908257619184, 0.0 ], [ 17.384770161888596, 55.469514839782647, 0.0 ], [ 17.38234496645153, 55.470560227745544, 0.0 ], [ 17.194629182712511, 55.466779342642909, 0.0 ], [ 17.193549378128242, 55.466768039678414, 0.0 ], [ 17.192271280257511, 55.466783877174272, 0.0 ], [ 17.190995611982068, 55.466831357857998, 0.0 ], [ 17.18972480025035, 55.466910391867245, 0.0 ], [ 17.188461257422762, 55.467020828990073, 0.0 ], [ 17.187207389166055, 55.467162459678818, 0.0 ], [ 17.185965578667496, 55.467335014813841, 0.0 ], [ 17.184738186662084, 55.467538165700482, 0.0 ], [ 17.183527546631968, 55.467771525791946, 0.0 ], [ 17.182335961585846, 55.468034652434973, 0.0 ], [ 17.181165696299388, 55.468327044052508, 0.0 ], [ 17.180018977047617, 55.468648146426908, 0.0 ], [ 17.178897985547483, 55.468997347209857, 0.0 ], [ 17.177374939358085, 55.469532510089628, 0.0 ], [ 17.175912241153625, 55.470119508433399, 0.0 ], [ 17.135395171785984, 55.487442768327305, 0.0 ], [ 17.134181871272045, 55.487990181420834, 0.0 ], [ 17.133219962137765, 55.488468895176688, 0.0 ], [ 17.132295719021876, 55.488970968801738, 0.0 ], [ 17.131410903220967, 55.489495449210089, 0.0 ], [ 17.130567199317657, 55.490041338104334, 0.0 ], [ 17.129766211802739, 55.490607596410769, 0.0 ], [ 17.129009468023408, 55.491193148811213, 0.0 ], [ 17.128298408811563, 55.491796880895059, 0.0 ], [ 17.127634388262528, 55.492417643642881, 0.0 ], [ 17.127018671971495, 55.49305425698811, 0.0 ], [ 17.126452433898429, 55.49370550886276, 0.0 ], [ 17.125936754514548, 55.494370160556393, 0.0 ], [ 17.125472617534818, 55.495046948457713, 0.0 ], [ 17.12510837830494, 55.495650016460814, 0.0 ], [ 17.12478507548381, 55.496260558198507, 0.0 ], [ 17.124503182467421, 55.496877679523671, 0.0 ], [ 17.124263114625244, 55.497500476372124, 0.0 ], [ 17.119333191479434, 55.511570123877924, 0.0 ], [ 17.119217326910782, 55.511920205947263, 0.0 ], [ 17.119022099791213, 55.512637977463896, 0.0 ], [ 17.118882228280835, 55.513359897469748, 0.0 ], [ 17.118797979017025, 55.51408459114456, 0.0 ], [ 17.118769517415892, 55.514810681139444, 0.0 ], [ 17.118796899856122, 55.51553678475878, 0.0 ], [ 17.118880078141991, 55.516261519422777, 0.0 ], [ 17.119018896221892, 55.516983504415606, 0.0 ], [ 17.119213093025635, 55.517701367223424, 0.0 ], [ 17.119462301023844, 55.518413739918081, 0.0 ], [ 17.119766049023646, 55.519119266395023, 0.0 ], [ 17.120123763724827, 55.51981660240039, 0.0 ], [ 17.120534764643406, 55.520504421750211, 0.0 ], [ 17.1209982705487, 55.521181413736883, 0.0 ], [ 17.121513405516723, 55.521846288621312, 0.0 ], [ 17.122079187695359, 55.522497780163249, 0.0 ], [ 17.122694543407189, 55.523134648541031, 0.0 ], [ 17.123358300797236, 55.523755680260791, 0.0 ], [ 17.12406920073045, 55.524359691926733, 0.0 ], [ 17.124825890315211, 55.524945532846196, 0.0 ], [ 17.125626929097638, 55.525512087829519, 0.0 ], [ 17.126470793803399, 55.526058277270572, 0.0 ], [ 17.12735587820254, 55.526583059849685, 0.0 ], [ 17.128280497642866, 55.52708543710655, 0.0 ], [ 17.12924289234363, 55.527564450801684, 0.0 ], [ 17.130241228723964, 55.528019188339094, 0.0 ], [ 17.131273605698752, 55.528448783769782, 0.0 ], [ 17.132338059435796, 55.528852417872187, 0.0 ], [ 17.13343255998376, 55.52922932260379, 0.0 ], [ 17.13430817246568, 55.529505007935832, 0.0 ], [ 17.135199868700763, 55.529763580085323, 0.0 ], [ 17.136106612731954, 55.53000473975905, 0.0 ], [ 17.137027345569194, 55.530228203520977, 0.0 ], [ 17.184960484626043, 55.541303993218648, 0.0 ], [ 17.185287889425609, 55.541383078858679, 0.0 ], [ 17.18536046453243, 55.541402314473821, 0.0 ], [ 17.185437678049222, 55.541424799388722, 0.0 ], [ 17.185587021859252, 55.541476011012612, 0.0 ], [ 17.185671098744468, 55.541507864255102, 0.0 ], [ 17.185752625876283, 55.541541759050787, 0.0 ], [ 17.185831474199531, 55.541577640452907, 0.0 ], [ 17.185907491512452, 55.541615439687298, 0.0 ], [ 17.185980530529946, 55.541655084456693, 0.0 ], [ 17.186050444378662, 55.541696493480266, 0.0 ], [ 17.186117103321767, 55.541739592023923, 0.0 ], [ 17.186180390502262, 55.541784301049368, 0.0 ], [ 17.186240173714047, 55.541830530503113, 0.0 ], [ 17.186296348895471, 55.541878198839314, 0.0 ], [ 17.186348801595727, 55.541927209075219, 0.0 ], [ 17.186397433040518, 55.541977468056096, 0.0 ], [ 17.18644215533768, 55.542028887283095, 0.0 ], [ 17.186482875248753, 55.542081356602075, 0.0 ], [ 17.186519520929142, 55.542134783256316, 0.0 ], [ 17.186552025368915, 55.542189072762319, 0.0 ], [ 17.186580316418766, 55.542244104489328, 0.0 ], [ 17.186604350625387, 55.542299788796889, 0.0 ], [ 17.186624080484545, 55.542356020701206, 0.0 ], [ 17.186639463947515, 55.542412680015971, 0.0 ], [ 17.186650473898915, 55.542469666553345, 0.0 ], [ 17.186657089891373, 55.542526873031782, 0.0 ], [ 17.186669984382711, 55.542585010303029, 0.0 ], [ 17.186647011370393, 55.54300486061836, 0.0 ], [ 17.186624260623596, 55.543463364611348, 0.0 ], [ 17.186651662214906, 55.544189464430012, 0.0 ], [ 17.186734900334347, 55.544914195243159, 0.0 ], [ 17.18687381800498, 55.545636177333179, 0.0 ], [ 17.187068156460711, 55.546354036593669, 0.0 ], [ 17.187317545527648, 55.547066406187319, 0.0 ], [ 17.18762151456361, 55.54777192940724, 0.0 ], [ 17.187979487553061, 55.548469262304835, 0.0 ], [ 17.188390786043335, 55.549157078232255, 0.0 ], [ 17.18885463074562, 55.549834066971684, 0.0 ], [ 17.189370138135214, 55.550498939185218, 0.0 ], [ 17.189936331439679, 55.551150428381078, 0.0 ], [ 17.190552134156057, 55.551787293521059, 0.0 ], [ 17.191216374662687, 55.552408321792328, 0.0 ], [ 17.191927790833628, 55.553012331379726, 0.0 ], [ 17.192685030107192, 55.553598169676107, 0.0 ], [ 17.193486652231282, 55.554164722320699, 0.0 ], [ 17.194331129460352, 55.554710908714902, 0.0 ], [ 17.19521685731284, 55.555235689381142, 0.0 ], [ 17.19614214989484, 55.555738064104013, 0.0 ], [ 17.197105242903145, 55.556217075578985, 0.0 ], [ 17.198104306223506, 55.556671811404065, 0.0 ], [ 17.199137434383065, 55.557101404846506, 0.0 ], [ 17.200202662282692, 55.557505037779265, 0.0 ], [ 17.201297960450553, 55.557881940618977, 0.0 ], [ 17.202975099048942, 55.558390690945636, 0.0 ], [ 17.204706868573926, 55.558836812729432, 0.0 ], [ 17.297782541081435, 55.58073313206166, 0.0 ], [ 17.298977351438097, 55.580996448469485, 0.0 ], [ 17.300191368883898, 55.581229991205113, 0.0 ], [ 17.301422227065689, 55.581433302615011, 0.0 ], [ 17.30266758020716, 55.581605995538652, 0.0 ], [ 17.303925057644197, 55.581747740994345, 0.0 ], [ 17.30519225909249, 55.581858268117557, 0.0 ], [ 17.306466772005358, 55.581937367101034, 0.0 ], [ 17.30774616692106, 55.581984887334677, 0.0 ], [ 17.309028005421823, 55.582000737517312, 0.0 ], [ 17.310309843257933, 55.581984887498528, 0.0 ], [ 17.31158923834634, 55.581937367490276, 0.0 ], [ 17.312863750800176, 55.581858268066711, 0.0 ], [ 17.314130952436166, 55.581747741192849, 0.0 ], [ 17.315388430168266, 55.581605995774375, 0.0 ], [ 17.316633782671076, 55.581433302103981, 0.0 ], [ 17.317864641065125, 55.581229991243383, 0.0 ], [ 17.319078658109728, 55.580996448577906, 0.0 ], [ 17.320273520685813, 55.580733119377207, 0.0 ], [ 17.321446951482802, 55.580440507015119, 0.0 ], [ 17.322596714008853, 55.58011916763882, 0.0 ], [ 17.32372061876341, 55.57976971474195, 0.0 ], [ 17.324816525109732, 55.579392812890681, 0.0 ], [ 17.3258823458576, 55.578989182274078, 0.0 ], [ 17.326916049245984, 55.57855958973429, 0.0 ], [ 17.327915666578594, 55.578104856054658, 0.0 ], [ 17.328879295863587, 55.577625845213873, 0.0 ], [ 17.329805103062441, 55.577123472485503, 0.0 ], [ 17.330691322552326, 55.576598693648577, 0.0 ], [ 17.331536269662401, 55.576052508745946, 0.0 ], [ 17.332338337653365, 55.575485958438911, 0.0 ], [ 17.333095997828398, 55.57490012130377, 0.0 ], [ 17.333807809004249, 55.574296114851535, 0.0 ], [ 17.334472419392849, 55.57367508835403, 0.0 ], [ 17.33508856334257, 55.57303822458983, 0.0 ], [ 17.335655070915845, 55.572386738169371, 0.0 ], [ 17.336170865006139, 55.571721868297089, 0.0 ], [ 17.33663496751106, 55.571044882444674, 0.0 ], [ 17.33704649489761, 55.57035706819434, 0.0 ], [ 17.337404665919316, 55.569659737832836, 0.0 ], [ 17.33770880367209, 55.568954216687978, 0.0 ], [ 17.337958332094495, 55.568241850268585, 0.0 ], [ 17.338152776397536, 55.567523993479199, 0.0 ], [ 17.338291770851487, 55.566802013419569, 0.0 ], [ 17.338375054152891, 55.566077285723651, 0.0 ], [ 17.338402471247061, 55.565351188290045, 0.0 ], [ 17.338373971561701, 55.564625104853093, 0.0 ], [ 17.338289614113272, 55.563900416062246, 0.0 ], [ 17.338149561021996, 55.563178502091674, 0.0 ], [ 17.337954084051869, 55.562460737336465, 0.0 ], [ 17.337703555183467, 55.561748487589853, 0.0 ], [ 17.337633124900837, 55.561585656509635, 0.0 ], [ 17.421994652852895, 55.544128933027658, 0.0 ], [ 17.423205810365161, 55.543887089091733, 0.0 ], [ 17.423244247493532, 55.543878875590998, 0.0 ], [ 17.424413694731463, 55.543620231737208, 0.0 ], [ 17.42558112017521, 55.54332856104228, 0.0 ], [ 17.426725093983158, 55.543008463424087, 0.0 ], [ 17.42784339883956, 55.54266035068401, 0.0 ], [ 17.428938272457945, 55.54228344676455, 0.0 ], [ 17.430003088053997, 55.541879813182931, 0.0 ], [ 17.43103581775728, 55.541450219431653, 0.0 ], [ 17.432034495512763, 55.540995482581955, 0.0 ], [ 17.432997217018396, 55.540516469073012, 0.0 ], [ 17.433922150859576, 55.540014093947335, 0.0 ], [ 17.434807537285931, 55.539489311837336, 0.0 ], [ 17.435651689547349, 55.538943123266819, 0.0 ], [ 17.436453000409685, 55.538376570231172, 0.0 ], [ 17.43720994873863, 55.537790729980678, 0.0 ], [ 17.437921089808555, 55.537186719383371, 0.0 ], [ 17.438585074556819, 55.536565688870404, 0.0 ], [ 17.439200640066083, 55.535928822306829, 0.0 ], [ 17.439766614517954, 55.535277331654036, 0.0 ], [ 17.440281923479169, 55.53461245794179, 0.0 ], [ 17.440745588441825, 55.533935467647396, 0.0 ], [ 17.441156728494843, 55.533247650014189, 0.0 ], [ 17.441514563542142, 55.532550315289164, 0.0 ], [ 17.441818416041322, 55.53184479024543, 0.0 ], [ 17.44206770935941, 55.531132419055993, 0.0 ], [ 17.442261971092961, 55.530414558837613, 0.0 ], [ 17.442400836422429, 55.529692574296782, 0.0 ], [ 17.442484041570054, 55.52896784213894, 0.0 ], [ 17.442511433702169, 55.528241740405484, 0.0 ], [ 17.442492096969538, 55.527690481398565, 0.0 ], [ 17.442481230927701, 55.52751580524032, 0.0 ], [ 17.442442772058353, 55.527140014165305, 0.0 ], [ 17.442396850462785, 55.52679122889419, 0.0 ], [ 17.442362670185659, 55.526590600114808, 0.0 ], [ 17.442255223366239, 55.526055798584181, 0.0 ], [ 17.431546129336898, 55.480573156267781, 0.0 ], [ 17.431356711004998, 55.479879535114833, 0.0 ], [ 17.431106708317845, 55.479167275639448, 0.0 ], [ 17.430802249761491, 55.478461885820678, 0.0 ], [ 17.430443916221645, 55.477764709439576, 0.0 ], [ 17.430032393629606, 55.47707707178408, 0.0 ], [ 17.429568466502371, 55.47640028226752, 0.0 ], [ 17.429053022915145, 55.47573562820498, 0.0 ], [ 17.428487043441717, 55.475084373778209, 0.0 ], [ 17.427871607498044, 55.474447759224162, 0.0 ], [ 17.42720788882869, 55.47382699449112, 0.0 ], [ 17.426497153873303, 55.473223260123689, 0.0 ], [ 17.425740753879325, 55.472637706270056, 0.0 ], [ 17.424940131504307, 55.472071445582657, 0.0 ], [ 17.424096811244418, 55.471525554901085, 0.0 ], [ 17.423212397917705, 55.471001073442686, 0.0 ] ] ] ] } },
{ "type": "Feature", "properties": { "area_km2": 60.539613152100003, "PROJECT_NO": 20041.0, "NAME": "Bałtyk 1", "TYPE": "CON", "NO": 15, "status": "COMPLETED", "geotechnic": null, "ORIG_FID": 22, "Shape_Leng": 125664.21789699999, "Shape_Area": 60539613.152099997 }, "geometry": { "type": "MultiPolygon", "coordinates": [ [ [ [ 17.191030277457617, 55.478869728242451, 0.0 ], [ 17.162083889027322, 55.474385561760542, 0.0 ], [ 16.774537777434197, 55.137158617203191, 0.0 ], [ 16.769484167002748, 55.110753895301116, 0.0 ], [ 16.777688333357798, 55.106385284280833, 0.0 ], [ 16.779588610868398, 55.105081117687945, 0.0 ], [ 16.852429999195266, 55.039726117607877, 0.0 ], [ 16.862632499481705, 55.034569727992803, 0.0 ], [ 16.859870276920635, 55.035072227953385, 0.0 ], [ 16.848044999012838, 55.035325283742665, 0.0 ], [ 16.843013889207857, 55.035432505845016, 0.0 ], [ 16.766706666986767, 55.102917506413647, 0.0 ], [ 16.753547499577877, 55.109846950383563, 0.0 ], [ 16.759362499708907, 55.140290839442393, 0.0 ], [ 17.148960833159876, 55.47999667316838, 0.0 ], [ 17.145854165662733, 55.498187784073195, 0.0 ], [ 17.191030277457617, 55.478869728242451, 0.0 ] ] ] ] } },
{ "type": "Feature", "properties": { "area_km2": 57.088271899399999, "PROJECT_NO": 20041.0, "NAME": "Bałtyk 1", "TYPE": "CON", "NO": 15, "status": "COMPLETED", "geotechnic": null, "ORIG_FID": 23, "Shape_Leng": 126895.233271, "Shape_Area": 57088271.899400011 }, "geometry": { "type": "MultiPolygon", "coordinates": [ [ [ [ 17.191030277457617, 55.478869728242451, 0.0 ], [ 17.218237778020708, 55.479436672906218, 0.0 ], [ 17.178509721718687, 55.468324172542346, 0.0 ], [ 17.159318333172475, 55.447922506418628, 0.0 ], [ 16.982873610950879, 55.174676672600448, 0.0 ], [ 16.964110000423297, 55.11873695070814, 0.0 ], [ 16.953790000368347, 55.118743894845259, 0.0 ], [ 16.97519083264153, 55.014034450349953, 0.0 ], [ 16.948645277637699, 55.018888894708454, 0.0 ], [ 16.928651388184832, 55.015988895424144, 0.0 ], [ 16.924499167028149, 55.013908339763141, 0.0 ], [ 16.899877777225186, 55.001565006467573, 0.0 ], [ 16.898944722275985, 55.001096672757896, 0.0 ], [ 16.890494721868418, 55.008780839117193, 0.0 ], [ 16.891286666434812, 55.009178061561364, 0.0 ], [ 16.920834999321123, 55.023991117291594, 0.0 ], [ 16.964059999719012, 55.029933061602527, 0.0 ], [ 16.946728610359042, 55.114484728142536, 0.0 ], [ 16.94294305584453, 55.132566950466639, 0.0 ], [ 16.950835832963588, 55.132587228440215, 0.0 ], [ 16.95279166665053, 55.132604172568904, 0.0 ], [ 16.96775111059052, 55.177238617630088, 0.0 ], [ 17.144526110629556, 55.4512483400284, 0.0 ], [ 17.163802777248865, 55.471749173100704, 0.0 ], [ 17.162822499931764, 55.490935839786687, 0.0 ], [ 17.191030277457617, 55.478869728242451, 0.0 ] ] ] ] } }
]
}
