{
"type": "FeatureCollection",
"name": "20060",
"crs": { "type": "name", "properties": { "name": "urn:ogc:def:crs:OGC:1.3:CRS84" } },
"features": [
{ "type": "Feature", "properties": { "area_km2": 30.6170710932, "PROJECT_NO": 20060.0, "NAME": "Boskalis", "TYPE": "OTH", "NO": 0, "status": "COMPLETED", "geotechnic": null, "ORIG_FID": 24, "Shape_Leng": 26889.9133554, "Shape_Area": 30617071.093199998 }, "geometry": { "type": "MultiPolygon", "coordinates": [ [ [ [ 18.918234043927121, 54.419088482371144, 0.0 ], [ 18.965579021997883, 54.429315416293917, 0.0 ], [ 19.083333281503663, 54.407628580184458, 0.0 ], [ 19.083333327133097, 54.393055582115963, 0.0 ], [ 18.990000031524737, 54.389765790924876, 0.0 ], [ 18.989999950882648, 54.398333373531749, 0.0 ], [ 18.918315067402808, 54.398337808194654, 0.0 ], [ 18.918234043927121, 54.419088482371144, 0.0 ] ] ] ] } },
{ "type": "Feature", "properties": { "area_km2": 17.590675294899999, "PROJECT_NO": 20060.0, "NAME": "Boskalis", "TYPE": "OTH", "NO": 0, "status": "COMPLETED", "geotechnic": null, "ORIG_FID": 25, "Shape_Leng": 23522.7112413, "Shape_Area": 17590675.2949 }, "geometry": { "type": "MultiPolygon", "coordinates": [ [ [ [ 18.815176062035125, 54.467380310641026, 0.0 ], [ 18.821340013841912, 54.489371958874564, 0.0 ], [ 18.845787114276046, 54.488020107668106, 0.0 ], [ 18.848898999423362, 54.507145023898708, 0.0 ], [ 18.826776633589496, 54.508380490029673, 0.0 ], [ 18.83468760939726, 54.535067200576158, 0.0 ], [ 18.8611117696415, 54.522672397279528, 0.0 ], [ 18.883042530677518, 54.467750477332615, 0.0 ], [ 18.815176062035125, 54.467380310641026, 0.0 ] ] ] ] } }
]
}
