{
"type": "FeatureCollection",
"name": "20061",
"crs": { "type": "name", "properties": { "name": "urn:ogc:def:crs:OGC:1.3:CRS84" } },
"features": [
{ "type": "Feature", "properties": { "area_km2": 99.127912505400005, "PROJECT_NO": 20061.0, "NAME": "PIG Strefa Brzegowa Bałtyku", "TYPE": "OTH", "NO": 0, "status": "COMPLETED", "geotechnic": null, "ORIG_FID": 5, "Shape_Leng": 102903.36102700001, "Shape_Area": 99127912.505399987 }, "geometry": { "type": "MultiPolygon", "coordinates": [ [ [ [ 16.247650554591306, 54.367439937045944, 0.0 ], [ 16.267703814794181, 54.38059894744849, 0.0 ], [ 16.319231630570442, 54.419302548803948, 0.0 ], [ 16.34532270280684, 54.44550555466256, 0.0 ], [ 16.411204107775628, 54.501970763367773, 0.0 ], [ 16.453900408400152, 54.527361236027453, 0.0 ], [ 16.509760571262643, 54.55522053114003, 0.0 ], [ 16.592693098002368, 54.575386552095132, 0.0 ], [ 16.6862061644566, 54.588131842125676, 0.0 ], [ 16.739622696389425, 54.586714885975525, 0.0 ], [ 16.773971311244807, 54.592347910804712, 0.0 ], [ 16.81690011199656, 54.6009097394018, 0.0 ], [ 16.851108736056247, 54.606814356781797, 0.0 ], [ 16.852039450867029, 54.589394800938408, 0.0 ], [ 16.794105375938731, 54.578244524215883, 0.0 ], [ 16.766594286555375, 54.570554754385881, 0.0 ], [ 16.747821934589169, 54.5693977786853, 0.0 ], [ 16.690370029190099, 54.570170158423501, 0.0 ], [ 16.60503857224132, 54.558898555803211, 0.0 ], [ 16.529937024236645, 54.541637104111345, 0.0 ], [ 16.466737329908128, 54.510207193370775, 0.0 ], [ 16.434627056654811, 54.490161950822028, 0.0 ], [ 16.42177618795586, 54.478752999026177, 0.0 ], [ 16.391027429885604, 54.445733173193645, 0.0 ], [ 16.375995635990641, 54.44074384039962, 0.0 ], [ 16.358391122296212, 54.4225143573289, 0.0 ], [ 16.321659416620822, 54.390105921180798, 0.0 ], [ 16.269707191670264, 54.354657979545649, 0.0 ], [ 16.247650554591306, 54.367439937045944, 0.0 ] ] ] ] } }
]
}
