{
"type": "FeatureCollection",
"name": "20074",
"crs": { "type": "name", "properties": { "name": "urn:ogc:def:crs:OGC:1.3:CRS84" } },
"features": [
{ "type": "Feature", "properties": { "area_km2": 97.138172587300005, "PROJECT_NO": 20074.0, "NAME": "Hesselø", "TYPE": "CON", "NO": 16, "status": "COMPLETED", "geotechnic": null, "ORIG_FID": 26, "Shape_Leng": 192213.23557200001, "Shape_Area": 97138172.587300003 }, "geometry": { "type": "MultiPolygon", "coordinates": [ [ [ [ 11.990560659805764, 56.344876231850471, 0.0 ], [ 11.879804724766503, 56.305642426844948, 0.0 ], [ 11.822144023670189, 56.177725050753843, 0.0 ], [ 11.822063063591335, 56.177558451569631, 0.0 ], [ 11.821970685087987, 56.177393710901107, 0.0 ], [ 11.821867026885414, 56.177231072092923, 0.0 ], [ 11.790493968312761, 56.130789544177908, 0.0 ], [ 11.755324160922672, 56.054066242179417, 0.0 ], [ 11.779168749973643, 56.008427235023014, 0.0 ], [ 11.825561936338849, 55.964792623357624, 0.0 ], [ 11.825633550610918, 55.964723797429293, 0.0 ], [ 11.825786990509984, 55.964566034329621, 0.0 ], [ 11.825929051637887, 55.964404955155779, 0.0 ], [ 11.826059509793966, 55.964240815453905, 0.0 ], [ 11.826178152017182, 55.964073879537814, 0.0 ], [ 11.826284790299038, 55.963904415882347, 0.0 ], [ 11.826379257476257, 55.963732693277294, 0.0 ], [ 11.826461396032512, 55.96355898918619, 0.0 ], [ 11.826531077575336, 55.963383580068481, 0.0 ], [ 11.826588191969238, 55.963206747955041, 0.0 ], [ 11.826632646573866, 55.963028775896362, 0.0 ], [ 11.826664371012008, 55.962849948241349, 0.0 ], [ 11.826683312067281, 55.962670552141645, 0.0 ], [ 11.826689442294942, 55.962490874449571, 0.0 ], [ 11.826682753329601, 55.96231120312958, 0.0 ], [ 11.826682277110926, 55.962304784131504, 0.0 ], [ 11.835248582503612, 55.945063314968294, 0.0 ], [ 11.829349107376471, 55.922065349399283, 0.0 ], [ 11.826726301629401, 55.914435874471891, 0.0 ], [ 11.833721782101426, 55.894471109058721, 0.0 ], [ 11.863898667026271, 55.830279836206479, 0.0 ], [ 11.88851309960579, 55.828803801730913, 0.0 ], [ 11.888714712942198, 55.828790229133084, 0.0 ], [ 11.889030322966176, 55.828763056713328, 0.0 ], [ 11.889343748796211, 55.828728798005208, 0.0 ], [ 11.889654485435658, 55.82868750752278, 0.0 ], [ 11.889962038771259, 55.828639250332238, 0.0 ], [ 11.890265915249586, 55.828584105958733, 0.0 ], [ 11.890565627940148, 55.828522161527431, 0.0 ], [ 11.890860695555464, 55.828453517114518, 0.0 ], [ 11.89115064627522, 55.828378282363616, 0.0 ], [ 11.891435016162811, 55.828296576393399, 0.0 ], [ 11.891713351681382, 55.828208531548874, 0.0 ], [ 11.891985201005083, 55.828114288389621, 0.0 ], [ 11.892250134291636, 55.828013998669498, 0.0 ], [ 11.8925077251592, 55.827907821556394, 0.0 ], [ 11.892757561124718, 55.827795927843503, 0.0 ], [ 11.892999240925807, 55.827678497089359, 0.0 ], [ 11.893232381022631, 55.827555717093503, 0.0 ], [ 11.893456604179669, 55.827427785035908, 0.0 ], [ 11.893671552795757, 55.8272949046451, 0.0 ], [ 11.893876881912322, 55.827157289397121, 0.0 ], [ 11.894072265878153, 55.827015161099546, 0.0 ], [ 11.894257388074987, 55.826868744787546, 0.0 ], [ 11.894431953870159, 55.826718276686684, 0.0 ], [ 11.894595683837712, 55.826563997509176, 0.0 ], [ 11.894748314852185, 55.826406155221285, 0.0 ], [ 11.894889604073891, 55.826245000767429, 0.0 ], [ 11.895019324798849, 55.826080793237288, 0.0 ], [ 11.895097754312632, 55.825971945707074, 0.0 ], [ 11.901265501917567, 55.817078026694219, 0.0 ], [ 11.901304997057453, 55.817019874883549, 0.0 ], [ 11.88642460424056, 55.81378542753496, 0.0 ], [ 11.88640662869987, 55.813811107450178, 0.0 ], [ 11.882000044701067, 55.820162336404344, 0.0 ], [ 11.85674613507237, 55.821675574358139, 0.0 ], [ 11.856702994344822, 55.821678221298193, 0.0 ], [ 11.856386516714723, 55.821701749966294, 0.0 ], [ 11.856071963569251, 55.821732387706902, 0.0 ], [ 11.855759840108668, 55.821770085610574, 0.0 ], [ 11.855450644333553, 55.821814781732883, 0.0 ], [ 11.855144874145473, 55.82186640601568, 0.0 ], [ 11.854843013748068, 55.821924875887404, 0.0 ], [ 11.854545551238097, 55.821990096388383, 0.0 ], [ 11.854252960195383, 55.82206196450413, 0.0 ], [ 11.853965711758622, 55.822140364461681, 0.0 ], [ 11.853684261131781, 55.822225171448444, 0.0 ], [ 11.853409064083619, 55.822316248969571, 0.0 ], [ 11.853140557281712, 55.822413451304939, 0.0 ], [ 11.852879174463114, 55.822516622650248, 0.0 ], [ 11.852625328516552, 55.822625598774422, 0.0 ], [ 11.852379432734127, 55.822740204654821, 0.0 ], [ 11.852141876392229, 55.822860256656178, 0.0 ], [ 11.851913040922055, 55.822985561671949, 0.0 ], [ 11.8516932943356, 55.823115921305288, 0.0 ], [ 11.851482984455407, 55.823251125163395, 0.0 ], [ 11.851282452185959, 55.823390957040722, 0.0 ], [ 11.851092017255972, 55.823535194085764, 0.0 ], [ 11.850911985212411, 55.823683603603648, 0.0 ], [ 11.850742643101047, 55.82383594911316, 0.0 ], [ 11.850584263291934, 55.823991986964337, 0.0 ], [ 11.850437098561962, 55.824151466952216, 0.0 ], [ 11.850301386846681, 55.824314132594132, 0.0 ], [ 11.850177344080819, 55.82447972521814, 0.0 ], [ 11.850065166767951, 55.824647978704483, 0.0 ], [ 11.849965039078691, 55.824818624407008, 0.0 ], [ 11.849876584066566, 55.82499252640666, 0.0 ], [ 11.818201342971474, 55.892318846344857, 0.0 ], [ 11.818126582265789, 55.892491157146821, 0.0 ], [ 11.818081240394347, 55.892613395623044, 0.0 ], [ 11.807865118202661, 55.922187656232467, 0.0 ], [ 11.8078470894382, 55.922241568002612, 0.0 ], [ 11.807796255496141, 55.922418998971324, 0.0 ], [ 11.80775810545099, 55.922597430360604, 0.0 ], [ 11.80773269910914, 55.922776576324353, 0.0 ], [ 11.807720079144334, 55.92295614820388, 0.0 ], [ 11.807720265003962, 55.92313586138205, 0.0 ], [ 11.807725633609442, 55.923232098804185, 0.0 ], [ 11.810583786901969, 55.961346156574045, 0.0 ], [ 11.764878836561319, 56.00431679428705, 0.0 ], [ 11.764728713473923, 56.004464001361562, 0.0 ], [ 11.76458052998259, 56.004623384492639, 0.0 ], [ 11.764443847568169, 56.004785960931009, 0.0 ], [ 11.764318882249466, 56.004951472106697, 0.0 ], [ 11.764205831967768, 56.00511965297175, 0.0 ], [ 11.764104884542512, 56.005290232469243, 0.0 ], [ 11.764069040355963, 56.005356944623287, 0.0 ], [ 11.739302201549616, 56.052724068633481, 0.0 ], [ 11.739249227428035, 56.052830051720079, 0.0 ], [ 11.739172744283712, 56.05300459294417, 0.0 ], [ 11.739108801264274, 56.053180707033761, 0.0 ], [ 11.739057497026105, 56.053358111357085, 0.0 ], [ 11.739018920673178, 56.053536522713351, 0.0 ], [ 11.738993128026141, 56.053715655027709, 0.0 ], [ 11.738980165687281, 56.053895219872913, 0.0 ], [ 11.738980052166788, 56.05407493256515, 0.0 ], [ 11.738992789124433, 56.054254503813816, 0.0 ], [ 11.739018352223301, 56.05443364549118, 0.0 ], [ 11.739056705467419, 56.054612071480449, 0.0 ], [ 11.739107787029639, 56.05478949593617, 0.0 ], [ 11.739171512099771, 56.054965635255854, 0.0 ], [ 11.739228687292977, 56.055099229196884, 0.0 ], [ 11.775024264067232, 56.133258173021673, 0.0 ], [ 11.775102074764112, 56.133415723275021, 0.0 ], [ 11.775190099846384, 56.133571586811698, 0.0 ], [ 11.775288222958634, 56.133725559341592, 0.0 ], [ 11.80663681357014, 56.180158164208095, 0.0 ], [ 11.863966498052633, 56.307456255891708, 0.0 ], [ 11.790776669865348, 56.360402172627808, 0.0 ], [ 11.75809555248857, 56.383983349892802, 0.0 ], [ 11.757923912292094, 56.384111767214364, 0.0 ], [ 11.757740949114282, 56.384260058861116, 0.0 ], [ 11.757568824112338, 56.384412291572808, 0.0 ], [ 11.757407815638318, 56.384568224802521, 0.0 ], [ 11.757258180165001, 56.384727604996897, 0.0 ], [ 11.757120159376294, 56.384890179534942, 0.0 ], [ 11.756993970787956, 56.38505568626038, 0.0 ], [ 11.75687981907241, 56.385223862259814, 0.0 ], [ 11.756777887606038, 56.385394437055687, 0.0 ], [ 11.756688339224704, 56.385567137157963, 0.0 ], [ 11.756611319436779, 56.385741686252437, 0.0 ], [ 11.756546948216343, 56.385917805620444, 0.0 ], [ 11.756495328377573, 56.386095212827222, 0.0 ], [ 11.756456548617669, 56.386273622801973, 0.0 ], [ 11.756430663209304, 56.386452752054623, 0.0 ], [ 11.75641771958446, 56.386632310378587, 0.0 ], [ 11.756417737932729, 56.386812014077222, 0.0 ], [ 11.756430715528838, 56.386991571793544, 0.0 ], [ 11.756456633652132, 56.387170699340913, 0.0 ], [ 11.756495451931075, 56.387349106749809, 0.0 ], [ 11.756547109174388, 56.387526510937974, 0.0 ], [ 11.756611518812221, 56.387702625526195, 0.0 ], [ 11.756688581658183, 56.387877170602934, 0.0 ], [ 11.756778171197016, 56.388049864648693, 0.0 ], [ 11.756880145079824, 56.388220432423161, 0.0 ], [ 11.756994342759125, 56.388388600319146, 0.0 ], [ 11.757120580155524, 56.388554098754248, 0.0 ], [ 11.757258654308112, 56.388716663345711, 0.0 ], [ 11.757408345320863, 56.38887603322199, 0.0 ], [ 11.757569409762572, 56.389031951537127, 0.0 ], [ 11.757621560560368, 56.389079501300223, 0.0 ], [ 11.761994701421266, 56.393008025135941, 0.0 ], [ 11.775514868771067, 56.38806183073752, 0.0 ], [ 11.774335515423667, 56.387001921613503, 0.0 ], [ 11.796558394961716, 56.370964371769418, 0.0 ], [ 11.804084954840249, 56.377542130199188, 0.0 ], [ 11.817569954312464, 56.37257228248756, 0.0 ], [ 11.807054174787217, 56.363383899264939, 0.0 ], [ 11.874651891510281, 56.314469690690835, 0.0 ], [ 11.976671828942884, 56.350612709158227, 0.0 ], [ 11.910635963599404, 56.468965950025691, 0.0 ], [ 11.90354888107451, 56.471675207984688, 0.0 ], [ 11.902670504100795, 56.482935317093329, 0.0 ], [ 11.922173044262546, 56.475468542345745, 0.0 ], [ 11.922222493348611, 56.475449452158621, 0.0 ], [ 11.92248430861463, 56.475343176881466, 0.0 ], [ 11.9227382294791, 56.475231188343471, 0.0 ], [ 11.922983849169263, 56.475113667011271, 0.0 ], [ 11.923220776043101, 56.474990799627591, 0.0 ], [ 11.923448627587856, 56.474862785176818, 0.0 ], [ 11.923667041589981, 56.474729827411892, 0.0 ], [ 11.923875665465705, 56.474592139651151, 0.0 ], [ 11.924074169819731, 56.474449941948862, 0.0 ], [ 11.924262231996988, 56.47430346195555, 0.0 ], [ 11.924439553974967, 56.474152935041069, 0.0 ], [ 11.924605849805385, 56.473998601772038, 0.0 ], [ 11.924760855115339, 56.473840709357205, 0.0 ], [ 11.92490432049436, 56.473679512169582, 0.0 ], [ 11.925036017495001, 56.473515265780129, 0.0 ], [ 11.925155733908539, 56.473348234799438, 0.0 ], [ 11.925263278154077, 56.473178686819054, 0.0 ], [ 11.925306156044819, 56.473104323409331, 0.0 ], [ 11.99394576956316, 56.349988481559954, 0.0 ], [ 11.993997757757183, 56.349891024343869, 0.0 ], [ 11.994079901349087, 56.349717217361551, 0.0 ], [ 11.994149455069126, 56.349541723574703, 0.0 ], [ 11.994206308333641, 56.349364826947365, 0.0 ], [ 11.994250369058557, 56.349186807983848, 0.0 ], [ 11.99428156699822, 56.349007952030135, 0.0 ], [ 11.994299850859894, 56.348828547307413, 0.0 ], [ 11.994305194271766, 56.348648878941603, 0.0 ], [ 11.994297589483391, 56.348469236717555, 0.0 ], [ 11.994277045630415, 56.348289906868523, 0.0 ], [ 11.994243599320455, 56.348111176282849, 0.0 ], [ 11.994197303222652, 56.347933332757286, 0.0 ], [ 11.994138228658631, 56.347756659736241, 0.0 ], [ 11.994066472811188, 56.347581441228165, 0.0 ], [ 11.993982149906392, 56.347407956798129, 0.0 ], [ 11.993885397308958, 56.347236483716969, 0.0 ], [ 11.99377636860263, 56.347067299272418, 0.0 ], [ 11.993655237002919, 56.346900671048694, 0.0 ], [ 11.993522199809206, 56.34673686799561, 0.0 ], [ 11.993377467032101, 56.346576151670824, 0.0 ], [ 11.993221272307959, 56.346418778662944, 0.0 ], [ 11.993053865979693, 56.346265002902825, 0.0 ], [ 11.992875516246269, 56.346115069419803, 0.0 ], [ 11.992686508504695, 56.345969217910131, 0.0 ], [ 11.992487143907432, 56.345827681754045, 0.0 ], [ 11.99227774562253, 56.345690689273198, 0.0 ], [ 11.99205864375671, 56.345558457466353, 0.0 ], [ 11.991830194921633, 56.345431200332314, 0.0 ], [ 11.991592759783417, 56.345309118581298, 0.0 ], [ 11.991346721971562, 56.345192411525765, 0.0 ], [ 11.991092472711278, 56.345081263588938, 0.0 ], [ 11.990830422194387, 56.344975853063403, 0.0 ], [ 11.990560659805764, 56.344876231850471, 0.0 ] ] ] ] } }
]
}
