{
"type": "FeatureCollection",
"name": "20085",
"crs": { "type": "name", "properties": { "name": "urn:ogc:def:crs:OGC:1.3:CRS84" } },
"features": [
{ "type": "Feature", "properties": { "area_km2": 69.874580099900001, "PROJECT_NO": 20085.0, "NAME": "Gilleleje", "TYPE": "CON", "NO": 17, "status": "COMPLETED", "geotechnic": null, "ORIG_FID": 28, "Shape_Leng": 138669.77643, "Shape_Area": 69874580.099900007 }, "geometry": { "type": "MultiPolygon", "coordinates": [ [ [ [ 11.995763726456145, 56.346716683288882, 0.0 ], [ 12.038036679308483, 56.270476639945066, 0.0 ], [ 12.275379825844125, 56.132965092817109, 0.0 ], [ 12.275443364357633, 56.132927661519979, 0.0 ], [ 12.275658633740083, 56.132794115392571, 0.0 ], [ 12.275864161452382, 56.13265586691427, 0.0 ], [ 12.276059618358252, 56.132513136934968, 0.0 ], [ 12.276244690382274, 56.132366152533749, 0.0 ], [ 12.276419084120541, 56.132215151830721, 0.0 ], [ 12.276582517216719, 56.132060374449516, 0.0 ], [ 12.276734728297976, 56.131902069268918, 0.0 ], [ 12.276875476001752, 56.13174049076482, 0.0 ], [ 12.27700453464958, 56.131575896070217, 0.0 ], [ 12.277121695218677, 56.131408548632407, 0.0 ], [ 12.277226771734231, 56.13123871856218, 0.0 ], [ 12.277301096484107, 56.13110303397778, 0.0 ], [ 12.278740424548859, 56.128318731242956, 0.0 ], [ 12.278924065331625, 56.12794598786202, 0.0 ], [ 12.274907463948072, 56.127478954970151, 0.0 ], [ 12.274796377988045, 56.125361755323091, 0.0 ], [ 12.26911401244319, 56.124396112407979, 0.0 ], [ 12.268745804872429, 56.125272304481349, 0.0 ], [ 12.266775146458066, 56.125840378141874, 0.0 ], [ 12.263643520847165, 56.125260279002077, 0.0 ], [ 12.26331908462438, 56.12577739321236, 0.0 ], [ 12.263301764999651, 56.125810398733883, 0.0 ], [ 12.262402898469473, 56.127547900404679, 0.0 ], [ 12.139043618366284, 56.199244627467912, 0.0 ], [ 12.133984381244085, 56.196803310271008, 0.0 ], [ 12.096304105766462, 56.218616646090211, 0.0 ], [ 12.101199528552792, 56.221142814949509, 0.0 ], [ 12.025135267509466, 56.264982968016788, 0.0 ], [ 12.025087778795607, 56.265010649580475, 0.0 ], [ 12.024912308657136, 56.265112934009345, 0.0 ], [ 11.988978065683314, 56.285801991857639, 0.0 ], [ 11.903734245962164, 56.317305334483301, 0.0 ], [ 11.9036911310398, 56.31732135175104, 0.0 ], [ 11.90364232625476, 56.317339752842599, 0.0 ], [ 11.792683732844658, 56.359409622759181, 0.0 ], [ 11.792635181016379, 56.359428269429252, 0.0 ], [ 11.792418624296873, 56.359512747077446, 0.0 ], [ 11.792161095804165, 56.35962162819817, 0.0 ], [ 11.791911617744985, 56.359736140411727, 0.0 ], [ 11.791670594664771, 56.359856102777314, 0.0 ], [ 11.791438406188998, 56.359981320277448, 0.0 ], [ 11.79121542908616, 56.360111595925069, 0.0 ], [ 11.791002016980444, 56.360246717858047, 0.0 ], [ 11.790798512608365, 56.360386471774447, 0.0 ], [ 11.790777004106337, 56.360402311164165, 0.0 ], [ 11.75809555248857, 56.383983349892802, 0.0 ], [ 11.757923912292094, 56.384111767214364, 0.0 ], [ 11.757740949114282, 56.384260058861116, 0.0 ], [ 11.757568824112338, 56.384412291572808, 0.0 ], [ 11.757407815638318, 56.384568224802521, 0.0 ], [ 11.757258180165001, 56.384727604996897, 0.0 ], [ 11.757120159376294, 56.384890179534942, 0.0 ], [ 11.756993970787956, 56.38505568626038, 0.0 ], [ 11.75687981907241, 56.385223862259814, 0.0 ], [ 11.756777887606038, 56.385394437055687, 0.0 ], [ 11.756688339224704, 56.385567137157963, 0.0 ], [ 11.756611319436779, 56.385741686252437, 0.0 ], [ 11.756546948216343, 56.385917805620444, 0.0 ], [ 11.756495328377573, 56.386095212827222, 0.0 ], [ 11.756456548617669, 56.386273622801973, 0.0 ], [ 11.756430663209304, 56.386452752054623, 0.0 ], [ 11.75641771958446, 56.386632310378587, 0.0 ], [ 11.756417737932729, 56.386812014077222, 0.0 ], [ 11.756430715528838, 56.386991571793544, 0.0 ], [ 11.756456633652132, 56.387170699340913, 0.0 ], [ 11.756495451931075, 56.387349106749809, 0.0 ], [ 11.756547109174388, 56.387526510937974, 0.0 ], [ 11.756611518812221, 56.387702625526195, 0.0 ], [ 11.756688581658183, 56.387877170602934, 0.0 ], [ 11.756778171197016, 56.388049864648693, 0.0 ], [ 11.756880145079824, 56.388220432423161, 0.0 ], [ 11.756994342759125, 56.388388600319146, 0.0 ], [ 11.757120580155524, 56.388554098754248, 0.0 ], [ 11.757258654308112, 56.388716663345711, 0.0 ], [ 11.757408345320863, 56.38887603322199, 0.0 ], [ 11.757569409762572, 56.389031951537127, 0.0 ], [ 11.757621560560368, 56.389079501300223, 0.0 ], [ 11.76187464120599, 56.392903359010909, 0.0 ], [ 11.761994701421266, 56.393008025135941, 0.0 ], [ 11.76201789869658, 56.393026813257904, 0.0 ], [ 11.775514868771067, 56.38806183073752, 0.0 ], [ 11.774335515423667, 56.387001921613503, 0.0 ], [ 11.796560595038637, 56.37096278382986, 0.0 ], [ 11.804004740306274, 56.377464395621629, 0.0 ], [ 11.804091149978612, 56.377539848453807, 0.0 ], [ 11.817576193347202, 56.372569982839906, 0.0 ], [ 11.808219868408614, 56.364400327184555, 0.0 ], [ 11.912719939699539, 56.324770268027621, 0.0 ], [ 11.998651909998182, 56.293009137396069, 0.0 ], [ 11.998827959732569, 56.292942070419812, 0.0 ], [ 11.999088322418485, 56.292835646093337, 0.0 ], [ 11.999340819428525, 56.292723513396098, 0.0 ], [ 11.999585046516641, 56.292605852212944, 0.0 ], [ 11.999820610811229, 56.292482851187707, 0.0 ], [ 11.999983062686777, 56.292392001268098, 0.0 ], [ 12.013231285496511, 56.284766377481816, 0.0 ], [ 11.981619212525587, 56.341715575767758, 0.0 ], [ 11.97849213719052, 56.347339646501467, 0.0 ], [ 11.976679763668752, 56.350598444715096, 0.0 ], [ 11.976671828942884, 56.350612709158227, 0.0 ], [ 11.910635963599404, 56.468965950025691, 0.0 ], [ 11.90354888107451, 56.471675207984688, 0.0 ], [ 11.902670504100795, 56.482935317093329, 0.0 ], [ 11.922173044262546, 56.475468542345745, 0.0 ], [ 11.922222493348611, 56.475449452158621, 0.0 ], [ 11.92248430861463, 56.475343176881466, 0.0 ], [ 11.9227382294791, 56.475231188343471, 0.0 ], [ 11.922983849169263, 56.475113667011271, 0.0 ], [ 11.923220776043101, 56.474990799627591, 0.0 ], [ 11.923448627587856, 56.474862785176818, 0.0 ], [ 11.923667041589981, 56.474729827411892, 0.0 ], [ 11.923875665465705, 56.474592139651151, 0.0 ], [ 11.924074169819731, 56.474449941948862, 0.0 ], [ 11.924262231996988, 56.47430346195555, 0.0 ], [ 11.924439553974967, 56.474152935041069, 0.0 ], [ 11.924605849805385, 56.473998601772038, 0.0 ], [ 11.924760855115339, 56.473840709357205, 0.0 ], [ 11.92490432049436, 56.473679512169582, 0.0 ], [ 11.925036017495001, 56.473515265780129, 0.0 ], [ 11.925155733908539, 56.473348234799438, 0.0 ], [ 11.925263278154077, 56.473178686819054, 0.0 ], [ 11.925306156044819, 56.473104323409331, 0.0 ], [ 11.99394576956316, 56.349988481559954, 0.0 ], [ 11.995763726456145, 56.346716683288882, 0.0 ] ] ] ] } }
]
}
