{
"type": "FeatureCollection",
"name": "21001",
"crs": { "type": "name", "properties": { "name": "urn:ogc:def:crs:OGC:1.3:CRS84" } },
"features": [
{ "type": "Feature", "properties": { "area_km2": 181.925999687, "PROJECT_NO": 21001.0, "NAME": "Baltica I [PGE EW]", "TYPE": "OWF", "NO": 0, "status": "COMPLETED", "geotechnic": "x", "ORIG_FID": 10, "Shape_Leng": 68574.814459500005, "Shape_Area": 181925999.68700001 }, "geometry": { "type": "MultiPolygon", "coordinates": [ [ [ [ 17.441303071694207, 55.544848169257129, 0.0 ], [ 17.507253727751785, 55.569331724091192, 0.0 ], [ 17.508017150502642, 55.569605347495255, 0.0 ], [ 17.53309528771883, 55.578286179938836, 0.0 ], [ 17.517563223849738, 55.58785354660062, 0.0 ], [ 17.471741354115029, 55.600642190034641, 0.0 ], [ 17.464296157490068, 55.603606902228009, 0.0 ], [ 17.458808425359553, 55.607718542228483, 0.0 ], [ 17.455804497715871, 55.612583251344809, 0.0 ], [ 17.455573156212239, 55.617734882638828, 0.0 ], [ 17.458137635751399, 55.622679617906861, 0.0 ], [ 17.463253002164706, 55.626943292211671, 0.0 ], [ 17.470429293537059, 55.630116909197099, 0.0 ], [ 17.495549394761824, 55.638024325608427, 0.0 ], [ 17.514106305664665, 55.643870018401159, 0.0 ], [ 17.522299873903791, 55.645607652166646, 0.0 ], [ 17.531034976400971, 55.645905444668905, 0.0 ], [ 17.539538455260686, 55.644737031477781, 0.0 ], [ 17.547057724614216, 55.64220582388819, 0.0 ], [ 17.549661428168182, 55.640999834993423, 0.0 ], [ 17.550275908634884, 55.640875445009534, 0.0 ], [ 17.550928560741273, 55.640874999316608, 0.0 ], [ 17.553959295827998, 55.641483812689941, 0.0 ], [ 17.60964870739733, 55.659185099726969, 0.0 ], [ 17.617801857032962, 55.660935747212818, 0.0 ], [ 17.626504820004801, 55.661258777817956, 0.0 ], [ 17.634993043314562, 55.66012580747396, 0.0 ], [ 17.642520903910125, 55.657636361220952, 0.0 ], [ 17.648427417427119, 55.654009096898342, 0.0 ], [ 17.652194393890564, 55.649562545430243, 0.0 ], [ 17.653491888666508, 55.644687068209912, 0.0 ], [ 17.652206945945096, 55.639810538841573, 0.0 ], [ 17.648453204821028, 55.6353607660511, 0.0 ], [ 17.645328494470817, 55.632742451341286, 0.0 ], [ 17.644711196040664, 55.632244977086444, 0.0 ], [ 17.605654841008786, 55.601931269544963, 0.0 ], [ 17.591844785277253, 55.587578846782542, 0.0 ], [ 17.590390917251682, 55.582677595791296, 0.0 ], [ 17.587403304853542, 55.577669702195699, 0.0 ], [ 17.586587777572902, 55.577055367474998, 0.0 ], [ 17.58994741914734, 55.572457039756927, 0.0 ], [ 17.59562738463168, 55.55904309511341, 0.0 ], [ 17.595904537826982, 55.558317307222495, 0.0 ], [ 17.603525181131708, 55.53594594560726, 0.0 ], [ 17.604015493464551, 55.533679085452675, 0.0 ], [ 17.605029500003031, 55.522915469605508, 0.0 ], [ 17.604893520034448, 55.520197926615616, 0.0 ], [ 17.603514842339813, 55.513123531848422, 0.0 ], [ 17.601047788454004, 55.50804532912467, 0.0 ], [ 17.595908961660687, 55.503658753105952, 0.0 ], [ 17.58861348453468, 55.500402852863125, 0.0 ], [ 17.548769030001992, 55.487816768696646, 0.0 ], [ 17.540239412418284, 55.486035384068707, 0.0 ], [ 17.5228587142437, 55.484065657128241, 0.0 ], [ 17.512336448748261, 55.478324388927611, 0.0 ], [ 17.506350421826767, 55.475803455908476, 0.0 ], [ 17.499439051737856, 55.474221175941132, 0.0 ], [ 17.447980421925767, 55.466567577460822, 0.0 ], [ 17.442916297063135, 55.466077562855091, 0.0 ], [ 17.434132623979675, 55.465672376925269, 0.0 ], [ 17.42529734376723, 55.466027344747012, 0.0 ], [ 17.417051947467765, 55.467865611899008, 0.0 ], [ 17.410149348658763, 55.471019341452887, 0.0 ], [ 17.405220226877042, 55.475200549357119, 0.0 ], [ 17.402715474573871, 55.480027327839423, 0.0 ], [ 17.402864846817497, 55.485058658855884, 0.0 ], [ 17.416713011101159, 55.531202686150735, 0.0 ], [ 17.419662621704443, 55.536146883200423, 0.0 ], [ 17.425168273223129, 55.540329683866624, 0.0 ], [ 17.43268886436616, 55.543339457841924, 0.0 ], [ 17.441303071694207, 55.544848169257129, 0.0 ] ] ] ] } },
{ "type": "Feature", "properties": { "area_km2": 100.52938459799999, "PROJECT_NO": 21001.0, "NAME": "Baltica 1", "TYPE": "CON", "NO": 18, "status": "COMPLETED", "geotechnic": "x", "ORIG_FID": 11, "Shape_Leng": 220145.25389200001, "Shape_Area": 100529384.598 }, "geometry": { "type": "MultiPolygon", "coordinates": [ [ [ [ 17.68978673323948, 54.879522921332118, 0.0 ], [ 17.700082667269989, 54.878577539712502, 0.0 ], [ 17.808198208478064, 54.880989503244713, 0.0 ], [ 17.821314072023444, 54.883030019125307, 0.0 ], [ 17.844877724284256, 54.883183952983735, 0.0 ], [ 17.862670870023042, 54.87535950017412, 0.0 ], [ 17.864108521923253, 54.874535992978608, 0.0 ], [ 17.865129485305406, 54.873526620819675, 0.0 ], [ 17.865662578114755, 54.872407592960862, 0.0 ], [ 17.876083839325489, 54.829292875571397, 0.0 ], [ 17.88450330493065, 54.821486825535075, 0.0 ], [ 17.88306961573025, 54.821179655837831, 0.0 ], [ 17.881763663844641, 54.820849404491511, 0.0 ], [ 17.880577273838131, 54.820553574638986, 0.0 ], [ 17.879271168011012, 54.820184396157778, 0.0 ], [ 17.877923201097179, 54.819929166193646, 0.0 ], [ 17.876332618916447, 54.819651035391615, 0.0 ], [ 17.874749964589981, 54.819482134912008, 0.0 ], [ 17.873570447582505, 54.819206906604684, 0.0 ], [ 17.872181011087463, 54.819000979965182, 0.0 ], [ 17.871325393149188, 54.81888589251178, 0.0 ], [ 17.870535473858386, 54.818806444286743, 0.0 ], [ 17.868646958216136, 54.82810275624788, 0.0 ], [ 17.859827419380739, 54.868273982454781, 0.0 ], [ 17.859405763527565, 54.869326724095536, 0.0 ], [ 17.858160208757155, 54.870494799732448, 0.0 ], [ 17.855433816924357, 54.871810661222177, 0.0 ], [ 17.847941067919873, 54.874851492360044, 0.0 ], [ 17.842064621047566, 54.87632815530953, 0.0 ], [ 17.828515100375597, 54.876034967594755, 0.0 ], [ 17.706213052200358, 54.873319560135307, 0.0 ], [ 17.693842729895394, 54.873038072763556, 0.0 ], [ 17.684309077152001, 54.874913355245084, 0.0 ], [ 17.676643626625051, 54.876360567165918, 0.0 ], [ 17.674997898865808, 54.876763667675533, 0.0 ], [ 17.585800315540336, 54.898566097809137, 0.0 ], [ 17.573811800289139, 54.958612015062613, 0.0 ], [ 17.571817416521693, 54.961376807943573, 0.0 ], [ 17.557161559330705, 54.965874301448821, 0.0 ], [ 17.555107395719084, 54.966784597056218, 0.0 ], [ 17.553838980049736, 54.9678412891422, 0.0 ], [ 17.553184204081553, 54.968933389316625, 0.0 ], [ 17.551635586175895, 54.973255295776944, 0.0 ], [ 17.546702001484888, 54.98724283159256, 0.0 ], [ 17.544289380710087, 54.995772660039592, 0.0 ], [ 17.535867330776394, 55.037074059714648, 0.0 ], [ 17.541912789492699, 55.04373016980535, 0.0 ], [ 17.551681299745962, 55.074492526113808, 0.0 ], [ 17.562192210286643, 55.107149450154914, 0.0 ], [ 17.610170341318437, 55.473651705836289, 0.0 ], [ 17.586062095564785, 55.497494769756429, 0.0 ], [ 17.562056875482245, 55.561767794771981, 0.0 ], [ 17.578241187572662, 55.608110831627265, 0.0 ], [ 17.620190333664297, 55.64329226757301, 0.0 ], [ 17.634383853134914, 55.637836279522816, 0.0 ], [ 17.594490836071248, 55.604449443690278, 0.0 ], [ 17.579528906638437, 55.562158531861193, 0.0 ], [ 17.60219366373909, 55.501105637235952, 0.0 ], [ 17.626786984184779, 55.47770879211663, 0.0 ], [ 17.627630143731761, 55.476597623506763, 0.0 ], [ 17.627898293385936, 55.475052526655311, 0.0 ], [ 17.579430074552786, 55.107302966928238, 0.0 ], [ 17.559701714205197, 55.059862175148076, 0.0 ], [ 17.551323996027431, 55.042527752150463, 0.0 ], [ 17.551746749865313, 55.034893510348589, 0.0 ], [ 17.561570100743033, 54.989306229808314, 0.0 ], [ 17.564175969408364, 54.977635029883594, 0.0 ], [ 17.562368371403252, 54.974961484421449, 0.0 ], [ 17.566151499231818, 54.969228843615731, 0.0 ], [ 17.580170746999734, 54.964925133802666, 0.0 ], [ 17.582225624784201, 54.964294100930459, 0.0 ], [ 17.593979814693007, 54.905131321098402, 0.0 ], [ 17.605121517378947, 54.899409431852867, 0.0 ], [ 17.68978673323948, 54.879522921332118, 0.0 ] ] ] ] } }
]
}
