{
"type": "FeatureCollection",
"name": "21028_1",
"crs": { "type": "name", "properties": { "name": "urn:ogc:def:crs:OGC:1.3:CRS84" } },
"features": [
{ "type": "Feature", "properties": { "AREA": 7882.2323344599999, "Shape_Leng": 930593.69203100004, "Shape_Area": 7882232334.460001 }, "geometry": { "type": "Polygon", "coordinates": [ [ [ 16.000000032846405, 54.833333229966051 ], [ 16.000000033481026, 54.666666566903253 ], [ 16.250000032363875, 54.666666567789022 ], [ 16.250000607834895, 54.657959695442514 ], [ 16.146166702934842, 54.590000005968889 ], [ 16.250002503353453, 54.551317706881591 ], [ 16.249918207224191, 54.411457757595748 ], [ 16.305346032885645, 54.433934309175307 ], [ 16.329219144483005, 54.421244865117252 ], [ 16.276534950116872, 54.384094586502194 ], [ 16.260781950640435, 54.383953835840941 ], [ 16.251724243444073, 54.387701502878564 ], [ 16.250346648586177, 54.388271367887533 ], [ 16.249895862729797, 54.388252052738849 ], [ 16.249861370989859, 54.353262804354834 ], [ 16.248479527545921, 54.348599681570512 ], [ 16.219434552253922, 54.333361055704316 ], [ 16.225540783924362, 54.333356117515322 ], [ 16.225209424660743, 54.333137994019964 ], [ 16.223701462468096, 54.332221939771443 ], [ 16.222257511788062, 54.331271330445773 ], [ 16.220749683439855, 54.330355240620484 ], [ 16.219305864467234, 54.329404598135163 ], [ 16.217798171544167, 54.328488471878124 ], [ 16.216354485919851, 54.327537794480044 ], [ 16.214846926808626, 54.326621632661343 ], [ 16.213403375869973, 54.325670923087259 ], [ 16.211895949017968, 54.324754725678915 ], [ 16.210452531454763, 54.32380398030898 ], [ 16.20894523832122, 54.322887748251901 ], [ 16.207501952459097, 54.321936968853841 ], [ 16.205994794624559, 54.321020701293214 ], [ 16.204551641982871, 54.320069887909945 ], [ 16.203044617955815, 54.319153583919793 ], [ 16.201601598456804, 54.318202737456659 ], [ 16.199599926996981, 54.317770962394491 ], [ 16.196529731125935, 54.316189268130678 ], [ 16.195702312061602, 54.314468228979571 ], [ 16.19506952307885, 54.3144014886417 ], [ 16.19311830969659, 54.311030205306217 ], [ 16.18913216252491, 54.308990870908048 ], [ 16.185908503893522, 54.308269157485995 ], [ 16.180809610199265, 54.304900813789359 ], [ 16.179117323668404, 54.304102182146877 ], [ 16.177481057387812, 54.303264629832391 ], [ 16.17272720850373, 54.302619243770309 ], [ 16.168029474398281, 54.301934780576595 ], [ 16.166832682706115, 54.301826393601104 ], [ 16.165851612185875, 54.30117901393325 ], [ 16.161275706570176, 54.300189968410081 ], [ 16.159834316660863, 54.299238638306868 ], [ 16.155258777214403, 54.298249368444452 ], [ 16.153817594933834, 54.297297968636855 ], [ 16.152312535631292, 54.296381051397837 ], [ 16.150871486279655, 54.295429618625931 ], [ 16.145509957646833, 54.294861737401185 ], [ 16.14485223820143, 54.294522868425261 ], [ 16.13907999653004, 54.29358332408863 ], [ 16.138716009266851, 54.293342904400895 ], [ 16.137211432096315, 54.292425804810478 ], [ 16.135770872610056, 54.291474196015258 ], [ 16.13426643046315, 54.29055706108533 ], [ 16.132826003848056, 54.289605419363767 ], [ 16.131357189606128, 54.288709889366736 ], [ 16.130667032723675, 54.288152705794232 ], [ 16.130302371392219, 54.288014733707186 ], [ 16.129881403134778, 54.287736571767802 ], [ 16.129146837788582, 54.287577518295507 ], [ 16.122940581357366, 54.285228932021141 ], [ 16.122363832076548, 54.284877163249966 ], [ 16.120923880385238, 54.283925383458126 ], [ 16.118940034107226, 54.283714727447347 ], [ 16.117010797663131, 54.28298442603549 ], [ 16.106531615359817, 54.280429999792048 ], [ 16.105830444349813, 54.279966290076928 ], [ 16.103250757362051, 54.279407007354763 ], [ 16.089811527377424, 54.273371649183439 ], [ 16.086592447745108, 54.272647311590561 ], [ 16.080725081789431, 54.271231415525307 ], [ 16.071882881896251, 54.2711620064999 ], [ 16.071082020447232, 54.271050128567879 ], [ 16.069643743291962, 54.270097755993127 ], [ 16.065073699100793, 54.269105125438486 ], [ 16.063635630940947, 54.268152682612595 ], [ 16.052930587199203, 54.267009903571825 ], [ 16.051492875796743, 54.266057319990672 ], [ 16.043856235640412, 54.264988781622499 ], [ 16.042418806312327, 54.26403609302907 ], [ 16.034782794400865, 54.262966986912801 ], [ 16.032597734677239, 54.261518402646971 ], [ 16.03087281016489, 54.262484586369858 ], [ 16.029255340649708, 54.262069966530952 ], [ 16.028367114610482, 54.261987540202178 ], [ 16.02444460215013, 54.258772791432541 ], [ 16.008928644196732, 54.257512106856687 ], [ 16.001123937407392, 54.257009191496273 ], [ 16.0000031755165, 54.256737717448537 ], [ 16.000000032650505, 54.333333241254593 ], [ 15.501221264943114, 54.333334500741636 ], [ 15.500000477674899, 54.171833250442447 ], [ 15.483934499556842, 54.169504401041834 ], [ 15.442952220371, 54.169154119408127 ], [ 15.427099652603934, 54.168526869536791 ], [ 15.393178500684316, 54.162364305105342 ], [ 15.35245739402283, 54.159209441733097 ], [ 15.294137830337423, 54.151346617580572 ], [ 15.284758502701521, 54.15083229202682 ], [ 15.250068577076901, 54.139679456915488 ], [ 15.155138336043974, 54.119083974611669 ], [ 15.13553518056257, 54.115184517684895 ], [ 15.135373810256686, 54.115105671617854 ], [ 15.121414381598727, 54.107708874158817 ], [ 15.115936926922114, 54.106856782691665 ], [ 15.106494491387938, 54.107363331801544 ], [ 15.104493008082917, 54.106908683647674 ], [ 15.103083079900411, 54.105945261910996 ], [ 15.09930454827283, 54.105086760302996 ], [ 15.098554781403635, 54.104700474286467 ], [ 15.098230039339109, 54.104693858608542 ], [ 15.0971463554524, 54.103953197834244 ], [ 15.083462374914301, 54.102626284378779 ], [ 15.082053089274096, 54.101662626220843 ], [ 15.074558969996577, 54.100546131312875 ], [ 15.074489636854018, 54.100510410673223 ], [ 15.074434378585144, 54.100505908993661 ], [ 15.073065857262252, 54.099569839277073 ], [ 15.059949562392728, 54.098449363576947 ], [ 15.05990630288929, 54.09842707800933 ], [ 15.056156454287841, 54.098019799621618 ], [ 15.054923724098609, 54.097176124229911 ], [ 15.044295337022843, 54.095944975977524 ], [ 15.042887201269508, 54.094980877195269 ], [ 15.041414615541903, 54.094050662034853 ], [ 15.040070137119402, 54.093130033111493 ], [ 15.039197965734834, 54.092222218157431 ], [ 15.035919945149374, 54.092155282304624 ], [ 15.035482676451061, 54.092055628018514 ], [ 15.034074879287312, 54.09109143312773 ], [ 15.027843481393116, 54.090160240643307 ], [ 15.023272407285878, 54.088152528516488 ], [ 15.017023266382314, 54.087523328765435 ], [ 15.016111074528842, 54.086898182451208 ], [ 15.008537527207979, 54.085765071768307 ], [ 15.007130577772941, 54.08480057318166 ], [ 15.001916089744928, 54.084020019387182 ], [ 15.001291793344045, 54.083713565056151 ], [ 15.000004248900511, 54.083028388990762 ], [ 14.991836415696568, 54.078680983953369 ], [ 14.990019810385183, 54.078732800595184 ], [ 14.98389971790562, 54.079055066567093 ], [ 14.983244979018453, 54.078605848306523 ], [ 14.978579590550936, 54.077906421072875 ], [ 14.974584892844897, 54.076723303308469 ], [ 14.974268036105679, 54.07650584047218 ], [ 14.972440436293198, 54.076088093636649 ], [ 14.971786571223014, 54.075894401639907 ], [ 14.968540696642757, 54.074644017924157 ], [ 14.968341956573861, 54.074507588710567 ], [ 14.968087442193388, 54.07446940070038 ], [ 14.959623436934857, 54.071208059681325 ], [ 14.947482285725643, 54.069299557532879 ], [ 14.947406302861506, 54.069260410650379 ], [ 14.945378057806597, 54.068930320448068 ], [ 14.944468378137531, 54.068305351447471 ], [ 14.937072591238131, 54.067578227689005 ], [ 14.935275247385855, 54.067285541638142 ], [ 14.92553130238945, 54.065093743603647 ], [ 14.924857218451892, 54.064945805319454 ], [ 14.923475043947411, 54.06399556916918 ], [ 14.918957360442455, 54.062960383115332 ], [ 14.9175532899954, 54.061994883678928 ], [ 14.909987256801239, 54.060855685170218 ], [ 14.908583467139639, 54.059890086436312 ], [ 14.904164104835498, 54.05937229918819 ], [ 14.903656302784762, 54.058843742922228 ], [ 14.896583509208531, 54.057692448826529 ], [ 14.896566146789734, 54.057680501304517 ], [ 14.89636594252368, 54.057657025707861 ], [ 14.893256865445803, 54.057150780914462 ], [ 14.889071761683963, 54.05571836184685 ], [ 14.885031116556988, 54.05580086945951 ], [ 14.883819978154204, 54.054967141858555 ], [ 14.883609084868631, 54.055082084898636 ], [ 14.8827824706797, 54.054656223435373 ], [ 14.881362965606339, 54.054685207849722 ], [ 14.868607747275176, 54.054966642079016 ], [ 14.840696180576778, 54.04963905002684 ], [ 14.832432343455226, 54.047417929425137 ], [ 14.781340684135733, 54.037085279998806 ], [ 14.762129754773875, 54.032913400414472 ], [ 14.757253189477051, 54.031197329758598 ], [ 14.750002707385004, 54.030468342815254 ], [ 14.741861357529727, 54.029816083596486 ], [ 14.739734647049396, 54.028345178016096 ], [ 14.737323183473759, 54.029654999991514 ], [ 14.733701671941805, 54.029765685079255 ], [ 14.732802115962313, 54.029697929197489 ], [ 14.731720776371493, 54.028572466351712 ], [ 14.726838877123543, 54.028672148171189 ], [ 14.724514990925705, 54.027424117309167 ], [ 14.722471762282838, 54.026630132615637 ], [ 14.722373035646383, 54.02640559709404 ], [ 14.72091018259195, 54.02547162901174 ], [ 14.719512053637622, 54.02450392081559 ], [ 14.718049332767027, 54.023569920156511 ], [ 14.716651333662288, 54.022602180854548 ], [ 14.71214366603232, 54.021559391454176 ], [ 14.710745874539823, 54.020591587023581 ], [ 14.706238580475224, 54.01954858237422 ], [ 14.704840993531667, 54.018580712726823 ], [ 14.700334076091361, 54.017537492982036 ], [ 14.698936695200956, 54.016569558192991 ], [ 14.697474718961333, 54.015635319827773 ], [ 14.696077467749319, 54.014667354873573 ], [ 14.69555806925338, 54.014547085819515 ], [ 14.695049010833916, 54.014201992353208 ], [ 14.691368987667191, 54.013483699880602 ], [ 14.690174161305663, 54.012655785789349 ], [ 14.683013943280326, 54.011562071103924 ], [ 14.681661394346921, 54.010865276647927 ], [ 14.678832031882417, 54.010923066169603 ], [ 14.67725690186122, 54.010682341281537 ], [ 14.673608886063047, 54.006885403019993 ], [ 14.661391918058653, 54.005845368906826 ], [ 14.660551053574027, 54.005392715866272 ], [ 14.660539792642854, 54.005389824983666 ], [ 14.660386058408626, 54.005283189823302 ], [ 14.659738668895237, 54.005184138308053 ], [ 14.653954044919963, 54.00369872921852 ], [ 14.652384478097947, 54.003579307087492 ], [ 14.651864553201543, 54.003452570764523 ], [ 14.651442388048432, 54.003159653770375 ], [ 14.650112204722756, 54.003025400687555 ], [ 14.648427115823687, 54.002614595297736 ], [ 14.64532296904871, 54.001552074486121 ], [ 14.635927117031862, 54.000531261321797 ], [ 14.634563880752573, 54.000064654921303 ], [ 14.632822969719772, 53.9994687410395 ], [ 14.632408221557466, 53.999387795951534 ], [ 14.626140363302081, 53.996010127962727 ], [ 14.622478859624762, 53.997302492458552 ], [ 14.62157413928783, 53.996674132273313 ], [ 14.621226703172617, 53.996620844801171 ], [ 14.619250212816803, 53.995281093605847 ], [ 14.615173955920596, 53.995364254113589 ], [ 14.612990803021003, 53.994239554017355 ], [ 14.610903815504017, 53.994282183537607 ], [ 14.605089997602162, 53.993389754989082 ], [ 14.603695671711973, 53.992420767856188 ], [ 14.597982707032839, 53.99173535825426 ], [ 14.597406303005034, 53.991135407470168 ], [ 14.593611472105993, 53.99021033110472 ], [ 14.592529257351044, 53.9877855464036 ], [ 14.588036218737228, 53.988646370680378 ], [ 14.584885448762236, 53.98803126079671 ], [ 14.579697970018159, 53.986968741094408 ], [ 14.574540043402566, 53.986408456245769 ], [ 14.573843133102335, 53.985923645162664 ], [ 14.569343263235995, 53.984875634574522 ], [ 14.56795006754237, 53.983906252779398 ], [ 14.560408940981276, 53.982745483159682 ], [ 14.559016026008118, 53.981776001833587 ], [ 14.558770325058481, 53.981618247966317 ], [ 14.557294493323051, 53.978304280643876 ], [ 14.551675884364091, 53.976948458277377 ], [ 14.549538142596582, 53.975793159691683 ], [ 14.546314072670528, 53.976929006510161 ], [ 14.545775986984271, 53.976803530624878 ], [ 14.54438361276129, 53.97583389012955 ], [ 14.536844675946668, 53.974671680146393 ], [ 14.535452583803018, 53.973701941188686 ], [ 14.527914310199602, 53.972539181050777 ], [ 14.526522501646223, 53.971569343727822 ], [ 14.515944349929901, 53.970292382955108 ], [ 14.514552899930953, 53.969322412527497 ], [ 14.504127622875167, 53.968380080897127 ], [ 14.50365630272214, 53.968218739772205 ], [ 14.500003024736163, 53.967328067005681 ], [ 14.499352465416552, 53.96716944390576 ], [ 14.492229217726043, 53.96349995984022 ], [ 14.489422962471622, 53.962138741671161 ], [ 14.489356289990038, 53.962095830477637 ], [ 14.487965691698641, 53.961125567453699 ], [ 14.486510513550421, 53.960188888393589 ], [ 14.485120044526353, 53.959218593831103 ], [ 14.483664996378707, 53.958281882618643 ], [ 14.482274656410699, 53.957311558317237 ], [ 14.480819738343929, 53.956374814063274 ], [ 14.47942952760893, 53.955404458237496 ], [ 14.477974739509234, 53.954467681845529 ], [ 14.476584657795758, 53.953497296294977 ], [ 14.47512999964632, 53.952560487772189 ], [ 14.473740047034264, 53.951590071607619 ], [ 14.47228551872101, 53.950653231857473 ], [ 14.470895695290428, 53.949682784189683 ], [ 14.469441296893796, 53.948745912323126 ], [ 14.468051603952228, 53.947775435009142 ], [ 14.465058317181704, 53.947074686862329 ], [ 14.461968781921735, 53.945322927035328 ], [ 14.456981097128221, 53.941538238692701 ], [ 14.454772123831971, 53.940821476847802 ], [ 14.453639742487884, 53.940030223360345 ], [ 14.452186067730571, 53.93909315471145 ], [ 14.450797094819638, 53.938122489824181 ], [ 14.446305717718156, 53.937070024623708 ], [ 14.444916950047354, 53.936099296362734 ], [ 14.440425948870017, 53.935046617038978 ], [ 14.43903738651829, 53.934075824528648 ], [ 14.437584249570639, 53.933138588914346 ], [ 14.436195816236015, 53.932167764980015 ], [ 14.43170547115367, 53.931114772251711 ], [ 14.43031724300077, 53.930143884997136 ], [ 14.429873934270585, 53.930039907716385 ], [ 14.429687542585615, 53.929655710493229 ], [ 14.42835196384015, 53.929682918431375 ], [ 14.425854483643633, 53.929097061522853 ], [ 14.424815392112038, 53.927786431559852 ], [ 14.415746354693832, 53.924619102400463 ], [ 14.403332818662296, 53.921394958728342 ], [ 14.392998440454779, 53.919713872269071 ], [ 14.391682745859145, 53.919653168979977 ], [ 14.381263795271884, 53.918381902695117 ], [ 14.379877180523176, 53.917410461497049 ], [ 14.363246054173509, 53.915886139419548 ], [ 14.361859950200209, 53.914914500636684 ], [ 14.360252917943841, 53.914735776113616 ], [ 14.358966328616779, 53.914072925210924 ], [ 14.35594660394297, 53.914256741270385 ], [ 14.34969544399066, 53.913561067918522 ], [ 14.347444446500571, 53.914773862120562 ], [ 14.338540849532849, 53.915314737374018 ], [ 14.337573834042439, 53.915628585202271 ], [ 14.335825488476869, 53.915703936906802 ], [ 14.334235813757099, 53.916560058059432 ], [ 14.326517631855404, 53.917141260211345 ], [ 14.32492771723604, 53.917997251773492 ], [ 14.320245111140229, 53.918696450264179 ], [ 14.318655011750693, 53.919552354562668 ], [ 14.317008183474504, 53.920369987838924 ], [ 14.315417954499955, 53.921225846330842 ], [ 14.31480634828524, 53.921529467198354 ], [ 14.308887904717748, 53.922355396684168 ], [ 14.30720754031349, 53.923494546621491 ], [ 14.303991040870077, 53.923842118123702 ], [ 14.303607719343844, 53.925539268797664 ], [ 14.300632995341497, 53.928635405850699 ], [ 14.298631424533349, 53.925089517183288 ], [ 14.304677114317164, 53.920607756686728 ], [ 14.303405962972127, 53.918930052468163 ], [ 14.292177114537511, 53.920302072777439 ], [ 14.290256574713261, 53.922300973730557 ], [ 14.284912628194146, 53.926262409520014 ], [ 14.284842532301058, 53.929697417738424 ], [ 14.286989636361046, 53.931760405568447 ], [ 14.288091002348802, 53.932906848748992 ], [ 14.294260449226302, 53.932780710021156 ], [ 14.293708398027041, 53.933366831676835 ], [ 14.291103451048945, 53.933754933256644 ], [ 14.290126238080555, 53.934280315267365 ], [ 14.288493051263154, 53.93465752234949 ], [ 14.286398545860978, 53.936107790444218 ], [ 14.284489330567343, 53.936548663224919 ], [ 14.281790883940658, 53.936950438528548 ], [ 14.27875570696974, 53.934112548943013 ], [ 14.276614612588068, 53.929699197509052 ], [ 14.275520873955717, 53.929676818109179 ], [ 14.274479208208032, 53.929698180577866 ], [ 14.27206735354882, 53.929648956791958 ], [ 14.271927360987767, 53.927556778890164 ], [ 14.267232657392404, 53.927777281222454 ], [ 14.265711039275939, 53.927811810316804 ], [ 14.262811754304586, 53.927947868897327 ], [ 14.25952780113693, 53.927145202925715 ], [ 14.251153885743166, 53.923836230013478 ], [ 14.25000499311788, 53.924447096224561 ], [ 14.250000035176672, 53.999999912630777 ], [ 14.250004049332089, 54.046340911945514 ], [ 14.250003448644316, 54.13033594737535 ], [ 14.26429000686719, 54.135611548455145 ], [ 14.265059240323639, 54.13614962600645 ], [ 14.266954678312532, 54.136595200844042 ], [ 14.270278185279182, 54.13782191405808 ], [ 14.270307836589099, 54.13826183861908 ], [ 14.272291962731806, 54.138565124291127 ], [ 14.302563053528438, 54.149729897543281 ], [ 14.303309220457841, 54.150251092873944 ], [ 14.303476098874276, 54.150290249905041 ], [ 14.303768927027116, 54.150596148885462 ], [ 14.305721078226055, 54.150893886728895 ], [ 14.308515912322418, 54.151923888286611 ], [ 14.308536775641196, 54.152229108912863 ], [ 14.309825291145824, 54.152425573055545 ], [ 14.309968419479455, 54.152459147020522 ], [ 14.31430628463499, 54.154057494849226 ], [ 14.314926865839091, 54.1547054766285 ], [ 14.316868034436359, 54.155001278317521 ], [ 14.317681036557477, 54.155300779490247 ], [ 14.34080203574494, 54.163893528527019 ], [ 14.341436560656152, 54.164236867993701 ], [ 14.341585683261107, 54.16434088016328 ], [ 14.34166168452411, 54.164358680396923 ], [ 14.342020656856445, 54.164552913151553 ], [ 14.342963210192023, 54.16469631033867 ], [ 14.346786931872575, 54.166116485004288 ], [ 14.346791637503797, 54.166184376657853 ], [ 14.347303521609847, 54.166308337153993 ], [ 14.348103660575454, 54.166605484905155 ], [ 14.348435321888983, 54.166728651285801 ], [ 14.350493473065068, 54.167492934141052 ], [ 14.352649590872764, 54.169372836895697 ], [ 14.353373354030877, 54.170452170152188 ], [ 14.35440812262288, 54.170968448949253 ], [ 14.354657244604052, 54.171128650465718 ], [ 14.354688949034715, 54.171150752503017 ], [ 14.361159605198759, 54.17679067337945 ], [ 14.361557849133909, 54.177712956185189 ], [ 14.362759393009565, 54.178485333891402 ], [ 14.366265666189246, 54.181239896971555 ], [ 14.372613490168126, 54.186769554668146 ], [ 14.372775733917541, 54.187144962448819 ], [ 14.373800402020565, 54.187803290923746 ], [ 14.374638110774525, 54.188532854239888 ], [ 14.375250098232527, 54.189444205681284 ], [ 14.376266242350344, 54.189950709284872 ], [ 14.380383364393658, 54.1935355772195 ], [ 14.380464543336094, 54.194692096825605 ], [ 14.382117521621099, 54.195515772371465 ], [ 14.383541013913664, 54.196284509832438 ], [ 14.391649703631712, 54.203341637654169 ], [ 14.39220983329033, 54.204174887747634 ], [ 14.393139260523496, 54.204637711435836 ], [ 14.39997635574143, 54.210585471050699 ], [ 14.400710464262074, 54.211972082882255 ], [ 14.402363891122368, 54.212795066042986 ], [ 14.402767034117938, 54.213012563733216 ], [ 14.408574528886815, 54.218062337410878 ], [ 14.40879720059986, 54.218393227190894 ], [ 14.409119376006196, 54.219136590015083 ], [ 14.410581520032517, 54.220074326952684 ], [ 14.411978607982617, 54.221045596590095 ], [ 14.412083913788571, 54.221113126689694 ], [ 14.412415901807618, 54.22140170347123 ], [ 14.412464771881918, 54.22145248234208 ], [ 14.412487097746162, 54.221463589755864 ], [ 14.414165429651726, 54.222922383992241 ], [ 14.414184491423679, 54.223190598975528 ], [ 14.414861581576504, 54.223527437520794 ], [ 14.420178252806847, 54.22814767464385 ], [ 14.420359084108895, 54.228564546927721 ], [ 14.421499065469344, 54.229295281660534 ], [ 14.422610247884416, 54.230260689111837 ], [ 14.422655632042881, 54.230897056734804 ], [ 14.424465411749898, 54.231872357014502 ], [ 14.428397401513939, 54.235287762463436 ], [ 14.428742568292904, 54.236082966727849 ], [ 14.429804250554236, 54.236763234075845 ], [ 14.430283047893472, 54.237473752568263 ], [ 14.431759409932315, 54.238207538407785 ], [ 14.439508973817535, 54.244935854956196 ], [ 14.439559995009095, 54.245646912432903 ], [ 14.441281191716865, 54.246501940018184 ], [ 14.441365498573585, 54.246547336136231 ], [ 14.447996361704307, 54.252301761207157 ], [ 14.448072974791884, 54.253366015342451 ], [ 14.451102460154933, 54.254996650767737 ], [ 14.456337885452781, 54.25953801725732 ], [ 14.456467678073617, 54.259836391802352 ], [ 14.456503850109911, 54.260337370998812 ], [ 14.456735657850496, 54.260452428614478 ], [ 14.456775086381073, 54.260543063837467 ], [ 14.458239760690216, 54.261480267447546 ], [ 14.459639350739701, 54.262451027981562 ], [ 14.459858537027095, 54.262591265986231 ], [ 14.467837115221268, 54.269508606382288 ], [ 14.46803666537655, 54.269966952231663 ], [ 14.469292338234119, 54.270769971628575 ], [ 14.476072548774869, 54.276645732901031 ], [ 14.476437022598901, 54.277482344129069 ], [ 14.477902785257637, 54.278419327746263 ], [ 14.478568645830583, 54.278880754391494 ], [ 14.478604533854012, 54.279373881201877 ], [ 14.480047204268462, 54.280089256194806 ], [ 14.487031084591491, 54.286138217357568 ], [ 14.487104891011576, 54.287149001681072 ], [ 14.488796278602432, 54.287987174399611 ], [ 14.489771043901934, 54.288510804576624 ], [ 14.495535723661291, 54.293501491502759 ], [ 14.495635694645067, 54.294866271999254 ], [ 14.498934194521008, 54.296637326726625 ], [ 14.499459245963173, 54.296897397264331 ], [ 14.500003245464915, 54.29736818973435 ], [ 14.504009910372474, 54.300835272038618 ], [ 14.50408319538999, 54.301832763692261 ], [ 14.50535845316379, 54.302464190822143 ], [ 14.505992523717884, 54.302868961731427 ], [ 14.507394574489386, 54.303839208947117 ], [ 14.507728097486329, 54.304052102332811 ], [ 14.515590432616099, 54.310852308401742 ], [ 14.515808832362419, 54.311352093469388 ], [ 14.517180608137549, 54.3122273386412 ], [ 14.523516333780615, 54.317704774664158 ], [ 14.524087393499141, 54.318547191554138 ], [ 14.524226118391917, 54.318864441965808 ], [ 14.524360603806098, 54.318950216145268 ], [ 14.524467470845853, 54.319107855870982 ], [ 14.525092807091715, 54.319417201056687 ], [ 14.52569442061341, 54.31980088784367 ], [ 14.526929116537886, 54.320654510937565 ], [ 14.534649838781959, 54.327325820488291 ], [ 14.534746882944196, 54.328632067863964 ], [ 14.536408343214177, 54.329453632836902 ], [ 14.538011762134277, 54.330312911525048 ], [ 14.538236275658413, 54.330423903250157 ], [ 14.541646514862126, 54.333369262225609 ], [ 14.543632221960905, 54.335084047577041 ], [ 14.543942980066447, 54.335793640213481 ], [ 14.545412328993159, 54.336729863843587 ], [ 14.545756674467002, 54.336967710735927 ], [ 14.546504091990631, 54.338068678202291 ], [ 14.54787180284224, 54.33874462539427 ], [ 14.551663175226137, 54.342017545128726 ], [ 14.551759746365656, 54.343309112192941 ], [ 14.553422145755434, 54.34413044283766 ], [ 14.554575084159207, 54.344747790529986 ], [ 14.555244639273621, 54.345210054245115 ], [ 14.555692823492169, 54.345495476522423 ], [ 14.562819731458909, 54.351644881125203 ], [ 14.563587839667704, 54.352775154127201 ], [ 14.564367029451679, 54.353159856131171 ], [ 14.565146265632448, 54.353655883462736 ], [ 14.56516970008326, 54.353672053960231 ], [ 14.571289360238721, 54.358949982736227 ], [ 14.572152465536025, 54.36056020318037 ], [ 14.573815367993264, 54.361380837354922 ], [ 14.574164733110795, 54.361567722445166 ], [ 14.574967483984112, 54.362121415605102 ], [ 14.583261029184985, 54.369270312436171 ], [ 14.583424814974087, 54.369643163096775 ], [ 14.583972297326905, 54.369991346435008 ], [ 14.584632348492049, 54.371221608616388 ], [ 14.58672057883421, 54.372251505263897 ], [ 14.591535969833235, 54.376400202931038 ], [ 14.591866077262841, 54.37715118752827 ], [ 14.593337976453919, 54.378086869966097 ], [ 14.594118300066818, 54.378624594413878 ], [ 14.594200211330024, 54.378695148177243 ], [ 14.594257794158503, 54.379453723417555 ], [ 14.596426395445674, 54.380612518213987 ], [ 14.598487387875354, 54.382387423326726 ], [ 14.602681133378223, 54.385641725198525 ], [ 14.602739871943688, 54.386413295872281 ], [ 14.603691689440204, 54.386882340896449 ], [ 14.604662321598795, 54.387499029788337 ], [ 14.606069544448879, 54.388468215426848 ], [ 14.607476031629346, 54.389361722720501 ], [ 14.611135353032884, 54.392200146553499 ], [ 14.611152056401856, 54.392418732883648 ], [ 14.611878628949338, 54.392776622527876 ], [ 14.619592297175497, 54.398758054890493 ], [ 14.619701504551257, 54.400184261227238 ], [ 14.621400278414267, 54.401020692476742 ], [ 14.623008311250498, 54.401878845480468 ], [ 14.624673926875873, 54.402698782311191 ], [ 14.624679961160847, 54.402702003232832 ], [ 14.636514427951466, 54.411872386135997 ], [ 14.63660687297366, 54.413072519385331 ], [ 14.638273821792879, 54.413892577101812 ], [ 14.639882719033549, 54.414750506344724 ], [ 14.640499274332202, 54.415053781749442 ], [ 14.641188731675022, 54.415491088000401 ], [ 14.647406302889411, 54.420302082753587 ], [ 14.650985372942255, 54.423086136382324 ], [ 14.651221039079964, 54.423431032403819 ], [ 14.651610813010668, 54.424313755375401 ], [ 14.653085750506708, 54.425248759886337 ], [ 14.654495394065114, 54.426217419610452 ], [ 14.654839602295738, 54.42643560003593 ], [ 14.65686882229649, 54.428516261303372 ], [ 14.658536213415589, 54.429335734543827 ], [ 14.6600787913732, 54.43015751219675 ], [ 14.667744380226269, 54.436116186219493 ], [ 14.668745711828407, 54.437971582751459 ], [ 14.670413727881048, 54.438790893361968 ], [ 14.671636588079316, 54.439441979891861 ], [ 14.673095041999002, 54.440365684623877 ], [ 14.673718472968201, 54.440793697690772 ], [ 14.673764474758316, 54.441382893641354 ], [ 14.675433334258331, 54.442202441277303 ], [ 14.675889612997947, 54.442445326292415 ], [ 14.685497813723739, 54.44990810038788 ], [ 14.685516709375431, 54.449950786281313 ], [ 14.685583574536627, 54.450804418676874 ], [ 14.687298737332139, 54.45164621172492 ], [ 14.687342422041462, 54.451673859458054 ], [ 14.688753772914886, 54.452642146892309 ], [ 14.69018811135221, 54.453549860252643 ], [ 14.692966371581235, 54.45570664524454 ], [ 14.694054746530007, 54.456820414449808 ], [ 14.694996424478385, 54.457282411117099 ], [ 14.702484547760861, 54.46309352354168 ], [ 14.702531013842522, 54.463683360644239 ], [ 14.702992392844603, 54.463909641858606 ], [ 14.70300966669989, 54.463948609917828 ], [ 14.704487190444311, 54.464883028315768 ], [ 14.704800301569746, 54.465097679211148 ], [ 14.70594862191154, 54.466272088039247 ], [ 14.707618550952084, 54.467090887466206 ], [ 14.707677290081222, 54.467122107841604 ], [ 14.710973801715504, 54.469679060059271 ], [ 14.710974021399625, 54.469681858182859 ], [ 14.710983224107084, 54.469686369456831 ], [ 14.716807045580095, 54.47420266191402 ], [ 14.717273359969113, 54.475253514667919 ], [ 14.71776088823554, 54.475561639078116 ], [ 14.718496350500988, 54.476919647683758 ], [ 14.721263030144424, 54.478275347389541 ], [ 14.722876233471627, 54.479132177198224 ], [ 14.723684509780409, 54.479528178804912 ], [ 14.734025736117065, 54.487532032866483 ], [ 14.734437493468729, 54.488458741117711 ], [ 14.735916610982352, 54.489392800576958 ], [ 14.737330395271306, 54.490360560049048 ], [ 14.738809647304429, 54.49129458535517 ], [ 14.739496638184125, 54.491764790334393 ], [ 14.747201800222141, 54.497724299745187 ], [ 14.745257146918316, 54.498966084880728 ], [ 14.745087507962189, 54.499083531463747 ], [ 14.744659295686525, 54.499313361990552 ], [ 14.743063941990012, 54.499758747294351 ], [ 14.741449949204819, 54.500001854840626 ], [ 14.741189977410368, 54.50000870461912 ], [ 14.739255380724671, 54.500059662874747 ], [ 14.737795381490482, 54.501070190385285 ], [ 14.737352271523637, 54.501353058310265 ], [ 14.724798407427766, 54.504855841772375 ], [ 14.722770926665417, 54.505226756260328 ], [ 14.72229952433193, 54.505552849920939 ], [ 14.719694461958252, 54.506279393749388 ], [ 14.716712460702828, 54.506357401611375 ], [ 14.715306922148351, 54.507329521330668 ], [ 14.711915631002203, 54.508115795521569 ], [ 14.71071920197129, 54.50829563954845 ], [ 14.709113474712918, 54.509156391415139 ], [ 14.708774383408361, 54.509324064759731 ], [ 14.706760449110565, 54.509885417516742 ], [ 14.695631790034835, 54.51299306396033 ], [ 14.694747159256979, 54.51312589409816 ], [ 14.694302339904704, 54.51336420710539 ], [ 14.693873622970191, 54.513483887328654 ], [ 14.688258637078611, 54.514639319080437 ], [ 14.687404980294646, 54.51522916882368 ], [ 14.687169666382188, 54.515355206142793 ], [ 14.686032490915762, 54.515672733417077 ], [ 14.682042654664837, 54.516271381082348 ], [ 14.680552280494448, 54.517069480141799 ], [ 14.680022369911324, 54.517192148335113 ], [ 14.679637327971966, 54.517458125113507 ], [ 14.628162845101446, 54.530708456846661 ], [ 14.692251985545219, 54.614670019564599 ], [ 14.774363037082844, 54.598043439019115 ], [ 14.850945650040492, 54.585581169396285 ], [ 14.868415106098228, 54.582640119197869 ], [ 14.871413051314384, 54.582198459879251 ], [ 14.872907951819951, 54.581978198236705 ], [ 14.874410930306531, 54.581756726670534 ], [ 14.877408744698217, 54.581314918731522 ], [ 14.88040649447847, 54.580873036065888 ], [ 14.883404179636246, 54.580431078677307 ], [ 14.886401799979613, 54.579989048362783 ], [ 14.889399354044746, 54.579546944176833 ], [ 14.892396845088774, 54.579104764434831 ], [ 14.89539426983273, 54.578662510828835 ], [ 14.898391629809439, 54.578220183415027 ], [ 14.901388925098241, 54.577777781300433 ], [ 14.904408730559831, 54.577486777239223 ], [ 14.90742849199909, 54.577195696799961 ], [ 14.91044821067681, 54.576904542727547 ], [ 14.913467886850272, 54.576613312334388 ], [ 14.916487520326889, 54.57632200741633 ], [ 14.91950710818652, 54.5760306260782 ], [ 14.922526654867522, 54.575739170272357 ], [ 14.925546158903396, 54.575447639052442 ], [ 14.928565618827399, 54.575156031472183 ], [ 14.93158503590174, 54.5748643502763 ], [ 14.934604408928141, 54.574572591828449 ], [ 14.937623740712509, 54.574280758925191 ], [ 14.938344499955464, 54.574211075601902 ], [ 14.940643028155291, 54.573988851465138 ], [ 14.943662272876651, 54.573696868606014 ], [ 14.946681473498607, 54.573404808505096 ], [ 14.949700631195293, 54.573112674803532 ], [ 14.952719744588878, 54.572820465658751 ], [ 14.955738816842528, 54.572528180279889 ], [ 14.958757844767478, 54.572235819462776 ], [ 14.961776829716902, 54.571943385055157 ], [ 14.964795772033384, 54.571650873472457 ], [ 14.967814669805692, 54.571358288252689 ], [ 14.970833524742179, 54.571065627656395 ], [ 14.973852337007122, 54.570772889892595 ], [ 14.976871104778613, 54.570480077602561 ], [ 14.979889829587579, 54.57018719084035 ], [ 14.982908511598149, 54.569894227814899 ], [ 14.985927149077456, 54.569601190270923 ], [ 14.988945743820985, 54.569308075571968 ], [ 14.991964295551252, 54.569014886410855 ], [ 14.994982802712352, 54.56872162273887 ], [ 14.998001268642531, 54.568428281970554 ], [ 14.99973162543858, 54.56826008213838 ], [ 15.000004110405767, 54.568233594193877 ], [ 15.001019689626451, 54.568134870286151 ], [ 15.004038067810757, 54.567841381464106 ], [ 15.007056403182348, 54.567547815501911 ], [ 15.010074693833836, 54.567254175938253 ], [ 15.013092941471655, 54.566960461033091 ], [ 15.016111146170639, 54.566666669892101 ], [ 15.019175118426725, 54.566667911096921 ], [ 15.022239090149542, 54.566669073553904 ], [ 15.025303064061514, 54.566670160951993 ], [ 15.028367035867671, 54.56667116955169 ], [ 15.03143100700931, 54.56667210030075 ], [ 15.034494980558597, 54.566672953300603 ], [ 15.037558953414075, 54.566673728449963 ], [ 15.040622926930444, 54.566674427593227 ], [ 15.043686901354375, 54.566675048039947 ], [ 15.046750874953819, 54.566675591533325 ], [ 15.049814847887999, 54.566676056279825 ], [ 15.052878821511939, 54.566676444123722 ], [ 15.054668802579119, 54.566676629992976 ], [ 15.055942794354468, 54.566676754117822 ], [ 15.05900676785777, 54.56667698720949 ], [ 15.062070740550524, 54.56667714245161 ], [ 15.064786568450565, 54.56667721123118 ], [ 15.065134713961516, 54.566677219894622 ], [ 15.068198687989701, 54.566677220435395 ], [ 15.071262661249895, 54.566677142230084 ], [ 15.074326635098133, 54.566676987122754 ], [ 15.077390609606221, 54.566676754216552 ], [ 15.080454583129855, 54.566676444358315 ], [ 15.083518555740687, 54.566676056651396 ], [ 15.086582528967577, 54.566675591145923 ], [ 15.08964650279589, 54.566675047841919 ], [ 15.09271047558158, 54.566674427586427 ], [ 15.095774449025374, 54.566673728635728 ], [ 15.098838421311623, 54.5666729536307 ], [ 15.101902394226707, 54.566672099930642 ], [ 15.104966367584527, 54.566671169329382 ], [ 15.10803033982711, 54.56667016177726 ], [ 15.111094312825518, 54.566669073736541 ], [ 15.114158284423, 54.566667911435971 ], [ 15.117222256576058, 54.566666670440767 ], [ 15.120269530367546, 54.566884062811795 ], [ 15.123316837262992, 54.567101377856183 ], [ 15.126364175534611, 54.567318617316452 ], [ 15.129411546797561, 54.567535780343484 ], [ 15.132458949664603, 54.567752865092203 ], [ 15.135506385410373, 54.567969874301106 ], [ 15.13855385419118, 54.568186806174523 ], [ 15.141601354364637, 54.568403661558335 ], [ 15.144648887460704, 54.568620440500069 ], [ 15.147696451922007, 54.56883714294878 ], [ 15.150744050906845, 54.569053768104183 ], [ 15.15379167968565, 54.569270316713904 ], [ 15.156839342960362, 54.56948678802673 ], [ 15.159887037545202, 54.569703182839596 ], [ 15.162934765054564, 54.569919500302902 ], [ 15.165982525390254, 54.570135741311809 ], [ 15.169030315382685, 54.57035190666506 ], [ 15.172078139890854, 54.570567993815857 ], [ 15.175125997015904, 54.570784006300826 ], [ 15.17817388407707, 54.570999939535774 ], [ 15.181221805355621, 54.571215797253373 ], [ 15.184269757750373, 54.571431579354183 ], [ 15.187317743127023, 54.571647282297384 ], [ 15.19036576105241, 54.571862910566111 ], [ 15.193413810387852, 54.572078459624976 ], [ 15.196461892244724, 54.572293934005913 ], [ 15.199510006860445, 54.572509331016157 ], [ 15.20255815267719, 54.572724650605373 ], [ 15.205606330974618, 54.572939895511439 ], [ 15.208654542239683, 54.573155060350537 ], [ 15.211702782870082, 54.573370150406127 ], [ 15.214751059194851, 54.573585164076114 ], [ 15.2177993651907, 54.573800099371155 ], [ 15.220847705143083, 54.57401496002263 ], [ 15.2238960762828, 54.574229742344087 ], [ 15.226944478512756, 54.574444447230931 ], [ 15.229860146636328, 54.57492694870146 ], [ 15.232775883748355, 54.575409379890417 ], [ 15.235691689921978, 54.575891739897095 ], [ 15.238607563437817, 54.576374030463768 ], [ 15.241523507622654, 54.576856248991866 ], [ 15.244439519047782, 54.577338398969744 ], [ 15.24735560250161, 54.577820478743604 ], [ 15.250003971582812, 54.578258228931411 ], [ 15.250271751880161, 54.578302487220867 ], [ 15.253187970261989, 54.578784424493811 ], [ 15.256104260396452, 54.579266294242622 ], [ 15.259020616426534, 54.579748092684028 ], [ 15.261937043057463, 54.58022981906079 ], [ 15.264853536861965, 54.580711476861886 ], [ 15.267770101165748, 54.58119306348798 ], [ 15.270686732788219, 54.58167457973699 ], [ 15.273603434644535, 54.58215602749479 ], [ 15.27652020550871, 54.582637403121666 ], [ 15.279437043580696, 54.583118709257683 ], [ 15.282353952101033, 54.58359994420011 ], [ 15.285270929434022, 54.584081108794749 ], [ 15.28818797394575, 54.584562203887607 ], [ 15.291105088797405, 54.585043228672845 ], [ 15.294022272353274, 54.585524183996391 ], [ 15.296939524848312, 54.586005067163299 ], [ 15.299856844565026, 54.586485879916808 ], [ 15.302774234420296, 54.58696662414205 ], [ 15.305691691559396, 54.587447297049508 ], [ 15.30860921906179, 54.587927898730022 ], [ 15.311526815210669, 54.588408430926812 ], [ 15.314444478451792, 54.588888893589157 ], [ 15.317358799714095, 54.589465608382739 ], [ 15.32027320316411, 54.59004225404297 ], [ 15.323187688955567, 54.590618828771255 ], [ 15.326102256918293, 54.591195334357415 ], [ 15.329016907286558, 54.591771768105659 ], [ 15.331624226520438, 54.59228734609065 ], [ 15.331931639890248, 54.592348131805828 ], [ 15.334846454713263, 54.592924425447649 ], [ 15.337761353212638, 54.593500649971055 ], [ 15.340676332539369, 54.594076802592085 ], [ 15.343591395533336, 54.594652886091311 ], [ 15.346506540721888, 54.5952288995204 ], [ 15.349421766631995, 54.595804841931169 ], [ 15.352337076264988, 54.596380714309682 ], [ 15.355252468067539, 54.59695651660487 ], [ 15.358167942031326, 54.597532248812314 ], [ 15.361083499693247, 54.598107910974136 ], [ 15.363999137954636, 54.598683502992891 ], [ 15.366914858512313, 54.599259023116389 ], [ 15.369830661117827, 54.599834474031738 ], [ 15.372746547308342, 54.600409855780889 ], [ 15.375662515690099, 54.60098516651869 ], [ 15.378578566254568, 54.601560406240722 ], [ 15.381494698833915, 54.602135576736963 ], [ 15.384410913579208, 54.602710676208638 ], [ 15.387327210402407, 54.603285705548551 ], [ 15.390000034605972, 54.60381264332689 ], [ 15.390243590840623, 54.603860664798447 ], [ 15.39316005334013, 54.60443555390772 ], [ 15.396076596347106, 54.605010372825902 ], [ 15.398993223023483, 54.605585120743562 ], [ 15.401909931736016, 54.606159798507441 ], [ 15.40482672239723, 54.606734407010322 ], [ 15.407743595157166, 54.607308944453408 ], [ 15.410660550007282, 54.607883410832301 ], [ 15.413577588405747, 54.608457807085678 ], [ 15.416494708719695, 54.609032134060428 ], [ 15.419411911098658, 54.609606389957769 ], [ 15.422329193909576, 54.610180575624724 ], [ 15.425246560156829, 54.610754692045688 ], [ 15.428164010068297, 54.611328736524484 ], [ 15.431081540307913, 54.611902711657052 ], [ 15.433134447370083, 54.612306534602922 ], [ 15.439662738055134, 54.61275359109662 ], [ 15.44138551824838, 54.613647150158862 ], [ 15.447736506291683, 54.615102242456267 ], [ 15.447970663116848, 54.615223661248869 ], [ 15.449370416981276, 54.61594945433297 ], [ 15.455053860922593, 54.616615584724904 ], [ 15.460441994569909, 54.61724683813955 ], [ 15.461769239588925, 54.617934757414822 ], [ 15.462076256626599, 54.61809388133301 ], [ 15.463852602719562, 54.618343920850691 ], [ 15.469244277223659, 54.619102679800399 ], [ 15.470176246510498, 54.619585589296037 ], [ 15.473130555385366, 54.62111627389617 ], [ 15.477292000863997, 54.6209823048601 ], [ 15.500002741734102, 54.626390881069192 ], [ 15.500003559826931, 54.600926984019857 ], [ 15.500003644414289, 54.595534792581489 ], [ 15.501073807108652, 54.594949351096929 ], [ 15.502725474115673, 54.594115621614279 ], [ 15.504318283061707, 54.593244152726093 ], [ 15.505969815121349, 54.592410375858222 ], [ 15.507716200904081, 54.589744257541589 ], [ 15.50936752063078, 54.58891043078706 ], [ 15.510154233180904, 54.588479883943677 ], [ 15.511046263566879, 54.5887851855571 ], [ 15.511713182690654, 54.588522170740731 ], [ 15.512426752476248, 54.588998716961669 ], [ 15.558828213397708, 54.591209801063691 ], [ 15.56194884615933, 54.589499566448133 ], [ 15.566689400861828, 54.588752777637666 ], [ 15.568280663869988, 54.587880442159403 ], [ 15.576111160976268, 54.587220953930682 ], [ 15.577702166451468, 54.586348491433696 ], [ 15.580399246693164, 54.585923228052366 ], [ 15.582759900651608, 54.586893223880971 ], [ 15.585877523650469, 54.585012312062069 ], [ 15.588548846677689, 54.586655030984623 ], [ 15.589986500421215, 54.587613092420177 ], [ 15.594579494577591, 54.588624033016117 ], [ 15.596017360495541, 54.589582025481242 ], [ 15.600610734989573, 54.590592742906232 ], [ 15.602048811628533, 54.591550665438888 ], [ 15.606642565045011, 54.592561157809406 ], [ 15.608080853892277, 54.593519011329199 ], [ 15.612674984516621, 54.594529280351459 ], [ 15.614113487060218, 54.595487065777867 ], [ 15.661984785328425, 54.597699479044408 ], [ 15.663424577687685, 54.5986566949571 ], [ 15.674203735197484, 54.599835087975912 ], [ 15.675643893826587, 54.600792163137918 ], [ 15.677148942758505, 54.601714989252507 ], [ 15.678511828882877, 54.60362196625379 ], [ 15.675279355806589, 54.605261481416839 ], [ 15.673025948911537, 54.614264806732706 ], [ 15.675977867216032, 54.616074304531388 ], [ 15.677418626797412, 54.617031364041786 ], [ 15.678924301695881, 54.61795417395534 ], [ 15.680365198161359, 54.618911200037935 ], [ 15.684964070070858, 54.619918784050085 ], [ 15.686405178989025, 54.620875740838621 ], [ 15.694918824572154, 54.621550821460708 ], [ 15.700263005319728, 54.623284928570108 ], [ 15.70357474679521, 54.626278913376808 ], [ 15.703947539838236, 54.633947428266964 ], [ 15.705454440756295, 54.634869923508184 ], [ 15.706896554503841, 54.635826647981013 ], [ 15.711498017577059, 54.63683325508326 ], [ 15.712940345506651, 54.637789910188793 ], [ 15.717542187367684, 54.638796291319494 ], [ 15.718984727876654, 54.639752877891766 ], [ 15.723585109057449, 54.640758631510209 ], [ 15.723589707287674, 54.640760863438899 ], [ 15.725029701610337, 54.64171555102341 ], [ 15.726537371450712, 54.642637792178071 ], [ 15.727980258727074, 54.643594274775737 ], [ 15.73051623555483, 54.644148464049337 ], [ 15.73386463813396, 54.646343756434163 ], [ 15.742549897343661, 54.654509375746606 ], [ 15.742593406960577, 54.654781887609467 ], [ 15.743298016055864, 54.655212555576995 ], [ 15.750000445750331, 54.661511109809624 ], [ 15.750000038887958, 54.666725064829045 ], [ 15.76267400517049, 54.666678990526066 ], [ 15.763265281326721, 54.66792865819712 ], [ 15.764774783440176, 54.668850445039524 ], [ 15.765676027677168, 54.669446855916121 ], [ 15.765753114875226, 54.670178498445573 ], [ 15.768459704836632, 54.676312300786108 ], [ 15.768638892798529, 54.678011450846462 ], [ 15.774624824799101, 54.685434016236201 ], [ 15.779753587750005, 54.69020486475641 ], [ 15.779892012839076, 54.691513201239445 ], [ 15.783826437010243, 54.708164631730092 ], [ 15.80492180634376, 54.714282838866417 ], [ 15.818495264289927, 54.718124680581923 ], [ 15.820242928094391, 54.718770080722834 ], [ 15.820995874006696, 54.723423646073179 ], [ 15.822466975465346, 54.724319328259554 ], [ 15.822488448304158, 54.725371697195079 ], [ 15.820911070721809, 54.728433754893018 ], [ 15.823040421694541, 54.734654963600015 ], [ 15.823101697376776, 54.735842975333753 ], [ 15.819260450565251, 54.742177092139045 ], [ 15.818219039506673, 54.744323749349327 ], [ 15.809906305206663, 54.744154121374507 ], [ 15.810980268381279, 54.747575651088205 ], [ 15.81212329790627, 54.74755236811469 ], [ 15.812024240639442, 54.74881218671009 ], [ 15.81512752417899, 54.748893797599109 ], [ 15.815237883028399, 54.747488872056735 ], [ 15.818101062410689, 54.747430429539392 ], [ 15.817527453581299, 54.74823014593143 ], [ 15.823507722308628, 54.749528717816098 ], [ 15.823850355986734, 54.749694946418224 ], [ 15.825091634687574, 54.750513415525027 ], [ 15.825608720232941, 54.750828011124149 ], [ 15.826632353121276, 54.755026899084896 ], [ 15.831781305080101, 54.758843758795344 ], [ 15.833702894931466, 54.760843804176403 ], [ 15.837908726041659, 54.763010425149801 ], [ 15.845322970968676, 54.76198961196787 ], [ 15.850885435867889, 54.7574994592634 ], [ 15.851563335001833, 54.757828360367583 ], [ 15.8524657413799, 54.758422796526865 ], [ 15.853980603299823, 54.759343528170859 ], [ 15.854617818297395, 54.759763237944171 ], [ 15.857276071642444, 54.763817741728417 ], [ 15.859857623291822, 54.765070247937665 ], [ 15.860908591618939, 54.767274509557218 ], [ 15.859594135283466, 54.769826018093376 ], [ 15.863937550762873, 54.776450748162389 ], [ 15.87143452051119, 54.780312941575396 ], [ 15.872393843324957, 54.782323008153959 ], [ 15.873910040880176, 54.783243504870974 ], [ 15.875361348341535, 54.784198320686585 ], [ 15.876877683296751, 54.785118782705673 ], [ 15.878329127691275, 54.786073563599174 ], [ 15.879845598648899, 54.78699398907748 ], [ 15.881297181408994, 54.787948736876537 ], [ 15.885920353040333, 54.788948965259337 ], [ 15.887372148620871, 54.789903642739731 ], [ 15.888888969637089, 54.790823959050627 ], [ 15.890340903690554, 54.791778602518399 ], [ 15.891857862177645, 54.792698884095344 ], [ 15.89330993323733, 54.793653492605451 ], [ 15.894827029350315, 54.79457373764555 ], [ 15.896279237296051, 54.795528312985688 ], [ 15.897796472536768, 54.796448522418665 ], [ 15.899111267394129, 54.799198313350864 ], [ 15.9006287027903, 54.800118489432371 ], [ 15.902081242663327, 54.801072998756567 ], [ 15.903598815683205, 54.801993139173597 ], [ 15.905051492579263, 54.802947614405554 ], [ 15.906569203240021, 54.803867719150475 ], [ 15.908022017176792, 54.80482216028264 ], [ 15.909539865495605, 54.805742229347779 ], [ 15.910992816559299, 54.806696635475006 ], [ 15.915618889328364, 54.807695766861812 ], [ 15.917072054968365, 54.808650102580884 ], [ 15.921698506768234, 54.809649004641749 ], [ 15.923151888486938, 54.810603270868292 ], [ 15.93088715809442, 54.811680654450058 ], [ 15.932340831909498, 54.812634813911984 ], [ 15.933859529671421, 54.813554588110179 ], [ 15.933917874213366, 54.813908385993074 ], [ 15.932822971817044, 54.816033701323427 ], [ 15.934682509651411, 54.820051976780164 ], [ 15.936067418813103, 54.82059834646185 ], [ 15.936424210146372, 54.820814373880715 ], [ 15.937742378308469, 54.823563778254943 ], [ 15.939261602529593, 54.824483490958919 ], [ 15.940715926704291, 54.825437555637734 ], [ 15.94223529039507, 54.826357231719136 ], [ 15.943554021064974, 54.829106578825694 ], [ 15.945073583795814, 54.830026222263761 ], [ 15.946528242313009, 54.830980219806776 ], [ 15.948047942940347, 54.831899827463154 ], [ 15.949502738625499, 54.832853792593966 ], [ 15.950362883231065, 54.833374225430163 ], [ 16.000000032846405, 54.833333229966051 ] ], [ [ 14.464831539238244, 54.018657987378752 ], [ 14.500001865905741, 54.018072789592118 ], [ 14.500004705156906, 54.073332844928387 ], [ 14.466650123396303, 54.062793818248196 ], [ 14.464666705467604, 54.062166664865082 ], [ 14.464667124801869, 54.045815818978376 ], [ 14.464831539238244, 54.018657987378752 ] ], [ [ 14.296059999559661, 53.930475869741329 ], [ 14.300000042943754, 53.930208332443414 ], [ 14.299896906089829, 53.930916135510209 ], [ 14.299234577424031, 53.931272342922171 ], [ 14.296894413949293, 53.932046950543928 ], [ 14.294526746133819, 53.932063801108555 ], [ 14.296059999559661, 53.930475869741329 ] ] ] } },
{ "type": "Feature", "properties": { "AREA": 7882.2323344599999, "Shape_Leng": 930593.69203100004, "Shape_Area": 7882232334.460001 }, "geometry": { "type": "Polygon", "coordinates": [ [ [ 16.547221616095616, 54.601485716858726 ], [ 16.573351577274856, 54.58266940184464 ], [ 16.500002234530932, 54.549519984909047 ], [ 16.476475005395084, 54.538368617170867 ], [ 16.433021976767108, 54.524009588801619 ], [ 16.401581339372811, 54.529767672439483 ], [ 16.370861464714348, 54.51090100169538 ], [ 16.377531295620717, 54.50607552568318 ], [ 16.384986971916714, 54.502030944756719 ], [ 16.390602828777514, 54.49898359132272 ], [ 16.391685427024289, 54.482440060165487 ], [ 16.387290023487193, 54.48113103703389 ], [ 16.30139312385743, 54.478028671096659 ], [ 16.297176356531242, 54.479912887318456 ], [ 16.285491222567085, 54.489610806572294 ], [ 16.312708264488233, 54.504764925390006 ], [ 16.343472446644029, 54.504496129209301 ], [ 16.331732593566379, 54.520790052228769 ], [ 16.308924310391088, 54.551464005510333 ], [ 16.330492698894911, 54.572266256027525 ], [ 16.341709831902602, 54.580138583911221 ], [ 16.41775934684096, 54.586877145519935 ], [ 16.427778178092819, 54.581504933985514 ], [ 16.45171155901809, 54.568882218564021 ], [ 16.461618394749525, 54.586330200707152 ], [ 16.496000727600588, 54.600058979060542 ], [ 16.500002563530789, 54.600137540320517 ], [ 16.547221616095616, 54.601485716858726 ] ] ] } }
]
}
