{
"type": "FeatureCollection",
"name": "21028_2",
"crs": { "type": "name", "properties": { "name": "urn:ogc:def:crs:OGC:1.3:CRS84" } },
"features": [
{ "type": "Feature", "properties": { "AREA": 7882.2323344599999, "Shape_Leng": 930593.69203100004, "Shape_Area": 7882232334.460001 }, "geometry": { "type": "Polygon", "coordinates": [ [ [ 16.760801206460478, 55.098756430218351 ], [ 16.837797031815949, 55.030949740215895 ], [ 16.841464004775027, 55.030870309228618 ], [ 16.85488795034259, 55.030578593338475 ], [ 16.857594661287298, 55.030519577433722 ], [ 16.85868873318659, 55.03049571587033 ], [ 16.859491068468628, 55.030350221946115 ], [ 16.860665936450712, 55.030137168159442 ], [ 16.860690087240865, 55.030132791502488 ], [ 16.875114403486947, 55.027515826338536 ], [ 16.875247334717884, 55.027491857696056 ], [ 16.936255530032266, 55.016401019853198 ], [ 16.9362598266835, 55.016400229600137 ], [ 16.950361740970756, 55.013831357162978 ], [ 16.954187221234665, 55.01313414865902 ], [ 16.978265741580021, 55.008742414804857 ], [ 17.00000026475281, 55.004772296793348 ], [ 17.000863518837953, 55.004614553462652 ], [ 17.003789752279044, 55.004079763833161 ], [ 17.003997962939529, 55.004041714366501 ], [ 17.004067418802777, 55.004029025996793 ], [ 17.004501077342667, 55.003949756025797 ], [ 17.015530695016121, 55.001933247930545 ], [ 17.025968536719951, 55.000023810969239 ], [ 17.045478745465385, 54.996451824337896 ], [ 17.050983142815905, 54.995443379385073 ], [ 17.051159444980446, 54.995377747810487 ], [ 17.051221277512795, 54.995399741332797 ], [ 17.077882468217666, 54.990511023140115 ], [ 17.111245824437827, 55.0675815847205 ], [ 17.116344330118224, 55.067435813725957 ], [ 17.124462978187466, 55.057986087656154 ], [ 17.184312437327357, 55.039428893219743 ], [ 17.211804470773224, 55.038172705475077 ], [ 17.234417959475092, 55.04534233897855 ], [ 17.250000594198781, 55.013925479913112 ], [ 17.250000029094853, 54.999999894169854 ], [ 17.257394715215007, 54.999500561226512 ], [ 17.286706068957493, 54.94107391384712 ], [ 17.072099212934788, 54.901295282437758 ], [ 17.063044184191071, 54.899226675948604 ], [ 17.062690851052313, 54.899145984421118 ], [ 17.046918936179544, 54.895536725348279 ], [ 17.027485289981001, 54.8910877134809 ], [ 17.015118851886022, 54.888254499398968 ], [ 17.000001830381741, 54.884788858281524 ], [ 17.000000030215705, 54.833333231885611 ], [ 16.750000031303571, 54.833333230764921 ], [ 16.500000032558241, 54.833333230432778 ], [ 16.500001121876014, 54.852846170300651 ], [ 16.499143644351637, 54.852966844975157 ], [ 16.497457470039876, 54.85320410455315 ], [ 16.495764702207158, 54.853442301899307 ], [ 16.494077356574874, 54.853679688548134 ], [ 16.492389331336945, 54.853917145788984 ], [ 16.490702073043963, 54.854154469701996 ], [ 16.489013947228202, 54.854391878287828 ], [ 16.487322152935533, 54.854629799106661 ], [ 16.485635246352498, 54.85486698848009 ], [ 16.483949326950331, 54.855104013195884 ], [ 16.482262979244492, 54.855341077731573 ], [ 16.480576485657686, 54.855578151962924 ], [ 16.479731644921451, 54.855696881061817 ], [ 16.478886798269578, 54.855815622188082 ], [ 16.477198285975131, 54.856052913655262 ], [ 16.475510383927983, 54.856290086603188 ], [ 16.473822461623094, 54.856527253826513 ], [ 16.472135622219771, 54.856764222485076 ], [ 16.47044797637264, 54.857001294955474 ], [ 16.46960461834643, 54.857119751222086 ], [ 16.468761255545388, 54.857238201575527 ], [ 16.46791795136328, 54.857356629353646 ], [ 16.467074641281677, 54.857475069180467 ], [ 16.465386404309569, 54.857712131432748 ], [ 16.463699468251697, 54.857948999742568 ], [ 16.46200895993281, 54.85818632761972 ], [ 16.460321670911391, 54.85842319592939 ], [ 16.458633735577354, 54.858660099376038 ], [ 16.457231190290219, 54.85885695387757 ], [ 16.456672225731079, 54.858935399691958 ], [ 16.454164266857735, 54.859287333102017 ], [ 16.45357138300059, 54.859370520640553 ], [ 16.451879061543611, 54.859607940283631 ], [ 16.450189865033678, 54.859844916579284 ], [ 16.448503292005544, 54.860081493069899 ], [ 16.446816952402418, 54.860317997268112 ], [ 16.445130026481895, 54.860554573791497 ], [ 16.443443459670341, 54.860791062682011 ], [ 16.441756590163767, 54.861027575899179 ], [ 16.441519779270205, 54.861060820044784 ], [ 16.440069009768017, 54.861264158775896 ], [ 16.438379711847507, 54.861500951901249 ], [ 16.436689954344697, 54.861737783937421 ], [ 16.4350031030834, 54.861974186449487 ], [ 16.434652436673527, 54.862023319738618 ], [ 16.434642558236451, 54.862024711602089 ], [ 16.433316484146591, 54.862210534649904 ], [ 16.431627707154878, 54.862447155648908 ], [ 16.429937746429648, 54.862683926108943 ], [ 16.428245062486312, 54.862921029180789 ], [ 16.426558492946651, 54.863157267292195 ], [ 16.424871338172505, 54.863393559665475 ], [ 16.423704400719068, 54.86355697226162 ], [ 16.423681150605621, 54.863560237605256 ], [ 16.423182496871274, 54.863630062745216 ], [ 16.421493511938557, 54.863866539465214 ], [ 16.419806487972497, 54.864102746799404 ], [ 16.418118597354891, 54.864339020350229 ], [ 16.416428893278677, 54.86457553776269 ], [ 16.414737848506441, 54.864812219106788 ], [ 16.413049113022129, 54.865048548616471 ], [ 16.411360893586927, 54.86528477590241 ], [ 16.411325749127442, 54.865289691632704 ], [ 16.409673252498909, 54.865520902315531 ], [ 16.407982069086962, 54.865757487343181 ], [ 16.406293446495255, 54.865993690065601 ], [ 16.405335431177484, 54.866496737148879 ], [ 16.361081927383985, 54.851541634495376 ], [ 16.357825868685293, 54.85545638554224 ], [ 16.348236814388866, 54.866980253642154 ], [ 16.347353066132968, 54.868041940605963 ], [ 16.346645274106304, 54.868892188401027 ], [ 16.345548095376451, 54.870210125837588 ], [ 16.338638766975908, 54.878507404615391 ], [ 16.338236507516957, 54.878990352779361 ], [ 16.336381510263791, 54.88121725436784 ], [ 16.335692068239709, 54.882044855868784 ], [ 16.335550432767629, 54.882214858304188 ], [ 16.334816029576206, 54.883096377056894 ], [ 16.334173150597799, 54.883867998501778 ], [ 16.334028950182972, 54.884041069663837 ], [ 16.329332826171218, 54.889676567079164 ], [ 16.326057427448355, 54.89360607559928 ], [ 16.325307340637487, 54.894505843557603 ], [ 16.320955132469482, 54.899725587415475 ], [ 16.364161601427231, 54.915555998160819 ], [ 16.358236683156566, 54.922570868237365 ], [ 16.358933185479142, 54.922804099547122 ], [ 16.439723393539634, 54.973837991559051 ], [ 16.441471137219821, 54.974939973170358 ], [ 16.444645414371792, 54.976941183397649 ], [ 16.447824936711314, 54.978945438269932 ], [ 16.451005950144779, 54.980950320678879 ], [ 16.454181806690013, 54.982951680781767 ], [ 16.457357528581007, 54.98495266339809 ], [ 16.460544333699502, 54.986960354884353 ], [ 16.459863468449228, 54.991599052185599 ], [ 16.458541589190379, 54.993954348177382 ], [ 16.457948041567182, 54.994683792587736 ], [ 16.454127792007778, 54.999437146293388 ], [ 16.454159348920633, 55.000038377662911 ], [ 16.448831192479904, 55.008947746442431 ], [ 16.449757377075166, 55.015306638086734 ], [ 16.46322661562569, 55.029368728642318 ], [ 16.500002144545515, 55.04626152380645 ], [ 16.51044839253057, 55.052307214559264 ], [ 16.583319482417519, 55.061396806574471 ], [ 16.609226701574318, 55.061076768760202 ], [ 16.662917774244264, 55.073898633375151 ], [ 16.676245818250553, 55.092676376615302 ], [ 16.726600509534684, 55.114838461955969 ], [ 16.730414095664205, 55.114782971585974 ], [ 16.749821683968275, 55.104398417173577 ], [ 16.749823559404014, 55.103660625509335 ], [ 16.760801206460478, 55.098756430218351 ] ] ] } }
]
}
