{
"type": "FeatureCollection",
"name": "21028_4",
"crs": { "type": "name", "properties": { "name": "urn:ogc:def:crs:OGC:1.3:CRS84" } },
"features": [
{ "type": "Feature", "properties": { "AREA": 7882.2323344599999, "Shape_Leng": 930593.69203100004, "Shape_Area": 7882232334.460001 }, "geometry": { "type": "Polygon", "coordinates": [ [ [ 18.745399721585134, 54.643996696521079 ], [ 18.746521953595288, 54.642090502275288 ], [ 18.747904161378713, 54.641106586721939 ], [ 18.74883536140123, 54.638309411114697 ], [ 18.750000181506635, 54.637873620422226 ], [ 18.751755646585316, 54.637216813521697 ], [ 18.753068345009908, 54.636201520712575 ], [ 18.754450213358023, 54.635217536361395 ], [ 18.755380870271836, 54.632420317976816 ], [ 18.758043664040908, 54.630523871670952 ], [ 18.763742933206771, 54.622979956855119 ], [ 18.76965635256844, 54.618766081819224 ], [ 18.770776880178666, 54.61685968846718 ], [ 18.773695123049905, 54.615766594806324 ], [ 18.774624150359902, 54.612969250521786 ], [ 18.775827007289575, 54.612111770458036 ], [ 18.776127832678764, 54.612078262278665 ], [ 18.777650642815285, 54.611164098733866 ], [ 18.779235201860217, 54.610286023409245 ], [ 18.779330122743279, 54.610229034390109 ], [ 18.782851206049237, 54.609934635692149 ], [ 18.791666716567558, 54.608333352863838 ], [ 18.793199716130861, 54.605699940168357 ], [ 18.795342050170717, 54.604716765497798 ], [ 18.796324716569156, 54.602574940366679 ], [ 18.798401945729236, 54.600719089744999 ], [ 18.800036290335619, 54.596468019897877 ], [ 18.800987909928963, 54.595940163378771 ], [ 18.801458862598228, 54.595105479658081 ], [ 18.801916069508454, 54.59475102508457 ], [ 18.80483199187487, 54.593657223753191 ], [ 18.807574551044496, 54.592266497826344 ], [ 18.809869434684451, 54.59240330429833 ], [ 18.810576877970615, 54.591611633910439 ], [ 18.811810963974114, 54.59236157638049 ], [ 18.815875026851977, 54.59313429141703 ], [ 18.817477122394401, 54.594566020596623 ], [ 18.819232631691044, 54.595327358009662 ], [ 18.820934376987299, 54.59612872318727 ], [ 18.822690021131084, 54.596890009470755 ], [ 18.822809829618386, 54.596946422866232 ], [ 18.824172333697042, 54.597774004058401 ], [ 18.825747849892988, 54.598657257785959 ], [ 18.826274760348863, 54.598977268256554 ], [ 18.826814301605744, 54.601971608296417 ], [ 18.828951578578284, 54.603783953762381 ], [ 18.829580116895904, 54.607269618091749 ], [ 18.832768583474849, 54.612727963962556 ], [ 18.83184842367049, 54.621158166401251 ], [ 18.8302645747948, 54.622036929953779 ], [ 18.828734983005329, 54.624749681061473 ], [ 18.827150927433493, 54.625628403218613 ], [ 18.825620993293544, 54.628341112229677 ], [ 18.824036730972992, 54.629219792978148 ], [ 18.823606680373818, 54.630974909464506 ], [ 18.821309457187798, 54.632579569601901 ], [ 18.821390839097894, 54.633945104337961 ], [ 18.822740086305775, 54.633864700616691 ], [ 18.812210338091063, 54.63858499162955 ], [ 18.805893573136707, 54.643477933740186 ], [ 18.80537437243715, 54.643574726630334 ], [ 18.805067863004403, 54.644117415538027 ], [ 18.80481816573835, 54.644310791118606 ], [ 18.803437200569867, 54.645295327680053 ], [ 18.801944626903087, 54.646451136615781 ], [ 18.797900948685008, 54.649275609983292 ], [ 18.798149416948654, 54.649389662548643 ], [ 18.797277460283254, 54.650064717975965 ], [ 18.796038259494193, 54.650751096575021 ], [ 18.794514379375396, 54.65166548442518 ], [ 18.793733959072384, 54.652097703257432 ], [ 18.795656889819316, 54.65037983720471 ], [ 18.795008901094949, 54.648466766521999 ], [ 18.790744069089666, 54.65078457668934 ], [ 18.789092050788618, 54.65263343403322 ], [ 18.785908050230084, 54.653616607880807 ], [ 18.782213388671565, 54.654942342337414 ], [ 18.783241607504209, 54.656414553041195 ], [ 18.780486108109123, 54.657446034758948 ], [ 18.779049694312654, 54.659888861074549 ], [ 18.777567596331096, 54.659800486759224 ], [ 18.777631409054042, 54.660875442165413 ], [ 18.774274422970056, 54.661500084633737 ], [ 18.772749650449398, 54.662414196209582 ], [ 18.771162922132088, 54.663292176982885 ], [ 18.769638012633667, 54.664206248996564 ], [ 18.768051147375978, 54.665084188625158 ], [ 18.767994999651254, 54.665183371730265 ], [ 18.766122487255377, 54.665071762990934 ], [ 18.763163799590941, 54.66667943552801 ], [ 18.818003001588355, 54.66671764222292 ], [ 18.81936795805721, 54.666153702973304 ], [ 18.820675415232369, 54.663310390973315 ], [ 18.822485397497644, 54.662562457678412 ], [ 18.82379252119047, 54.659719109201745 ], [ 18.825602286527197, 54.658971127839777 ], [ 18.826916717979952, 54.654329827160147 ], [ 18.828726186347776, 54.653581797351222 ], [ 18.830032584949599, 54.650738377697976 ], [ 18.831841836508289, 54.649990301651904 ], [ 18.833147902002565, 54.647146847373648 ], [ 18.834956936805565, 54.646398723302227 ], [ 18.8362698941792, 54.641757309554713 ], [ 18.838078633812856, 54.641009139791024 ], [ 18.839383973554781, 54.638165612647505 ], [ 18.841192495016845, 54.637417394893603 ], [ 18.842504451046821, 54.632775905091329 ], [ 18.844312675977807, 54.63202764078288 ], [ 18.845624102168543, 54.627386113589488 ], [ 18.847432030686967, 54.626637800050204 ], [ 18.848756264332764, 54.618400373796874 ], [ 18.851859077033424, 54.617115561185194 ], [ 18.850646571614138, 54.59502945901265 ], [ 18.848845662718741, 54.594276616071227 ], [ 18.847577069111267, 54.587833841990005 ], [ 18.845776534057439, 54.587080951829407 ], [ 18.845288663064775, 54.58668375380563 ], [ 18.846296724495502, 54.586683168152447 ], [ 18.841440335069922, 54.581687592553905 ], [ 18.831479368742599, 54.576460073331525 ], [ 18.809678445447094, 54.572472256134411 ], [ 18.805810038143676, 54.57248858540931 ], [ 18.793157631865416, 54.565433118952079 ], [ 18.784148217166504, 54.557686161557719 ], [ 18.786545692760345, 54.557690414521723 ], [ 18.792052008752879, 54.554688419329551 ], [ 18.792917919552785, 54.551678319720111 ], [ 18.812625181948238, 54.551674419642396 ], [ 18.812786450235802, 54.551805955469753 ], [ 18.812949655128559, 54.551674328363852 ], [ 18.817508006520058, 54.551672957649146 ], [ 18.849101717195964, 54.539692617288317 ], [ 18.854983767542542, 54.53774452597596 ], [ 18.858976337801884, 54.533465740289834 ], [ 18.86314749570419, 54.527814941394851 ], [ 18.86325728963158, 54.52776936215723 ], [ 18.863381229280041, 54.527498243904695 ], [ 18.864336791882977, 54.526203450206381 ], [ 18.865282738953585, 54.524624297572061 ], [ 18.866360301235051, 54.524176897385999 ], [ 18.867659932905362, 54.521333007211354 ], [ 18.869462767711969, 54.520584349671907 ], [ 18.870767745614685, 54.515942459943552 ], [ 18.873827720768215, 54.514671397765049 ], [ 18.871760899314467, 54.513806247592974 ], [ 18.8729982884043, 54.511739205634385 ], [ 18.874789877256443, 54.504784589856456 ], [ 18.875693359621661, 54.504409177443286 ], [ 18.876386719105327, 54.500064509285963 ], [ 18.876005471659912, 54.50006451269919 ], [ 18.877007910116188, 54.496171269248563 ], [ 18.878809466102126, 54.495422468596466 ], [ 18.880107318271893, 54.492578430190619 ], [ 18.881908659607397, 54.491829582804662 ], [ 18.883206182554339, 54.488985509270961 ], [ 18.885007309292856, 54.488236614266519 ], [ 18.886299514969448, 54.487190480134117 ], [ 18.888100506305705, 54.48644153876014 ], [ 18.889402280156879, 54.481799421971843 ], [ 18.891202977846589, 54.481050434470326 ], [ 18.892494798690372, 54.480004230896313 ], [ 18.894295361030071, 54.47925519794682 ], [ 18.894943516577072, 54.477833092939235 ], [ 18.900363173672918, 54.477397185137463 ], [ 18.901878198958165, 54.476481437066106 ], [ 18.903454880237717, 54.475601712937987 ], [ 18.904969770118857, 54.474685924892654 ], [ 18.906546316016087, 54.473806161024683 ], [ 18.908061070506111, 54.472890333912126 ], [ 18.909637481037716, 54.472010529413133 ], [ 18.91115210014981, 54.471094664140104 ], [ 18.912728375334183, 54.470214817219961 ], [ 18.914242859085469, 54.469298912895198 ], [ 18.915818998929435, 54.468419027157751 ], [ 18.917333347336925, 54.467503082889998 ], [ 18.921996013075248, 54.466625187943528 ], [ 18.923510158869711, 54.465709165950557 ], [ 18.925085960433194, 54.46482915784334 ], [ 18.926599970910758, 54.463913097726035 ], [ 18.928175638722596, 54.4630330499322 ], [ 18.929689512358483, 54.462116949899404 ], [ 18.931265044891575, 54.461236861526864 ], [ 18.932778783242558, 54.46032072248628 ], [ 18.937440302304811, 54.459442229490755 ], [ 18.938953838095596, 54.458526013683326 ], [ 18.943615022667874, 54.457647283081258 ], [ 18.945128352823374, 54.456730988728154 ], [ 18.945989987908426, 54.456568512565852 ], [ 18.949789201325405, 54.455852019661215 ], [ 18.951302327395673, 54.454935647683037 ], [ 18.955962838246041, 54.454056440192183 ], [ 18.957475761781375, 54.453139991509211 ], [ 18.965221522622503, 54.452261472112255 ], [ 18.96673417167975, 54.451344906313572 ], [ 18.974479395594614, 54.450465794099138 ], [ 18.975991771702226, 54.449549113022393 ], [ 18.98373645689421, 54.44866940629327 ], [ 18.985248561582655, 54.447752609078741 ], [ 18.999163069490894, 54.446872509112083 ], [ 19.000000031035142, 54.446364816542264 ], [ 19.000000031321385, 54.378529921615588 ], [ 18.750000238877067, 54.378763451856116 ], [ 18.750000293414562, 54.41684226548422 ], [ 18.662726625065329, 54.4169409076286 ], [ 18.66000465660909, 54.419451002995459 ], [ 18.659118518668965, 54.41997169616095 ], [ 18.65768677521703, 54.42097528582336 ], [ 18.613757276202939, 54.42108315247502 ], [ 18.612176512008041, 54.421959094773555 ], [ 18.610657063890592, 54.422871210147434 ], [ 18.609076164782675, 54.42374711229246 ], [ 18.607556581686865, 54.424659187275445 ], [ 18.605975547668795, 54.425535047461132 ], [ 18.604455831104438, 54.42644708384848 ], [ 18.602874660602907, 54.42732290385986 ], [ 18.6013548074888, 54.428234899835758 ], [ 18.599773503581769, 54.429110678776098 ], [ 18.59825351543622, 54.430022635236817 ], [ 18.596672076576457, 54.430898372194235 ], [ 18.595151954926635, 54.431810289137161 ], [ 18.593570379531364, 54.432685986795569 ], [ 18.592050121278344, 54.433597864202611 ], [ 18.590468412443858, 54.434473519867531 ], [ 18.588948020656932, 54.435385357741339 ], [ 18.587366175285023, 54.436260971394525 ], [ 18.585827510619229, 54.438970715206878 ], [ 18.584245460360396, 54.43984628712272 ], [ 18.582724729613865, 54.440758046169933 ], [ 18.581142545849655, 54.441633576965103 ], [ 18.579603267515274, 54.444343238007136 ], [ 18.577197461386842, 54.445674349072675 ], [ 18.580389867113766, 54.447483481507348 ], [ 18.577983903337646, 54.448814607260736 ], [ 18.57646270053614, 54.449726285295426 ], [ 18.574880036848956, 54.45060173192487 ], [ 18.573358698837541, 54.451513370371856 ], [ 18.571775900005964, 54.452388776742559 ], [ 18.570216762720925, 54.456896246461028 ], [ 18.56711268870799, 54.458612606650561 ], [ 18.568529489705949, 54.467678238539058 ], [ 18.570094480908374, 54.468564817391652 ], [ 18.571578582061594, 54.471285082281511 ], [ 18.571930860661382, 54.471353045070586 ], [ 18.572003733069621, 54.47159501875754 ], [ 18.572837795916879, 54.471528007236046 ], [ 18.577453466646975, 54.472418316908005 ], [ 18.574637723002482, 54.473974885055824 ], [ 18.573096789966858, 54.476684444804043 ], [ 18.570688870163508, 54.478015415340458 ], [ 18.572812187984653, 54.479217945583322 ], [ 18.572434539843055, 54.479893637545516 ], [ 18.573810196807148, 54.479783127783179 ], [ 18.574572970940242, 54.480215075981164 ], [ 18.573040613765727, 54.482078232630244 ], [ 18.570632374339162, 54.483409200276782 ], [ 18.574516981700768, 54.485608861671132 ], [ 18.572928205667978, 54.492865793634316 ], [ 18.571343794292503, 54.493741184538898 ], [ 18.569801893285423, 54.496450691657657 ], [ 18.568217276256615, 54.497326041597134 ], [ 18.566675032436105, 54.500035507505359 ], [ 18.566647999876992, 54.500050438225514 ], [ 18.565090209732677, 54.500910814666973 ], [ 18.563566782052018, 54.501822318405317 ], [ 18.56198182379816, 54.502697584317268 ], [ 18.560419664847018, 54.507204885339931 ], [ 18.557311359355555, 54.508920971644372 ], [ 18.557942002053778, 54.509712141182234 ], [ 18.556764780392982, 54.510726311187966 ], [ 18.555767872073133, 54.515965542756803 ], [ 18.560976205298839, 54.517148734544591 ], [ 18.562262521680641, 54.522810382020033 ], [ 18.560893809033349, 54.52653772209073 ], [ 18.561309356067994, 54.531709307781938 ], [ 18.557427010676477, 54.532878257744194 ], [ 18.555767871709577, 54.537603905135384 ], [ 18.562197416917769, 54.539064552674873 ], [ 18.564023893990882, 54.541184634247912 ], [ 18.564080777418212, 54.541233645333989 ], [ 18.56460252688731, 54.546775619433888 ], [ 18.567676888361699, 54.548514056363786 ], [ 18.56614164066157, 54.550377099210706 ], [ 18.564554851446104, 54.551252389369253 ], [ 18.563029530458291, 54.552163874371303 ], [ 18.561442603736563, 54.553039122299637 ], [ 18.560409209083364, 54.557154012547421 ], [ 18.559381153930961, 54.558039746833707 ], [ 18.559936636916895, 54.559035472839497 ], [ 18.55985906950475, 54.559344277506852 ], [ 18.558271797031267, 54.560219482170901 ], [ 18.557680283907317, 54.562573776148867 ], [ 18.556575062822432, 54.563190351560515 ], [ 18.556805489520265, 54.566055052952372 ], [ 18.556687491005913, 54.566524586944553 ], [ 18.55509986950257, 54.567399749207496 ], [ 18.553514789599031, 54.573704802602542 ], [ 18.551926820457389, 54.574579920647615 ], [ 18.550778204035716, 54.579146763009589 ], [ 18.548938452512267, 54.581657634921953 ], [ 18.548752649143356, 54.581759999123022 ], [ 18.548694712326146, 54.581990263580323 ], [ 18.547357226571602, 54.583815402358418 ], [ 18.546151783082991, 54.586516462424498 ], [ 18.542148894432451, 54.589023736563625 ], [ 18.537323557222667, 54.592802829797535 ], [ 18.532685901958889, 54.600846119305068 ], [ 18.530690561469459, 54.602565403088853 ], [ 18.529726205519069, 54.605767968065592 ], [ 18.526000517848775, 54.610525404742496 ], [ 18.528637235575705, 54.612797311150082 ], [ 18.529648893510203, 54.616761926023536 ], [ 18.520273894132703, 54.618190403759371 ], [ 18.519026233026359, 54.620985812924765 ], [ 18.519664558715849, 54.625482070378254 ], [ 18.523398893157967, 54.623398736277011 ], [ 18.5258657306806, 54.622298070051009 ], [ 18.527604215656496, 54.622437687420565 ], [ 18.528645882898541, 54.622354018738278 ], [ 18.529892016404265, 54.622454090571203 ], [ 18.529598031163218, 54.626113784784167 ], [ 18.52977180013756, 54.626191324915368 ], [ 18.529355783137028, 54.626485755676569 ], [ 18.529312737858433, 54.626829176711823 ], [ 18.528135160799266, 54.62747683925371 ], [ 18.528970904189801, 54.629556149542417 ], [ 18.52863559252317, 54.632230728114706 ], [ 18.525357005792987, 54.634550724206171 ], [ 18.52994953932998, 54.642771199905809 ], [ 18.534906856542129, 54.642370316763738 ], [ 18.535498192929655, 54.643451540041582 ], [ 18.535399900064487, 54.646566372534473 ], [ 18.534807354835785, 54.646892194396791 ], [ 18.53537942318686, 54.647215191634352 ], [ 18.534966354386857, 54.660298796017351 ], [ 18.533515730013391, 54.666696510965792 ], [ 18.69913708672593, 54.666708367511532 ], [ 18.703285865614713, 54.664376618912456 ], [ 18.708782004809013, 54.662836609921953 ], [ 18.718042791554122, 54.660346129994984 ], [ 18.727855406574449, 54.652767021601008 ], [ 18.734161066922958, 54.649218902340358 ], [ 18.742381175321771, 54.646145210409138 ], [ 18.745399721585134, 54.643996696521079 ] ], [ [ 18.532063343318868, 54.615981566096401 ], [ 18.533333381897876, 54.61562501941264 ], [ 18.532976835953264, 54.616895059032743 ], [ 18.532063343318868, 54.615981566096401 ] ] ] } }
]
}
