{
"type": "FeatureCollection",
"name": "21028_3",
"crs": { "type": "name", "properties": { "name": "urn:ogc:def:crs:OGC:1.3:CRS84" } },
"features": [
{ "type": "Feature", "properties": { "AREA": 7882.2323344599999, "Shape_Leng": 930593.69203100004, "Shape_Area": 7882232334.460001 }, "geometry": { "type": "Polygon", "coordinates": [ [ [ 18.006441443899014, 55.02320224077009 ], [ 18.008337235896889, 55.023182056995452 ], [ 18.009805801275313, 55.023221652971593 ], [ 18.00999191104, 55.023222723897995 ], [ 18.021995329442134, 55.023714822367097 ], [ 18.020943718735005, 55.021838033332699 ], [ 18.019621801312649, 55.020950257017901 ], [ 18.014795130112393, 55.019321150869494 ], [ 18.009188142086092, 55.01851058395949 ], [ 18.00285818286978, 55.017706523604751 ], [ 18.001744594911386, 55.000001674797794 ], [ 18.000000028432151, 54.999999894812703 ], [ 18.000000035788844, 54.999692031182228 ], [ 18.000000299348777, 54.988553438425541 ], [ 17.750000366517721, 54.988571476054453 ], [ 17.704782886555172, 54.988434912429149 ], [ 17.702735987733544, 54.990247685224446 ], [ 17.718461431396133, 54.992510150540866 ], [ 17.720224417209579, 54.992838014735675 ], [ 17.721985117593736, 54.993240301464077 ], [ 17.723696324960759, 54.993707911245821 ], [ 17.725003197010214, 54.994127317811405 ], [ 17.724018294579036, 54.994144823614207 ], [ 17.721741545282921, 54.994289413068373 ], [ 17.719491776473966, 54.994536982302904 ], [ 17.717283053119701, 54.994885983910095 ], [ 17.715129181952637, 54.995334235842108 ], [ 17.713043631713251, 54.995878936669378 ], [ 17.711039440865243, 54.99651667978582 ], [ 17.709129146787859, 54.997243478610052 ], [ 17.707324694660748, 54.998054788858674 ], [ 17.705637377332099, 54.998945537428668 ], [ 17.704077749944631, 54.999910155497901 ], [ 17.703900925358084, 55.000038529184842 ], [ 17.702655577395614, 55.00094260926749 ], [ 17.701379762513977, 55.002036443106164 ], [ 17.7002582978674, 55.003184815727202 ], [ 17.699298212539372, 55.004380543529173 ], [ 17.698505524965277, 55.005616147605444 ], [ 17.697885211475498, 55.006883896440932 ], [ 17.697441168141438, 55.008175860241607 ], [ 17.697176190144727, 55.009483953785185 ], [ 17.697091955359049, 55.010799992823962 ], [ 17.697178248664727, 55.028534803846689 ], [ 17.697063497512065, 55.056744977839351 ], [ 17.697063418612725, 55.056778845291625 ], [ 17.697050833239778, 55.080224047538522 ], [ 17.697139964453775, 55.081532954839233 ], [ 17.697408232862553, 55.082833788470012 ], [ 17.697853997749437, 55.084118491844272 ], [ 17.698474512467619, 55.085379109077017 ], [ 17.699265950666057, 55.086607830280741 ], [ 17.70022342449051, 55.087797043987784 ], [ 17.701341017149876, 55.088939383446466 ], [ 17.702611817223438, 55.090027769359224 ], [ 17.704027962264806, 55.091055458127464 ], [ 17.705580689014027, 55.092016082086111 ], [ 17.707260382213448, 55.092903687032994 ], [ 17.709056639150621, 55.093712770827224 ], [ 17.710958334348632, 55.094438320189631 ], [ 17.71295368469147, 55.095075836714898 ], [ 17.715030325428696, 55.09562136838376 ], [ 17.717175386520093, 55.09607153297523 ], [ 17.719375570619295, 55.096423541479993 ], [ 17.721617239358824, 55.096675208996601 ], [ 17.723886496179752, 55.096824977256261 ], [ 17.726169273025391, 55.096871915589453 ], [ 17.728451413498373, 55.096815735314891 ], [ 17.750001318060058, 55.095794764477922 ], [ 17.7524027935936, 55.095680750235609 ], [ 17.779463833230334, 55.094399982123441 ], [ 17.860146762264851, 55.090580839820973 ], [ 17.907103619371195, 55.088365069849615 ], [ 17.943109377325754, 55.086653615049947 ], [ 17.994663362205266, 55.084214654570651 ], [ 17.996918712341902, 55.084056249189928 ], [ 17.997580853565992, 55.08397918632442 ], [ 17.999145518232666, 55.083797067112087 ], [ 18.000001083117077, 55.083656723234093 ], [ 18.001330112389486, 55.083438699596392 ], [ 18.003459086244192, 55.082983346844799 ], [ 18.00551937717475, 55.08243380245321 ], [ 18.007498341352445, 55.081793439524219 ], [ 18.009383839265162, 55.081066187876232 ], [ 18.011164302351908, 55.080256511983109 ], [ 18.012828812362319, 55.079369378218075 ], [ 18.014367163134917, 55.07841023273447 ], [ 18.015769925955791, 55.077384957796411 ], [ 18.017028504989288, 55.076299846008112 ], [ 18.018135191587831, 55.07516155296247 ], [ 18.0190832072456, 55.073977062390746 ], [ 18.019866753049897, 55.07275363878999 ], [ 18.02048104011153, 55.07149878620357 ], [ 18.020922313845539, 55.070220199777594 ], [ 18.021187887511253, 55.06892572100692 ], [ 18.021276147695442, 55.067623285584851 ], [ 18.021272636212931, 55.060706138077897 ], [ 18.021261336564205, 55.039021346952879 ], [ 18.021175101294869, 55.037743203458184 ], [ 18.020918250889078, 55.03647263463322 ], [ 18.020492319756876, 55.035217141750046 ], [ 18.019899836015199, 55.033984134519358 ], [ 18.019144314225287, 55.032780889733843 ], [ 18.018230226233257, 55.031614510652879 ], [ 18.017162978511852, 55.030491878365595 ], [ 18.01594888296594, 55.029419616600499 ], [ 18.014595113803782, 55.028404052838958 ], [ 18.013109667648951, 55.027451177666009 ], [ 18.011501315680317, 55.026566613052736 ], [ 18.00977955284981, 55.025755575224046 ], [ 18.007954542195396, 55.025022849172849 ], [ 18.006037053125997, 55.024372756829045 ], [ 18.004038398060867, 55.02380913150045 ], [ 18.002559905632658, 55.023470377802454 ], [ 18.002676991213608, 55.02345570273809 ], [ 18.002835267131953, 55.023442018606232 ], [ 18.004552002358874, 55.023293585758012 ], [ 18.006441443899014, 55.02320224077009 ] ] ] } }
]
}
