{
"type": "FeatureCollection",
"name": "21077",
"crs": { "type": "name", "properties": { "name": "urn:ogc:def:crs:OGC:1.3:CRS84" } },
"features": [
{ "type": "Feature", "properties": { "area_km2": 5.1611799883099998, "PROJECT_NO": 21077.0, "NAME": "FSRU", "TYPE": "OTH", "NO": 0, "status": "COMPLETED", "geotechnic": "x", "ORIG_FID": 29, "Shape_Leng": 10724.2030067, "Shape_Area": 5161179.9883099999 }, "geometry": { "type": "MultiPolygon", "coordinates": [ [ [ [ 18.778985954650931, 54.395478504834934, 0.0 ], [ 18.778605484175902, 54.383483307279285, 0.0 ], [ 18.773626799154222, 54.370379837715404, 0.0 ], [ 18.771473529101772, 54.370528042488445, 0.0 ], [ 18.772200943117671, 54.367333416188352, 0.0 ], [ 18.76648102453996, 54.366889238284031, 0.0 ], [ 18.765441086149366, 54.371453454646023, 0.0 ], [ 18.762833699056625, 54.371891313864182, 0.0 ], [ 18.759018348533914, 54.384334681939784, 0.0 ], [ 18.753926793282051, 54.385397923231778, 0.0 ], [ 18.752540190588377, 54.39382557792451, 0.0 ], [ 18.751612290174307, 54.396184703613628, 0.0 ], [ 18.752780195518259, 54.39909003152664, 0.0 ], [ 18.758296393087033, 54.402098364964615, 0.0 ], [ 18.779307086397029, 54.405599885292766, 0.0 ], [ 18.778985954650931, 54.395478504834934, 0.0 ] ] ] ] } }
]
}
