{
"type": "FeatureCollection",
"name": "22007",
"crs": { "type": "name", "properties": { "name": "urn:ogc:def:crs:OGC:1.3:CRS84" } },
"features": [
{ "type": "Feature", "properties": { "area_km2": 122.33818395500001, "PROJECT_NO": 22007.0, "NAME": "Bałtyk II, Bałtyk III (Equinor)", "TYPE": "CON", "NO": 19, "status": "COMPLETED", "geotechnic": null, "ORIG_FID": 4, "Shape_Leng": 242529.37999300001, "Shape_Area": 122338183.955 }, "geometry": { "type": "MultiPolygon", "coordinates": [ [ [ [ 16.819450833180674, 54.582096660059285, 0.0 ], [ 16.819336942920096, 54.58206958467963, 0.0 ], [ 16.819007271284779, 54.581991211520744, 0.0 ], [ 16.818850277061784, 54.581953889267645, 0.0 ], [ 16.818516347517129, 54.581853840391823, 0.0 ], [ 16.818383469690126, 54.581814029116295, 0.0 ], [ 16.817990515008695, 54.581696292879712, 0.0 ], [ 16.817916667147795, 54.58167416631953, 0.0 ], [ 16.817539166034674, 54.581553333563932, 0.0 ], [ 16.817205844293351, 54.581446640674528, 0.0 ], [ 16.817161667178762, 54.581432499648557, 0.0 ], [ 16.816874665270451, 54.581363304166537, 0.0 ], [ 16.81614102426375, 54.581186421709404, 0.0 ], [ 16.816022222425591, 54.581157778033869, 0.0 ], [ 16.815517359887249, 54.581072501762264, 0.0 ], [ 16.815026650555222, 54.580989612753974, 0.0 ], [ 16.815012499558705, 54.58098722250368, 0.0 ], [ 16.814741672639496, 54.580960199139767, 0.0 ], [ 16.814353489348186, 54.58092146429366, 0.0 ], [ 16.814330909847207, 54.580919211230679, 0.0 ], [ 16.814227301947998, 54.58090887260547, 0.0 ], [ 16.814110299459713, 54.580897197562727, 0.0 ], [ 16.813982500081103, 54.580884444311373, 0.0 ], [ 16.813920595223763, 54.580882298847136, 0.0 ], [ 16.813800991358136, 54.58087815486234, 0.0 ], [ 16.813654086358984, 54.580873063286305, 0.0 ], [ 16.813535933485362, 54.580868968640026, 0.0 ], [ 16.813328460262071, 54.580861778510915, 0.0 ], [ 16.813030966848778, 54.580851468097734, 0.0 ], [ 16.811882778155052, 54.580811388496322, 0.0 ], [ 16.811745199792185, 54.580799492767582, 0.0 ], [ 16.811467554754277, 54.580775486776929, 0.0 ], [ 16.811260093548956, 54.580757548893033, 0.0 ], [ 16.811055930028175, 54.580739895115613, 0.0 ], [ 16.810848333640337, 54.58072194418493, 0.0 ], [ 16.810586971500115, 54.580679353216325, 0.0 ], [ 16.810403430793265, 54.5806494424289, 0.0 ], [ 16.81018734466867, 54.580614228716769, 0.0 ], [ 16.809963648897472, 54.580577774454355, 0.0 ], [ 16.809835833034196, 54.580556944473727, 0.0 ], [ 16.809647186086025, 54.580526262996408, 0.0 ], [ 16.809462678284806, 54.580496254129905, 0.0 ], [ 16.809329443524675, 54.580474584558004, 0.0 ], [ 16.809012103885337, 54.580422970122356, 0.0 ], [ 16.808192634291462, 54.580289478210226, 0.0 ], [ 16.808000613352931, 54.580258195297411, 0.0 ], [ 16.807810555962092, 54.580227221910327, 0.0 ], [ 16.806798055946985, 54.580062222618658, 0.0 ], [ 16.805886018855013, 54.5799136352164, 0.0 ], [ 16.805279027773469, 54.579814862200315, 0.0 ], [ 16.804772778540666, 54.579732499960393, 0.0 ], [ 16.803760277617315, 54.579567500161374, 0.0 ], [ 16.803667888909494, 54.579550432333789, 0.0 ], [ 16.803259582855979, 54.579475001366497, 0.0 ], [ 16.802758888916408, 54.579382499592526, 0.0 ], [ 16.802074444377748, 54.579233889301854, 0.0 ], [ 16.800788888724647, 54.578954444563109, 0.0 ], [ 16.800475837603621, 54.578886361021596, 0.0 ], [ 16.800296525989332, 54.578847362359717, 0.0 ], [ 16.799311664478928, 54.578633335058235, 0.0 ], [ 16.798819167296106, 54.578526389088829, 0.0 ], [ 16.798606651687404, 54.578479770930173, 0.0 ], [ 16.797860995267083, 54.578316197523279, 0.0 ], [ 16.797835277458063, 54.578310555420153, 0.0 ], [ 16.797344720542092, 54.578200695632695, 0.0 ], [ 16.796903883594677, 54.578101967616277, 0.0 ], [ 16.796854166361218, 54.578090832980173, 0.0 ], [ 16.79661018684407, 54.578021658388657, 0.0 ], [ 16.796185817191311, 54.5779013376956, 0.0 ], [ 16.795909721837194, 54.577823055851816, 0.0 ], [ 16.795863806548141, 54.577808945404627, 0.0 ], [ 16.795445137750814, 54.577680278918002, 0.0 ], [ 16.794980555402876, 54.577537500198673, 0.0 ], [ 16.794748209041131, 54.577458773083713, 0.0 ], [ 16.794193770177795, 54.577270907821223, 0.0 ], [ 16.794072221960171, 54.577229722232829, 0.0 ], [ 16.793791293618987, 54.577134649315973, 0.0 ], [ 16.793509062403121, 54.577039133844579, 0.0 ], [ 16.793408175212384, 54.577004990141951, 0.0 ], [ 16.793401410862664, 54.577002701499637, 0.0 ], [ 16.793278324786812, 54.576961044642779, 0.0 ], [ 16.793207833189772, 54.576937188096196, 0.0 ], [ 16.793174166764732, 54.576925794415004, 0.0 ], [ 16.793152142503843, 54.576918570457885, 0.0 ], [ 16.793034989532966, 54.576881272970262, 0.0 ], [ 16.793016467606336, 54.576875376249674, 0.0 ], [ 16.792702498091149, 54.576775417796256, 0.0 ], [ 16.792434648904496, 54.576690140537494, 0.0 ], [ 16.79224138813036, 54.576628611171351, 0.0 ], [ 16.791879417210932, 54.576514483517322, 0.0 ], [ 16.791779303323345, 54.576482917944553, 0.0 ], [ 16.791127143849895, 54.576277292027818, 0.0 ], [ 16.790393056233341, 54.57604583300116, 0.0 ], [ 16.790055367457331, 54.575939362040074, 0.0 ], [ 16.78900680404444, 54.575608751558697, 0.0 ], [ 16.788544721925842, 54.57546305568129, 0.0 ], [ 16.788196111206481, 54.575353055444474, 0.0 ], [ 16.787459579434639, 54.575102779978621, 0.0 ], [ 16.786723055227572, 54.574852500074094, 0.0 ], [ 16.785815834049369, 54.574543888822802, 0.0 ], [ 16.784908333787623, 54.574235278105178, 0.0 ], [ 16.784487638231401, 54.574053889748072, 0.0 ], [ 16.784066944885016, 54.573872499929202, 0.0 ], [ 16.783638887685772, 54.573697500951333, 0.0 ], [ 16.783210832679519, 54.57352249956142, 0.0 ], [ 16.782755553742099, 54.57336972300903, 0.0 ], [ 16.782300278243213, 54.573216944771183, 0.0 ], [ 16.781384166906392, 54.572918055615261, 0.0 ], [ 16.780410832976973, 54.57268666687888, 0.0 ], [ 16.779441944023283, 54.572449444071871, 0.0 ], [ 16.779042578577567, 54.572351008344214, 0.0 ], [ 16.778957915125499, 54.572330140018629, 0.0 ], [ 16.778593004653477, 54.572240194388385, 0.0 ], [ 16.778014165651129, 54.572068472913472, 0.0 ], [ 16.777554443847354, 54.571926110923684, 0.0 ], [ 16.777142776472495, 54.571738056285604, 0.0 ], [ 16.776649999465224, 54.572391670741865, 0.0 ], [ 16.845191940179976, 54.621265000510668, 0.0 ], [ 16.913313881928072, 54.854355535922231, 0.0 ], [ 16.91331383897969, 54.854355522596123, 0.0 ], [ 16.926033370169772, 54.897877799656662, 0.0 ], [ 16.914977701960872, 54.969738916456521, 0.0 ], [ 16.840655613802518, 55.03540558114527, 0.0 ], [ 16.851809073366386, 55.03521244880455, 0.0 ], [ 16.850284007837363, 55.037500943721241, 0.0 ], [ 16.849285146764775, 55.064664052207213, 0.0 ], [ 16.849834794720046, 55.068131034744823, 0.0 ], [ 16.85353622240271, 55.072012376079847, 0.0 ], [ 16.868189688511475, 55.08016689140392, 0.0 ], [ 16.871176091050764, 55.087955491584928, 0.0 ], [ 16.878048748926357, 55.094243915872525, 0.0 ], [ 16.891354163528547, 55.089496954163863, 0.0 ], [ 16.886108422927954, 55.084542847631589, 0.0 ], [ 16.882923776718691, 55.075337196408654, 0.0 ], [ 16.865629447764956, 55.065637487933664, 0.0 ], [ 16.866002526999107, 55.039432410691973, 0.0 ], [ 16.869471377587029, 55.033318102291382, 0.0 ], [ 17.130319519512355, 54.985313923201474, 0.0 ], [ 17.177686156781022, 54.976230545497955, 0.0 ], [ 17.187441651170161, 54.978194450023054, 0.0 ], [ 17.260155561178468, 54.989413893452713, 0.0 ], [ 17.264388907733881, 54.980777821970008, 0.0 ], [ 17.191288917317706, 54.969561070316672, 0.0 ], [ 17.177811070942639, 54.966822200608505, 0.0 ], [ 17.125513930238995, 54.976716678004749, 0.0 ], [ 16.87720284450922, 55.02086112912238, 0.0 ], [ 16.930405504745274, 54.972455582543944, 0.0 ], [ 16.941702829745239, 54.897586072704549, 0.0 ], [ 16.938697210120701, 54.887241654580464, 0.0 ], [ 17.125560954193144, 54.918422173993697, 0.0 ], [ 17.125561109679822, 54.91842222044761, 0.0 ], [ 17.224638889670082, 54.934841671034135, 0.0 ], [ 17.282619439601408, 54.945116670878392, 0.0 ], [ 17.283081240222007, 54.945169789096688, 0.0 ], [ 17.283444533909066, 54.945650016814589, 0.0 ], [ 17.286729441262469, 54.950281379357108, 0.0 ], [ 17.297354418660131, 54.960332303126108, 0.0 ], [ 17.305564052808968, 54.962865074518596, 0.0 ], [ 17.343989550575632, 54.973692777590983, 0.0 ], [ 17.349630502515275, 54.985146791083849, 0.0 ], [ 17.345349800999809, 54.99719536219564, 0.0 ], [ 17.360627119356497, 54.998789150407788, 0.0 ], [ 17.366363427936854, 54.985502056399923, 0.0 ], [ 17.363870592260621, 54.976213456613117, 0.0 ], [ 17.359921310144401, 54.970124882884654, 0.0 ], [ 17.352023363106134, 54.965163766063817, 0.0 ], [ 17.311609728460052, 54.954177423463818, 0.0 ], [ 17.302236094185456, 54.947648867167594, 0.0 ], [ 17.299672962730792, 54.944744756194019, 0.0 ], [ 17.297308951136756, 54.941015015807331, 0.0 ], [ 17.298613889438144, 54.93837222123166, 0.0 ], [ 17.228780559959233, 54.926222220501145, 0.0 ], [ 17.054049999826322, 54.89705556071695, 0.0 ], [ 17.054050047153972, 54.897055582154501, 0.0 ], [ 16.935808332657061, 54.877277740359986, 0.0 ], [ 16.930647233408909, 54.859661098357222, 0.0 ], [ 16.864152220454326, 54.632879170862019, 0.0 ], [ 16.853333330027318, 54.628333330718363, 0.0 ], [ 16.852787220103949, 54.612647220742268, 0.0 ], [ 16.831941669919171, 54.598530561276213, 0.0 ], [ 16.832256134225737, 54.585986193951385, 0.0 ], [ 16.831821327426816, 54.585898908526893, 0.0 ], [ 16.831430238665153, 54.585820397978146, 0.0 ], [ 16.830591829462058, 54.585580942667058, 0.0 ], [ 16.830228894090141, 54.585419574026744, 0.0 ], [ 16.829574533572561, 54.585052509574247, 0.0 ], [ 16.829068913791843, 54.584850223751722, 0.0 ], [ 16.82854191152467, 54.584635913834852, 0.0 ], [ 16.828014913276853, 54.58442160163785, 0.0 ], [ 16.827487451601755, 54.584237067896723, 0.0 ], [ 16.826959994783611, 54.584052530995784, 0.0 ], [ 16.826366413653819, 54.583867979902323, 0.0 ], [ 16.825772837995867, 54.583683425041848, 0.0 ], [ 16.825120684470356, 54.583505397042494, 0.0 ], [ 16.824699665571323, 54.583390462282345, 0.0 ], [ 16.824468538254504, 54.583327365602479, 0.0 ], [ 16.823493216510286, 54.583067606822489, 0.0 ], [ 16.823408704883871, 54.583045098501522, 0.0 ], [ 16.82331616089126, 54.583022056258187, 0.0 ], [ 16.823024221740244, 54.582949365344525, 0.0 ], [ 16.822774166486198, 54.582887222312969, 0.0 ], [ 16.82261778226626, 54.582850033788425, 0.0 ], [ 16.822396488556961, 54.582797408456052, 0.0 ], [ 16.822188961267415, 54.582748056287265, 0.0 ], [ 16.822035530003024, 54.582711569368605, 0.0 ], [ 16.821785411493892, 54.582652087417003, 0.0 ], [ 16.821585921937331, 54.582604645815714, 0.0 ], [ 16.821333155540657, 54.582544533464059, 0.0 ], [ 16.821082577412565, 54.582484941053252, 0.0 ], [ 16.820796666528821, 54.58241694450772, 0.0 ], [ 16.82046044222249, 54.582336897243543, 0.0 ], [ 16.820213104609604, 54.582278010598962, 0.0 ], [ 16.819823611581345, 54.58218527815702, 0.0 ], [ 16.819450833180674, 54.582096660059285, 0.0 ] ] ] ] } }
]
}
