{
"type": "FeatureCollection",
"name": "22011",
"crs": { "type": "name", "properties": { "name": "urn:ogc:def:crs:OGC:1.3:CRS84" } },
"features": [
{ "type": "Feature", "properties": { "area_km2": 1.15250005845, "PROJECT_NO": 22011.0, "NAME": "Equinor nearshore geotechnika", "TYPE": "OTH", "NO": 0, "status": "COMPLETED", "geotechnic": "x", "ORIG_FID": 1, "Shape_Leng": 4643.8997882599997, "Shape_Area": 1152500.0584499999 }, "geometry": { "type": "MultiPolygon", "coordinates": [ [ [ [ 16.809165328799764, 54.580011230995133, 0.0 ], [ 16.80242967620519, 54.578987317394002, 0.0 ], [ 16.798477354899415, 54.587707518910904, 0.0 ], [ 16.798383736661325, 54.587905564419877, 0.0 ], [ 16.801256485401417, 54.589955009474203, 0.0 ], [ 16.801918717860271, 54.590055677972188, 0.0 ], [ 16.804163489810193, 54.590396882413415, 0.0 ], [ 16.806408298856919, 54.590738044607079, 0.0 ], [ 16.808647450957519, 54.591091716608517, 0.0 ], [ 16.820224381281854, 54.592921659744235, 0.0 ], [ 16.809165328799764, 54.580011230995133, 0.0 ] ] ] ] } }
]
}
