{
"type": "FeatureCollection",
"name": "22023",
"crs": { "type": "name", "properties": { "name": "urn:ogc:def:crs:OGC:1.3:CRS84" } },
"features": [
{ "type": "Feature", "properties": { "area_km2": 0.88976716305000003, "PROJECT_NO": 22023.0, "NAME": "Port Gdańsk", "TYPE": "OTH", "NO": 0, "status": "COMPLETED", "geotechnic": null, "ORIG_FID": 32, "Shape_Leng": 15390.720773200001, "Shape_Area": 889767.16305199999 }, "geometry": { "type": "MultiPolygon", "coordinates": [ [ [ [ 18.66085824555342, 54.412150649772748, 0.0 ], [ 18.661465479058066, 54.409867071957898, 0.0 ], [ 18.661630153004662, 54.409578190399181, 0.0 ], [ 18.661719189290316, 54.409420380310074, 0.0 ], [ 18.661828215410168, 54.409235811494256, 0.0 ], [ 18.662051949433373, 54.408861504888797, 0.0 ], [ 18.66217531555931, 54.408689574527166, 0.0 ], [ 18.662268249124555, 54.408569009015515, 0.0 ], [ 18.662421357495152, 54.408383786156605, 0.0 ], [ 18.663293249786449, 54.407455215355469, 0.0 ], [ 18.663430291016461, 54.407326071309974, 0.0 ], [ 18.663812543210021, 54.406974624172769, 0.0 ], [ 18.66432359656099, 54.406608771277199, 0.0 ], [ 18.664403380960852, 54.406561866221686, 0.0 ], [ 18.664685941282151, 54.406401198602062, 0.0 ], [ 18.664944503259473, 54.406253207152474, 0.0 ], [ 18.665078312708424, 54.406193685629013, 0.0 ], [ 18.665240625252522, 54.406120934981693, 0.0 ], [ 18.665443044932374, 54.406030206327337, 0.0 ], [ 18.66562933162087, 54.405946708323711, 0.0 ], [ 18.665772681757279, 54.405896798538635, 0.0 ], [ 18.666121748840911, 54.405775380558929, 0.0 ], [ 18.66627573567602, 54.405718827160825, 0.0 ], [ 18.666369328286528, 54.405689423038758, 0.0 ], [ 18.666566131509686, 54.405638126249713, 0.0 ], [ 18.667118928234647, 54.405494038241294, 0.0 ], [ 18.667151556303232, 54.405485533669577, 0.0 ], [ 18.667167284332834, 54.405482663335135, 0.0 ], [ 18.667410756947422, 54.405438301936869, 0.0 ], [ 18.667509379565324, 54.405420333547312, 0.0 ], [ 18.667678903545152, 54.405389445486861, 0.0 ], [ 18.667948620596576, 54.405340302380708, 0.0 ], [ 18.679460721384125, 54.403665327338693, 0.0 ], [ 18.681720564938786, 54.4020777840798, 0.0 ], [ 18.681806440792268, 54.4010181833102, 0.0 ], [ 18.682613554753434, 54.400103089152239, 0.0 ], [ 18.680695480796633, 54.397560351992034, 0.0 ], [ 18.679426023891804, 54.397403233704068, 0.0 ], [ 18.671762661492341, 54.391147311645426, 0.0 ], [ 18.672248552116038, 54.389217054028826, 0.0 ], [ 18.670596633433469, 54.388960580758969, 0.0 ], [ 18.670561367750874, 54.389032213698997, 0.0 ], [ 18.669386900297695, 54.38920108929824, 0.0 ], [ 18.662048821103642, 54.383218351381153, 0.0 ], [ 18.661681711219732, 54.382162882758081, 0.0 ], [ 18.661434168668208, 54.380484505368578, 0.0 ], [ 18.661390303917219, 54.380039245910218, 0.0 ], [ 18.661350902580427, 54.379926560536099, 0.0 ], [ 18.66134256289951, 54.379850421603855, 0.0 ], [ 18.661794124807457, 54.37762182319014, 0.0 ], [ 18.666735072215719, 54.366461274611417, 0.0 ], [ 18.666009706018141, 54.362322560207488, 0.0 ], [ 18.666072662027222, 54.362231515216727, 0.0 ], [ 18.666111109794624, 54.362162534286718, 0.0 ], [ 18.666117591958308, 54.36214777065927, 0.0 ], [ 18.666147076371004, 54.362079445477889, 0.0 ], [ 18.666164102828276, 54.362025279440225, 0.0 ], [ 18.666174456314906, 54.361991753345237, 0.0 ], [ 18.666189028808454, 54.361915570903541, 0.0 ], [ 18.66619722720657, 54.36181614305854, 0.0 ], [ 18.666193345134914, 54.361729903578173, 0.0 ], [ 18.666180907927831, 54.361651343175069, 0.0 ], [ 18.666155362205291, 54.36155766469092, 0.0 ], [ 18.666114706452852, 54.361460119111825, 0.0 ], [ 18.666075061783431, 54.361385789707157, 0.0 ], [ 18.666002909643925, 54.361281324465438, 0.0 ], [ 18.66620559797969, 54.361186961990882, 0.0 ], [ 18.666147956046213, 54.361122747072741, 0.0 ], [ 18.666135250832681, 54.361108592948007, 0.0 ], [ 18.666116237507538, 54.361090229280791, 0.0 ], [ 18.666057931311666, 54.361034686150866, 0.0 ], [ 18.665962255869463, 54.360955357811903, 0.0 ], [ 18.665911540147054, 54.360919047504694, 0.0 ], [ 18.665866312823052, 54.360886666666772, 0.0 ], [ 18.665794841384809, 54.36084188500196, 0.0 ], [ 18.665759173283071, 54.3608196103133, 0.0 ], [ 18.665646392965854, 54.360757969173136, 0.0 ], [ 18.665455562435838, 54.360846749245333, 0.0 ], [ 18.665409014232154, 54.360823716100114, 0.0 ], [ 18.665392650980099, 54.360816294348915, 0.0 ], [ 18.665375755541945, 54.360808630184998, 0.0 ], [ 18.665345601124326, 54.360794951729616, 0.0 ], [ 18.665315365441558, 54.360781236181829, 0.0 ], [ 18.665287952229722, 54.360768939002668, 0.0 ], [ 18.665237558554821, 54.360749162138895, 0.0 ], [ 18.665176794967341, 54.360725315431672, 0.0 ], [ 18.665164890396987, 54.36072066058977, 0.0 ], [ 18.665075797129042, 54.360690664218652, 0.0 ], [ 18.665043254739217, 54.360679708463138, 0.0 ], [ 18.664996721915522, 54.36066599885698, 0.0 ], [ 18.664963425706269, 54.3606565036809, 0.0 ], [ 18.664919334361517, 54.360643929980377, 0.0 ], [ 18.664898763590312, 54.360638094027422, 0.0 ], [ 18.66483266606247, 54.360622427735372, 0.0 ], [ 18.664803234776034, 54.36061545149024, 0.0 ], [ 18.664759373459468, 54.360605076454902, 0.0 ], [ 18.664661121254969, 54.360586264125324, 0.0 ], [ 18.664616017180304, 54.360577658437798, 0.0 ], [ 18.664556792277441, 54.360568896623711, 0.0 ], [ 18.664512210644066, 54.360562300742629, 0.0 ], [ 18.664472489082382, 54.360556424977339, 0.0 ], [ 18.664447213621898, 54.360553672967981, 0.0 ], [ 18.664375285873053, 54.360546056157148, 0.0 ], [ 18.664329407837453, 54.360541197990962, 0.0 ], [ 18.664285647882913, 54.360538239017771, 0.0 ], [ 18.664262893489589, 54.360536672586115, 0.0 ], [ 18.664210798859123, 54.360533218423392, 0.0 ], [ 18.664140565482352, 54.360530008649185, 0.0 ], [ 18.664073027260315, 54.360527776368542, 0.0 ], [ 18.664027345349865, 54.360527187143887, 0.0 ], [ 18.663983522537052, 54.360527596485454, 0.0 ], [ 18.663933433697917, 54.360527729451384, 0.0 ], [ 18.663896964870169, 54.360529025882421, 0.0 ], [ 18.663864462377656, 54.360529829899953, 0.0 ], [ 18.66371927408062, 54.360538913708048, 0.0 ], [ 18.663573300326796, 54.36055218095413, 0.0 ], [ 18.663431721818903, 54.360571794719434, 0.0 ], [ 18.663294810814371, 54.360596455806942, 0.0 ], [ 18.663186591094885, 54.360620459605293, 0.0 ], [ 18.663135486667414, 54.360632383549799, 0.0 ], [ 18.663081657393835, 54.36064714614082, 0.0 ], [ 18.662970753594426, 54.360679322367979, 0.0 ], [ 18.662947735984705, 54.36068677654265, 0.0 ], [ 18.662890742164755, 54.360705234143659, 0.0 ], [ 18.662834833030651, 54.360725634816035, 0.0 ], [ 18.662759984065033, 54.360753851607491, 0.0 ], [ 18.66269208309647, 54.360783083872754, 0.0 ], [ 18.662635542787484, 54.360807784463276, 0.0 ], [ 18.662612759298035, 54.360819150831134, 0.0 ], [ 18.662559009367452, 54.360845967368519, 0.0 ], [ 18.662525546471148, 54.360862680859782, 0.0 ], [ 18.66248186092918, 54.360887611501148, 0.0 ], [ 18.662417598473596, 54.360924560118825, 0.0 ], [ 18.662382333547651, 54.360947570607429, 0.0 ], [ 18.662330548848626, 54.360981360783867, 0.0 ], [ 18.662316929168213, 54.360990842327446, 0.0 ], [ 18.662233869014564, 54.36105293667876, 0.0 ], [ 18.66219219864076, 54.361088688870758, 0.0 ], [ 18.662124737592364, 54.361150298178195, 0.0 ], [ 18.66206589456397, 54.361210880627809, 0.0 ], [ 18.662028777109857, 54.361254356336779, 0.0 ], [ 18.662005655336337, 54.361282689600806, 0.0 ], [ 18.661963478288058, 54.361341664478971, 0.0 ], [ 18.66195448769642, 54.361354292001707, 0.0 ], [ 18.661908101756826, 54.361433704906055, 0.0 ], [ 18.661884594668301, 54.361484566314708, 0.0 ], [ 18.661869021277937, 54.36151878315281, 0.0 ], [ 18.661852201236567, 54.361568521539397, 0.0 ], [ 18.661840900560293, 54.361602062597576, 0.0 ], [ 18.661828475114739, 54.361658401252328, 0.0 ], [ 18.661821922991805, 54.361689750333568, 0.0 ], [ 18.661813311835385, 54.361774987631385, 0.0 ], [ 18.661817416291498, 54.361884200346466, 0.0 ], [ 18.661845337073068, 54.362028463037717, 0.0 ], [ 18.661878196493934, 54.362117995104391, 0.0 ], [ 18.661925501517558, 54.362211899956492, 0.0 ], [ 18.661962619031549, 54.362273155605564, 0.0 ], [ 18.661988358500775, 54.362308376357099, 0.0 ], [ 18.662024562076731, 54.362356655782733, 0.0 ], [ 18.662051855545673, 54.362387864084631, 0.0 ], [ 18.662096973867651, 54.362437675188367, 0.0 ], [ 18.66213173830257, 54.362471699412104, 0.0 ], [ 18.662171599154114, 54.362509187397393, 0.0 ], [ 18.662219761387817, 54.362549971900528, 0.0 ], [ 18.662254730725042, 54.362578183649077, 0.0 ], [ 18.662306400212479, 54.362616310560611, 0.0 ], [ 18.662349659952593, 54.362646538581977, 0.0 ], [ 18.662382733662291, 54.362667895417609, 0.0 ], [ 18.662413870280375, 54.362687999897311, 0.0 ], [ 18.66246052672145, 54.362715534047823, 0.0 ], [ 18.662528487260758, 54.36275400218797, 0.0 ], [ 18.662558826299158, 54.362769257826137, 0.0 ], [ 18.662606575197408, 54.362792937312555, 0.0 ], [ 18.662641391482712, 54.3628102012498, 0.0 ], [ 18.6626586888842, 54.362817695205436, 0.0 ], [ 18.662727916913354, 54.362847686393494, 0.0 ], [ 18.662756220830076, 54.362859948878729, 0.0 ], [ 18.662814927982563, 54.36288209641198, 0.0 ], [ 18.66283767866139, 54.362890659215573, 0.0 ], [ 18.662853251465354, 54.362896520215578, 0.0 ], [ 18.662880002371036, 54.362906499338813, 0.0 ], [ 18.662979571539942, 54.362938774991107, 0.0 ], [ 18.663004447788385, 54.362946832159324, 0.0 ], [ 18.663118694584647, 54.362978320679083, 0.0 ], [ 18.663138126136019, 54.362983519050431, 0.0 ], [ 18.663168373358825, 54.362990476397236, 0.0 ], [ 18.663199279781804, 54.362997584811595, 0.0 ], [ 18.663228468328928, 54.363004299153431, 0.0 ], [ 18.663257229728465, 54.363010914304375, 0.0 ], [ 18.663272003391825, 54.363014173078234, 0.0 ], [ 18.663299374672189, 54.363019282991516, 0.0 ], [ 18.663387641585381, 54.363035763505543, 0.0 ], [ 18.663420200815104, 54.36304125555322, 0.0 ], [ 18.663458377106533, 54.363046799212022, 0.0 ], [ 18.663494354600569, 54.363052022974379, 0.0 ], [ 18.663543552663654, 54.363059166104918, 0.0 ], [ 18.663587622568578, 54.3630638900676, 0.0 ], [ 18.66365534674059, 54.363071002069418, 0.0 ], [ 18.663699539642234, 54.363075183330636, 0.0 ], [ 18.663732967928151, 54.363077381936932, 0.0 ], [ 18.663813872205267, 54.363082703770289, 0.0 ], [ 18.663831043298128, 54.363083836695665, 0.0 ], [ 18.664785677363671, 54.368178517096212, 0.0 ], [ 18.659659469015743, 54.379755824176719, 0.0 ], [ 18.658000217810802, 54.379600916695928, 0.0 ], [ 18.656740865481353, 54.379411903421762, 0.0 ], [ 18.656168428637027, 54.379604795221859, 0.0 ], [ 18.65498656914016, 54.381841621918419, 0.0 ], [ 18.658447190002338, 54.382464654076237, 0.0 ], [ 18.659449601169193, 54.382988391092432, 0.0 ], [ 18.665633051878352, 54.387533653145759, 0.0 ], [ 18.666512669333564, 54.388253675724059, 0.0 ], [ 18.668138998155367, 54.389579573846554, 0.0 ], [ 18.678524445569956, 54.398060785144231, 0.0 ], [ 18.679695009305355, 54.399771081119134, 0.0 ], [ 18.67983729410857, 54.400474888321895, 0.0 ], [ 18.678978732172279, 54.402367860063151, 0.0 ], [ 18.677960642749067, 54.402912562338038, 0.0 ], [ 18.677764635262232, 54.402981228814745, 0.0 ], [ 18.677684627283924, 54.40300858423133, 0.0 ], [ 18.677539216069096, 54.403052109814389, 0.0 ], [ 18.677338679727537, 54.403090169448575, 0.0 ], [ 18.677234390184562, 54.403126974770665, 0.0 ], [ 18.677034799870437, 54.403170851197096, 0.0 ], [ 18.676890060883157, 54.403199857058098, 0.0 ], [ 18.676001933840556, 54.403334581576097, 0.0 ], [ 18.675649414863223, 54.403385801092092, 0.0 ], [ 18.675372853245385, 54.403425983495609, 0.0 ], [ 18.675287530586477, 54.403438380668128, 0.0 ], [ 18.671465069053298, 54.403993684314543, 0.0 ], [ 18.663952585979175, 54.405085911033112, 0.0 ], [ 18.661399644968448, 54.407782918712982, 0.0 ], [ 18.661019672850113, 54.408214571162127, 0.0 ], [ 18.66087267547567, 54.408402801304781, 0.0 ], [ 18.660453855999574, 54.409019893051806, 0.0 ], [ 18.657829218266784, 54.4129045980999, 0.0 ], [ 18.659989576172649, 54.413478112480369, 0.0 ], [ 18.66085824555342, 54.412150649772748, 0.0 ] ] ] ] } }
]
}
