{
"type": "FeatureCollection",
"name": "22021",
"crs": { "type": "name", "properties": { "name": "urn:ogc:def:crs:OGC:1.3:CRS84" } },
"features": [
{ "type": "Feature", "properties": { "area_km2": 182.67528546599999, "PROJECT_NO": 22021.0, "NAME": "Baltic East [Orlen Neptun]", "TYPE": "OWF", "NO": 0, "status": "COMPLETED", "geotechnic": "x", "ORIG_FID": 6, "Shape_Leng": 56928.109028300001, "Shape_Area": 182675285.46599999 }, "geometry": { "type": "MultiPolygon", "coordinates": [ [ [ [ 17.733109770161132, 54.99460458241969, 0.0 ], [ 17.730867768702062, 54.994334710996391, 0.0 ], [ 17.728595697136655, 54.994167535727847, 0.0 ], [ 17.726307762556473, 54.99410410277077, 0.0 ], [ 17.72401826552159, 54.99414480855156, 0.0 ], [ 17.72174151623145, 54.994289398002373, 0.0 ], [ 17.719491747429259, 54.994536967231682, 0.0 ], [ 17.717283024082544, 54.994885968831817, 0.0 ], [ 17.715129152923829, 54.995334220754991, 0.0 ], [ 17.713043602693585, 54.995878921571666, 0.0 ], [ 17.711039411855481, 54.996516664675831, 0.0 ], [ 17.709129117788741, 54.997243463486193, 0.0 ], [ 17.707324665672978, 54.998054773719467, 0.0 ], [ 17.705637348356298, 54.998945522272692, 0.0 ], [ 17.704077720981378, 54.999910140323841, 0.0 ], [ 17.702655548438116, 55.000942594079895, 0.0 ], [ 17.701379733561026, 55.002036427905061, 0.0 ], [ 17.700258268918464, 55.003184800512095, 0.0 ], [ 17.699298183593921, 55.004380528299599, 0.0 ], [ 17.698505496022801, 55.00561613236107, 0.0 ], [ 17.697885182535504, 55.006883881181452, 0.0 ], [ 17.697441139203473, 55.008175844966793, 0.0 ], [ 17.697176161208382, 55.009483938494874, 0.0 ], [ 17.697091926423958, 55.010799977518083, 0.0 ], [ 17.697178219744362, 55.028534788330518, 0.0 ], [ 17.697063468615156, 55.05674496198899, 0.0 ], [ 17.697063389715851, 55.05677882944083, 0.0 ], [ 17.697050804362334, 55.080224031409962, 0.0 ], [ 17.697139935577781, 55.081532938694835, 0.0 ], [ 17.697408203988761, 55.082833772309236, 0.0 ], [ 17.697853968885333, 55.084118475662791, 0.0 ], [ 17.698474483617872, 55.08537909287223, 0.0 ], [ 17.699265921830925, 55.086607814052648, 0.0 ], [ 17.700223395670101, 55.087797027736578, 0.0 ], [ 17.701340988344164, 55.088939367172493, 0.0 ], [ 17.702611788432289, 55.090027753063012, 0.0 ], [ 17.704027933487968, 55.091055441809665, 0.0 ], [ 17.705580660251144, 55.092016065747529, 0.0 ], [ 17.707260351897116, 55.092903670657932, 0.0 ], [ 17.70905661041423, 55.093712754449996, 0.0 ], [ 17.71095830562464, 55.094438303794753, 0.0 ], [ 17.712953655979224, 55.095075820303634, 0.0 ], [ 17.715030296727512, 55.095621351957476, 0.0 ], [ 17.717175357829252, 55.096071516535339, 0.0 ], [ 17.719375541938049, 55.096423525027944, 0.0 ], [ 17.721617210686436, 55.096675192533915, 0.0 ], [ 17.723886467515463, 55.096824960784538, 0.0 ], [ 17.726169242801333, 55.096871899093834, 0.0 ], [ 17.728451384848068, 55.096815718829774, 0.0 ], [ 17.752402765011333, 55.095680733695637, 0.0 ], [ 17.77946380316321, 55.094399965502774, 0.0 ], [ 17.860146732492527, 55.090580823074809, 0.0 ], [ 17.943109349473509, 55.086653598377559, 0.0 ], [ 17.994663334572415, 55.084214637950367, 0.0 ], [ 17.996918684718739, 55.084056232573126, 0.0 ], [ 17.999145490619227, 55.083797050500635, 0.0 ], [ 18.001330084776704, 55.083438682992139, 0.0 ], [ 18.003459058621864, 55.082983330249526, 0.0 ], [ 18.005519349540705, 55.082433785868645, 0.0 ], [ 18.007498313706044, 55.081793422951925, 0.0 ], [ 18.009383810039182, 55.081066171305068, 0.0 ], [ 18.011164273112627, 55.080256495427307, 0.0 ], [ 18.012828784676003, 55.079369361691711, 0.0 ], [ 18.014367135434661, 55.078410216226075, 0.0 ], [ 18.015769898241423, 55.077384941307173, 0.0 ], [ 18.017028477260702, 55.076299829539053, 0.0 ], [ 18.018135163844999, 55.075161536514521, 0.0 ], [ 18.019083179488536, 55.073977045964718, 0.0 ], [ 18.019866725278682, 55.072753622386521, 0.0 ], [ 18.020481010759969, 55.071498769810589, 0.0 ], [ 18.020922286046378, 55.070220183420687, 0.0 ], [ 18.021187858132194, 55.068925704661112, 0.0 ], [ 18.021276119869079, 55.067623269275401, 0.0 ], [ 18.021272608315613, 55.060706121894611, 0.0 ], [ 18.021261308444576, 55.039021331165131, 0.0 ], [ 18.021175071597071, 55.037743187681137, 0.0 ], [ 18.020918222742925, 55.036472618891857, 0.0 ], [ 18.020492291597265, 55.035217126031434, 0.0 ], [ 18.019899807842052, 55.033984118823028, 0.0 ], [ 18.019144286038554, 55.032780874059235, 0.0 ], [ 18.018230198032914, 55.031614494999268, 0.0 ], [ 18.017162950297934, 55.030491862732127, 0.0 ], [ 18.015948854738525, 55.029419600986209, 0.0 ], [ 18.014595085563023, 55.028404037242751, 0.0 ], [ 18.01310963939504, 55.027451162086706, 0.0 ], [ 18.011501285848979, 55.026566597476339, 0.0 ], [ 18.009779524570511, 55.025755559674614, 0.0 ], [ 18.007954513904025, 55.025022833636207, 0.0 ], [ 18.006037024823073, 55.024372741303658, 0.0 ], [ 18.004038369747015, 55.023809115984697, 0.0 ], [ 18.001970337574225, 55.023335281265247, 0.0 ], [ 17.999845128734012, 55.022954031707371, 0.0 ], [ 17.997675276171186, 55.022667615214708, 0.0 ], [ 17.995473574044563, 55.022477721735598, 0.0 ], [ 17.95402064505916, 55.01982574913157, 0.0 ], [ 17.952510998478324, 55.019659698064956, 0.0 ], [ 17.950034620814179, 55.01951230576028, 0.0 ], [ 17.948280375452544, 55.019451479488524, 0.0 ], [ 17.946627706683653, 55.019394156430749, 0.0 ], [ 17.945428312004616, 55.01934537301279, 0.0 ], [ 17.944902383752879, 55.019323884110293, 0.0 ], [ 17.943233260751427, 55.019255662014494, 0.0 ], [ 17.941496825369654, 55.019175515390309, 0.0 ], [ 17.939869082741506, 55.01910011237667, 0.0 ], [ 17.938150293885744, 55.019008857112247, 0.0 ], [ 17.936490025133583, 55.01892040200628, 0.0 ], [ 17.934757353122418, 55.018818756210891, 0.0 ], [ 17.933097210156234, 55.018721169128355, 0.0 ], [ 17.93136450998081, 55.018610027494191, 0.0 ], [ 17.929742415678813, 55.018505872292351, 0.0 ], [ 17.928029118777264, 55.018384035602558, 0.0 ], [ 17.926369145629199, 55.018265757418483, 0.0 ], [ 17.925998058178621, 55.018237365844023, 0.0 ], [ 17.924652775797778, 55.018134029299048, 0.0 ], [ 17.92301376073053, 55.018007977766196, 0.0 ], [ 17.921294726318209, 55.017865339784933, 0.0 ], [ 17.920854375266821, 55.017828781575282, 0.0 ], [ 17.91963792370678, 55.017727631298698, 0.0 ], [ 17.919359359859218, 55.017703046960307, 0.0 ], [ 17.917928522950263, 55.017576065803262, 0.0 ], [ 17.916228741553766, 55.017425286467066, 0.0 ], [ 17.913303078051815, 55.017155258281505, 0.0 ], [ 17.910337830929205, 55.016881121150504, 0.0 ], [ 17.907365501350647, 55.016606652889152, 0.0 ], [ 17.904398468572499, 55.01633239234112, 0.0 ], [ 17.901431329676036, 55.01605813559582, 0.0 ], [ 17.898465216144672, 55.015783640277661, 0.0 ], [ 17.895493223808295, 55.015508975042472, 0.0 ], [ 17.892528541962335, 55.015234614588522, 0.0 ], [ 17.889562242952671, 55.014959797462424, 0.0 ], [ 17.886590690226893, 55.014684841766218, 0.0 ], [ 17.883624448254189, 55.014410031022571, 0.0 ], [ 17.880653862134206, 55.014134948682127, 0.0 ], [ 17.877688525603762, 55.013860237575336, 0.0 ], [ 17.874722724073376, 55.013585162921721, 0.0 ], [ 17.871750828509644, 55.013309911618542, 0.0 ], [ 17.868785792387463, 55.013034910190214, 0.0 ], [ 17.865819316450001, 55.012759557681584, 0.0 ], [ 17.862848399140006, 55.012484065061194, 0.0 ], [ 17.8599189416725, 55.012212151420755, 0.0 ], [ 17.858214337615518, 55.012051279072914, 0.0 ], [ 17.858009761241103, 55.012031800530274, 0.0 ], [ 17.856326463664164, 55.011864888829059, 0.0 ], [ 17.854696638607614, 55.011703338508163, 0.0 ], [ 17.852991512850654, 55.011523611932233, 0.0 ], [ 17.851352935095061, 55.011350641283677, 0.0 ], [ 17.849650197581767, 55.011161348578831, 0.0 ], [ 17.849264423947417, 55.011118312346674, 0.0 ], [ 17.848043248176346, 55.010982485045751, 0.0 ], [ 17.846719551888302, 55.01082573366191, 0.0 ], [ 17.846357795565105, 55.010782874467459, 0.0 ], [ 17.844706433762731, 55.010587066541596, 0.0 ], [ 17.842994642151233, 55.010375711587692, 0.0 ], [ 17.841403971566407, 55.010179232931563, 0.0 ], [ 17.838097659282536, 55.009746420432258, 0.0 ], [ 17.83640414337885, 55.009514946952734, 0.0 ], [ 17.83480126188044, 55.009295753631754, 0.0 ], [ 17.833122861997388, 55.009055180726058, 0.0 ], [ 17.831508108580945, 55.00882337377751, 0.0 ], [ 17.829823044245707, 55.008571756903812, 0.0 ], [ 17.82820764554976, 55.008330330147906, 0.0 ], [ 17.827715740798112, 55.008254029737806, 0.0 ], [ 17.826538941545472, 55.008071025616864, 0.0 ], [ 17.825219392026433, 55.007865927531157, 0.0 ], [ 17.82487832421095, 55.00781281989353, 0.0 ], [ 17.82431919080588, 55.007729186856594, 0.0 ], [ 17.733109770161132, 54.99460458241969, 0.0 ] ] ] ] } }
]
}
