{
"type": "FeatureCollection",
"name": "22032",
"crs": { "type": "name", "properties": { "name": "urn:ogc:def:crs:OGC:1.3:CRS84" } },
"features": [
{ "type": "Feature", "properties": { "area_km2": 10.261811399100001, "PROJECT_NO": 22032.0, "NAME": "Ramboll Oresund", "TYPE": "OTH", "NO": 34, "status": "COMPLETED", "geotechnic": null, "ORIG_FID": 12, "Shape_Leng": 19138.092693300001, "Shape_Area": 10261811.3991 }, "geometry": { "type": "MultiPolygon", "coordinates": [ [ [ [ 12.507034847602004, 56.095740973245739, 0.0 ], [ 12.503765662179777, 56.092053593735002, 0.0 ], [ 12.503355615911934, 56.090108498555566, 0.0 ], [ 12.501536660754969, 56.090597529953541, 0.0 ], [ 12.500670562248661, 56.090882281618306, 0.0 ], [ 12.496151250047546, 56.091509118681138, 0.0 ], [ 12.48683692132318, 56.091717114546036, 0.0 ], [ 12.48232644614302, 56.093092593413395, 0.0 ], [ 12.482484338455746, 56.093164826652959, 0.0 ], [ 12.482451524658904, 56.09317475307455, 0.0 ], [ 12.482390143906125, 56.093176485521965, 0.0 ], [ 12.482147527326044, 56.093183335717882, 0.0 ], [ 12.481232231131393, 56.093209172462039, 0.0 ], [ 12.479869193387854, 56.09321886990665, 0.0 ], [ 12.478581451836085, 56.093348682390115, 0.0 ], [ 12.477335310804602, 56.09351335483391, 0.0 ], [ 12.476658244914626, 56.093611727370622, 0.0 ], [ 12.476657721063901, 56.093611832021836, 0.0 ], [ 12.476230301724243, 56.093673948793736, 0.0 ], [ 12.475265300513922, 56.093682625665764, 0.0 ], [ 12.475265165275694, 56.093682624796351, 0.0 ], [ 12.475265034071343, 56.093682628645823, 0.0 ], [ 12.474353177164023, 56.093690878465324, 0.0 ], [ 12.473720435939406, 56.093708699773757, 0.0 ], [ 12.473711569326358, 56.093708949044306, 0.0 ], [ 12.473492962520982, 56.093698208246536, 0.0 ], [ 12.472573921709101, 56.09365323317531, 0.0 ], [ 12.472053991099814, 56.093633916566816, 0.0 ], [ 12.529495250321769, 56.120023562779807, 0.0 ], [ 12.568985756129054, 56.13813013674536, 0.0 ], [ 12.570649190990512, 56.138892183810576, 0.0 ], [ 12.584905556409684, 56.139922144899131, 0.0 ], [ 12.587688539897426, 56.137446169186369, 0.0 ], [ 12.588264781727171, 56.135012878514587, 0.0 ], [ 12.589789235945128, 56.13280814567667, 0.0 ], [ 12.590267168523905, 56.131174834171915, 0.0 ], [ 12.579961485860494, 56.127559861708725, 0.0 ], [ 12.507034847602004, 56.095740973245739, 0.0 ] ] ] ] } }
]
}
