{
"type": "FeatureCollection",
"name": "22078",
"crs": { "type": "name", "properties": { "name": "urn:ogc:def:crs:OGC:1.3:CRS84" } },
"features": [
{ "type": "Feature", "properties": { "area_km2": 4.1247485681900002, "PROJECT_NO": 22078.0, "NAME": "Lolland", "TYPE": "OTH", "NO": 0, "status": "COMPLETED", "geotechnic": "x", "ORIG_FID": 33, "Shape_Leng": 14421.5149741, "Shape_Area": 4124748.56819 }, "geometry": { "type": "MultiPolygon", "coordinates": [ [ [ [ 11.841649795011296, 55.020055712745048, 0.0 ], [ 11.842103307805484, 55.019997082117499, 0.0 ], [ 11.843266364843737, 55.01962826718826, 0.0 ], [ 11.84581355039815, 55.018515331758486, 0.0 ], [ 11.849506239921602, 55.017465253511972, 0.0 ], [ 11.851119311983114, 55.01656812976141, 0.0 ], [ 11.847166625686334, 54.977451586741047, 0.0 ], [ 11.847347387790332, 54.968396565849282, 0.0 ], [ 11.844146857560212, 54.958407941180809, 0.0 ], [ 11.843921591349005, 54.95847460265005, 0.0 ], [ 11.842633211229852, 54.958466071680839, 0.0 ], [ 11.841672248696026, 54.958710755596904, 0.0 ], [ 11.840839130506662, 54.959320187957523, 0.0 ], [ 11.839975556047712, 54.959396346901123, 0.0 ], [ 11.83956831871456, 54.959506614638912, 0.0 ], [ 11.84015279057312, 54.963197279688316, 0.0 ], [ 11.840737661274019, 54.968148628352466, 0.0 ], [ 11.836239933281298, 55.01352398527365, 0.0 ], [ 11.841052607537314, 55.019471738490132, 0.0 ], [ 11.841649795011296, 55.020055712745048, 0.0 ] ] ] ] } }
]
}
