{
"type": "FeatureCollection",
"name": "23018",
"crs": { "type": "name", "properties": { "name": "urn:ogc:def:crs:OGC:1.3:CRS84" } },
"features": [
{ "type": "Feature", "properties": { "area_km2": 15.4775461288, "PROJECT_NO": 23018.0, "NAME": "DEME", "TYPE": "CON", "NO": 20, "status": "COMPLETED", "geotechnic": null, "ORIG_FID": 2, "Shape_Leng": 76926.053578899999, "Shape_Area": 15477546.128799999 }, "geometry": { "type": "MultiPolygon", "coordinates": [ [ [ [ 17.687155009039657, 55.051410448091957, 0.0 ], [ 17.687366725295526, 55.050986229168508, 0.0 ], [ 17.687509246672576, 55.050826166062535, 0.0 ], [ 17.684280298019779, 55.049878453722116, 0.0 ], [ 17.68210742837282, 55.046190651271878, 0.0 ], [ 17.700188623588851, 55.002133763106087, 0.0 ], [ 17.702146022165511, 55.001166460449909, 0.0 ], [ 17.720416676247023, 54.999971885480996, 0.0 ], [ 17.720435933814489, 54.999969917873798, 0.0 ], [ 17.720454614037831, 54.999966583122635, 0.0 ], [ 17.720472422853323, 54.999961932074257, 0.0 ], [ 17.723318255587401, 54.999091570789311, 0.0 ], [ 17.723337755493962, 54.999084366864068, 0.0 ], [ 17.723355186531602, 54.999075584177348, 0.0 ], [ 17.723370167254636, 54.999065415605585, 0.0 ], [ 17.776289786580566, 54.957153620749757, 0.0 ], [ 17.844500356855072, 54.902966888915238, 0.0 ], [ 17.876131540917513, 54.882335359444042, 0.0 ], [ 17.876147963452745, 54.882322354691169, 0.0 ], [ 17.876159904795614, 54.882308166764446, 0.0 ], [ 17.877420356016305, 54.880393861096671, 0.0 ], [ 17.877427683042654, 54.880378985829324, 0.0 ], [ 17.877429011965312, 54.880374369221123, 0.0 ], [ 17.888826297049114, 54.833170432486455, 0.0 ], [ 17.888862596301212, 54.833019901913453, 0.0 ], [ 17.882847551266941, 54.832536425761106, 0.0 ], [ 17.882804592789785, 54.832714468217574, 0.0 ], [ 17.882801281530135, 54.83272818246872, 0.0 ], [ 17.872122712170352, 54.876887180980155, 0.0 ], [ 17.870747652696, 54.87853269047838, 0.0 ], [ 17.828057592434231, 54.906349014402686, 0.0 ], [ 17.828048570808413, 54.906355528672904, 0.0 ], [ 17.767107290264118, 54.954749826263971, 0.0 ], [ 17.715143112566203, 54.99589840873309, 0.0 ], [ 17.712970100244789, 54.996419997528911, 0.0 ], [ 17.64842315306684, 54.990225645155675, 0.0 ], [ 17.64840385289947, 54.990224489449552, 0.0 ], [ 17.648384453080052, 54.990224717091081, 0.0 ], [ 17.648365250743144, 54.99022632598794, 0.0 ], [ 17.645071098851531, 54.990623638220157, 0.0 ], [ 17.645052577225702, 54.990626565817763, 0.0 ], [ 17.64503318054885, 54.990631241208312, 0.0 ], [ 17.642230815891022, 54.991438241187574, 0.0 ], [ 17.642212096352981, 54.991444604818767, 0.0 ], [ 17.642195095291367, 54.991452399957531, 0.0 ], [ 17.642180138332616, 54.991461475611565, 0.0 ], [ 17.642167515944788, 54.99147165702216, 0.0 ], [ 17.63952417543743, 54.993952475873556, 0.0 ], [ 17.639511911839652, 54.993966798220399, 0.0 ], [ 17.639505201928959, 54.99397951503633, 0.0 ], [ 17.629333647192748, 55.020047422684293, 0.0 ], [ 17.629332791443968, 55.020049757629067, 0.0 ], [ 17.629331904753592, 55.020052586673614, 0.0 ], [ 17.626723528967787, 55.029211506686508, 0.0 ], [ 17.624353718888159, 55.03114651977414, 0.0 ], [ 17.624609682876429, 55.031249952902229, 0.0 ], [ 17.625141980600258, 55.031567969340585, 0.0 ], [ 17.625311851628911, 55.031718948945375, 0.0 ], [ 17.628588646601177, 55.03050247544266, 0.0 ], [ 17.628605997056848, 55.030495006123154, 0.0 ], [ 17.628621384110051, 55.030486230910952, 0.0 ], [ 17.628634510875422, 55.030476319068534, 0.0 ], [ 17.630078756117239, 55.02921274876654, 0.0 ], [ 17.630089697891488, 55.029201489751358, 0.0 ], [ 17.630097722571321, 55.029189447237563, 0.0 ], [ 17.630102665193768, 55.029176869289557, 0.0 ], [ 17.632423706857765, 55.020365587268252, 0.0 ], [ 17.642547652786053, 54.994895639060317, 0.0 ], [ 17.644593215597176, 54.992997857433423, 0.0 ], [ 17.649066001836442, 54.992014810924005, 0.0 ], [ 17.713790094723951, 54.998321643835531, 0.0 ], [ 17.699797826668064, 54.999341461425963, 0.0 ], [ 17.699773884185767, 54.999344312446574, 0.0 ], [ 17.699751007201542, 54.999349274893753, 0.0 ], [ 17.699729756407031, 54.999356226205151, 0.0 ], [ 17.699710650204629, 54.999364997518327, 0.0 ], [ 17.699694156862183, 54.999375374485545, 0.0 ], [ 17.697668704930287, 55.000869083099943, 0.0 ], [ 17.697656220456825, 55.000879793083598, 0.0 ], [ 17.697646529120373, 55.000891420271266, 0.0 ], [ 17.697639832612289, 55.000903724994139, 0.0 ], [ 17.678998291792727, 55.046320158401102, 0.0 ], [ 17.678994572484566, 55.046333881529137, 0.0 ], [ 17.678994578788455, 55.046347769148426, 0.0 ], [ 17.678998312173846, 55.046361491346694, 0.0 ], [ 17.679005681708375, 55.046374719006486, 0.0 ], [ 17.682504991817527, 55.051304779916329, 0.0 ], [ 17.682515969787268, 55.051317334397972, 0.0 ], [ 17.682530220140631, 55.051328753814275, 0.0 ], [ 17.682547395044228, 55.051338758411092, 0.0 ], [ 17.682567076549688, 55.051347105432804, 0.0 ], [ 17.68258878128961, 55.051353589173424, 0.0 ], [ 17.682611982008694, 55.051358052896383, 0.0 ], [ 17.682636110783168, 55.051360386172696, 0.0 ], [ 17.687127302938823, 55.05158950763871, 0.0 ], [ 17.687155009039657, 55.051410448091957, 0.0 ] ] ] ] } }
]
}
