{
"type": "FeatureCollection",
"name": "24011",
"crs": { "type": "name", "properties": { "name": "urn:ogc:def:crs:OGC:1.3:CRS84" } },
"features": [
{ "type": "Feature", "properties": { "area_km2": 277.69753297, "PROJECT_NO": 24011.0, "NAME": "Skyborn", "TYPE": "OWF", "NO": 0, "status": "COMPLETED", "geotechnic": null, "ORIG_FID": 38, "Shape_Leng": 132000.99839, "Shape_Area": 277697532.97000003 }, "geometry": { "type": "MultiPolygon", "coordinates": [ [ [ [ 24.474990698037026, 65.45924668164426, 0.0 ], [ 24.478950105649819, 65.458556697901884, 0.0 ], [ 24.497484516226024, 65.454460622004078, 0.0 ], [ 24.504514759971311, 65.452829589027928, 0.0 ], [ 24.515331232930205, 65.450316249261931, 0.0 ], [ 24.535467626633942, 65.445161936309546, 0.0 ], [ 24.541658903242627, 65.443965217889101, 0.0 ], [ 24.664038149716713, 65.398299798696712, 0.0 ], [ 24.664451956937754, 65.397451371077508, 0.0 ], [ 24.673902537046626, 65.389358350107869, 0.0 ], [ 24.674790120707492, 65.389381409788228, 0.0 ], [ 24.684898811572591, 65.380352342363409, 0.0 ], [ 24.687777131926083, 65.378508360112562, 0.0 ], [ 24.693741157851385, 65.364240648960561, 0.0 ], [ 24.694635412605642, 65.36118500988529, 0.0 ], [ 24.709490816196471, 65.351757916814037, 0.0 ], [ 24.727009103051383, 65.315666246698555, 0.0 ], [ 24.770128485936524, 65.292667090200524, 0.0 ], [ 24.771805162022101, 65.283503733131752, 0.0 ], [ 24.78286030552303, 65.279377907152607, 0.0 ], [ 24.808130263504406, 65.247711082646546, 0.0 ], [ 24.845093363156302, 65.224095825329314, 0.0 ], [ 24.82363417346938, 65.215686541653255, 0.0 ], [ 24.81603689609916, 65.219756360478542, 0.0 ], [ 24.814149096195674, 65.223776678322736, 0.0 ], [ 24.807307855665126, 65.228094774217126, 0.0 ], [ 24.797986117030465, 65.230395910527562, 0.0 ], [ 24.789779236735082, 65.232995789613668, 0.0 ], [ 24.786026871387488, 65.23877290424285, 0.0 ], [ 24.770282274678831, 65.251314891584329, 0.0 ], [ 24.765523979088869, 65.259078805918449, 0.0 ], [ 24.754155511574751, 65.262674504250441, 0.0 ], [ 24.742995458721115, 65.265010265376318, 0.0 ], [ 24.747779818584675, 65.269216841647236, 0.0 ], [ 24.761309816961592, 65.279563847550193, 0.0 ], [ 24.752747432856761, 65.285330116620258, 0.0 ], [ 24.731267234654062, 65.286030909049472, 0.0 ], [ 24.70591942853293, 65.293525140064574, 0.0 ], [ 24.707578554513972, 65.300166346287966, 0.0 ], [ 24.714005237540992, 65.303441378138601, 0.0 ], [ 24.710808488200346, 65.31214683410326, 0.0 ], [ 24.694543519626691, 65.314788116165516, 0.0 ], [ 24.689876875967318, 65.325271774110718, 0.0 ], [ 24.691538087078467, 65.332713585568214, 0.0 ], [ 24.68177762296094, 65.345891827442571, 0.0 ], [ 24.665063106261503, 65.349816703819613, 0.0 ], [ 24.636532909234433, 65.345644450360609, 0.0 ], [ 24.609938113266956, 65.338071641308275, 0.0 ], [ 24.60584756847436, 65.328451041212986, 0.0 ], [ 24.623989323650569, 65.322790886250971, 0.0 ], [ 24.639974986198698, 65.323548137218594, 0.0 ], [ 24.652748896539638, 65.320175786695145, 0.0 ], [ 24.632534867531959, 65.31309373599963, 0.0 ], [ 24.628916905667552, 65.306303702260621, 0.0 ], [ 24.586249381258813, 65.311809127410172, 0.0 ], [ 24.541785166760263, 65.311077627751033, 0.0 ], [ 24.519546847653693, 65.307046789901293, 0.0 ], [ 24.504619290290357, 65.298520111977567, 0.0 ], [ 24.518929243375251, 65.280310600491532, 0.0 ], [ 24.534722736580758, 65.271109763753728, 0.0 ], [ 24.541633664134689, 65.268782561804557, 0.0 ], [ 24.549359085778789, 65.270887542514913, 0.0 ], [ 24.566624869948669, 65.262393840022582, 0.0 ], [ 24.573031170904205, 65.259810745580751, 0.0 ], [ 24.60135088804908, 65.25412028845399, 0.0 ], [ 24.623996500464113, 65.253257525344878, 0.0 ], [ 24.644937693572185, 65.247316960555153, 0.0 ], [ 24.669353659231149, 65.250725846992168, 0.0 ], [ 24.68187542288328, 65.255382501347114, 0.0 ], [ 24.711096155344002, 65.250304075805658, 0.0 ], [ 24.724668120462219, 65.24137121748339, 0.0 ], [ 24.760984030280383, 65.230014792081093, 0.0 ], [ 24.788596262191703, 65.216615410987373, 0.0 ], [ 24.780033012618528, 65.216529330483226, 0.0 ], [ 24.631702623003793, 65.239003503405272, 0.0 ], [ 24.530395519600326, 65.238763718828523, 0.0 ], [ 24.438053553554003, 65.26660646895138, 0.0 ], [ 24.312533734917249, 65.313345717645376, 0.0 ], [ 24.288547298127195, 65.316775015588703, 0.0 ], [ 24.472230334228694, 65.456249210713835, 0.0 ], [ 24.474990698037026, 65.45924668164426, 0.0 ] ] ] ] } }
]
}
