{
"type": "FeatureCollection",
"name": "24040",
"crs": { "type": "name", "properties": { "name": "urn:ogc:def:crs:OGC:1.3:CRS84" } },
"features": [
{ "type": "Feature", "properties": { "area_km2": 41.261335065099999, "PROJECT_NO": 24040.0, "NAME": "Złoża Twardowskiego", "TYPE": "OTH", "NO": 0, "status": "ACTIVE", "geotechnic": "x", "ORIG_FID": 0, "Shape_Leng": 29469.551743600001, "Shape_Area": 41261335.065099999 }, "geometry": { "type": "MultiPolygon", "coordinates": [ [ [ [ 16.547487942674316, 54.601059560191409, 0.0 ], [ 16.571421885888295, 54.583305832859892, 0.0 ], [ 16.476476634852506, 54.538368588538702, 0.0 ], [ 16.433023605493236, 54.524009561941426, 0.0 ], [ 16.401582966816019, 54.529767645030716, 0.0 ], [ 16.42089632847339, 54.545684811634374, 0.0 ], [ 16.447551412455347, 54.558012922832361, 0.0 ], [ 16.451874580109131, 54.566593200534165, 0.0 ], [ 16.461620024632335, 54.586330172393737, 0.0 ], [ 16.49600235966086, 54.60005894993737, 0.0 ], [ 16.547487942674316, 54.601059560191409, 0.0 ] ] ] ] } }
]
}
