{
"type": "FeatureCollection",
"name": "24058",
"crs": { "type": "name", "properties": { "name": "urn:ogc:def:crs:OGC:1.3:CRS84" } },
"features": [
{ "type": "Feature", "properties": { "area_km2": 204.71040506599999, "PROJECT_NO": 24058.0, "NAME": "Baltic Power (Orlen)", "TYPE": "OWF", "NO": 0, "status": "ACTIVE", "geotechnic": null, "ORIG_FID": 43, "Shape_Leng": 58551.051029100003, "Shape_Area": 204710405.067 }, "geometry": { "type": "MultiPolygon", "coordinates": [ [ [ [ 17.530838210448618, 55.033700392140894, 0.0 ], [ 17.530860419278724, 55.034789598162384, 0.0 ], [ 17.531006615554979, 55.03587563743713, 0.0 ], [ 17.531276185812036, 55.036953859579491, 0.0 ], [ 17.531667982881107, 55.038019646056213, 0.0 ], [ 17.532180338974712, 55.039068431939214, 0.0 ], [ 17.532811069492229, 55.040095724856585, 0.0 ], [ 17.533557481499514, 55.041097124906166, 0.0 ], [ 17.534166680396996, 55.041801784874167, 0.0 ], [ 17.569636899284863, 55.080463075305687, 0.0 ], [ 17.569654158260388, 55.080481836905456, 0.0 ], [ 17.600693080768039, 55.114140129139329, 0.0 ], [ 17.600926385570069, 55.114387792544989, 0.0 ], [ 17.601897393173722, 55.115324142046269, 0.0 ], [ 17.602973207678051, 55.116222075864442, 0.0 ], [ 17.604149228900024, 55.11707774568761, 0.0 ], [ 17.60542042061731, 55.117887486033631, 0.0 ], [ 17.606781343031983, 55.118647826369333, 0.0 ], [ 17.608226167859918, 55.11935550752677, 0.0 ], [ 17.609748706086457, 55.120007495567393, 0.0 ], [ 17.611342435720228, 55.120600996543793, 0.0 ], [ 17.61300052659621, 55.121133466730832, 0.0 ], [ 17.614715876181986, 55.121602622978678, 0.0 ], [ 17.616481129698954, 55.122006453782063, 0.0 ], [ 17.618288722313604, 55.122343227898405, 0.0 ], [ 17.620130905701448, 55.122611501883163, 0.0 ], [ 17.62199978253231, 55.122810125910462, 0.0 ], [ 17.623887339496125, 55.122938246872771, 0.0 ], [ 17.625785484860252, 55.122995316917901, 0.0 ], [ 17.626322806630267, 55.122998526936399, 0.0 ], [ 17.764336376979752, 55.123012916847784, 0.0 ], [ 17.765699612664964, 55.122993935698695, 0.0 ], [ 17.767594244922844, 55.122906326599335, 0.0 ], [ 17.769474808419655, 55.122747862159471, 0.0 ], [ 17.771333242529675, 55.122519223220735, 0.0 ], [ 17.773161579940975, 55.12222138959892, 0.0 ], [ 17.774951979868341, 55.121855637695759, 0.0 ], [ 17.776696769176418, 55.121423535486088, 0.0 ], [ 17.778388470968405, 55.120926936472415, 0.0 ], [ 17.780019831779018, 55.120367967327041, 0.0 ], [ 17.781583864096838, 55.119749026469762, 0.0 ], [ 17.783073865861173, 55.119072765329911, 0.0 ], [ 17.78448345360707, 55.118342084124954, 0.0 ], [ 17.785806591315438, 55.117560113210203, 0.0 ], [ 17.787037611093691, 55.116730204233846, 0.0 ], [ 17.788171246589517, 55.115855914227026, 0.0 ], [ 17.789202642855606, 55.114940989459932, 0.0 ], [ 17.790127389650706, 55.113989351330922, 0.0 ], [ 17.790941531384405, 55.113005075733319, 0.0 ], [ 17.791641587739822, 55.111992381521823, 0.0 ], [ 17.792224568380885, 55.110955606339445, 0.0 ], [ 17.792687985798729, 55.109899191421043, 0.0 ], [ 17.793029863571935, 55.108827661862932, 0.0 ], [ 17.793103894243554, 55.108524252180374, 0.0 ], [ 17.797278334976806, 55.090178211166581, 0.0 ], [ 17.797296732292786, 55.090100635804923, 0.0 ], [ 17.797314002330371, 55.090026567864641, 0.0 ], [ 17.797457674710877, 55.089399695872771, 0.0 ], [ 17.7976061134815, 55.088604638958984, 0.0 ], [ 17.797700906354979, 55.087516686587563, 0.0 ], [ 17.797671439938124, 55.086427507374836, 0.0 ], [ 17.797517852398187, 55.08534176548671, 0.0 ], [ 17.797240810384526, 55.084264109256729, 0.0 ], [ 17.796841509354341, 55.083199153220868, 0.0 ], [ 17.796321667745655, 55.082151456503752, 0.0 ], [ 17.79568352264582, 55.081125503924063, 0.0 ], [ 17.79492981296805, 55.080125686084315, 0.0 ], [ 17.794063775042215, 55.079156284084789, 0.0 ], [ 17.793089119697179, 55.078221445070348, 0.0 ], [ 17.792010029351829, 55.077325170565686, 0.0 ], [ 17.790831125637716, 55.076471295533267, 0.0 ], [ 17.789557461922449, 55.075663473973606, 0.0 ], [ 17.788194490852181, 55.074905162481834, 0.0 ], [ 17.786748049153413, 55.074199603976716, 0.0 ], [ 17.785224329715536, 55.073549818494826, 0.0 ], [ 17.783629854001553, 55.07295858409794, 0.0 ], [ 17.781971447184571, 55.072428432189078, 0.0 ], [ 17.78025620278374, 55.071961628336503, 0.0 ], [ 17.778491462470331, 55.071560170325917, 0.0 ], [ 17.776684774297848, 55.071225775203509, 0.0 ], [ 17.77484386645229, 55.070959871862449, 0.0 ], [ 17.772976612997724, 55.070763599835075, 0.0 ], [ 17.771091001533112, 55.070637797309217, 0.0 ], [ 17.769195095778926, 55.070583001671324, 0.0 ], [ 17.767297004491358, 55.070599448306787, 0.0 ], [ 17.766296357632765, 55.070636874418419, 0.0 ], [ 17.748925526117276, 55.071458483366705, 0.0 ], [ 17.748912657423961, 55.071459092804801, 0.0 ], [ 17.739411160437314, 55.07190987606176, 0.0 ], [ 17.73940326919347, 55.056791362838055, 0.0 ], [ 17.739488309071096, 55.028576135484002, 0.0 ], [ 17.739488185092831, 55.028490788429117, 0.0 ], [ 17.739378647040805, 55.009987039889829, 0.0 ], [ 17.739378081518137, 55.008499906226461, 0.0 ], [ 17.739345517122413, 55.007714402451043, 0.0 ], [ 17.739193776115144, 55.006628582908434, 0.0 ], [ 17.738918810255427, 55.005550791159024, 0.0 ], [ 17.738521809189432, 55.004485642360514, 0.0 ], [ 17.738004481471105, 55.003437696472687, 0.0 ], [ 17.737369050266878, 55.002411439360522, 0.0 ], [ 17.736618244383127, 55.001411263855637, 0.0 ], [ 17.735755287774879, 55.00044144990963, 0.0 ], [ 17.73478387798913, 54.999506149132962, 0.0 ], [ 17.733708183560747, 54.998609364141693, 0.0 ], [ 17.732532811558983, 54.997754932992066, 0.0 ], [ 17.731262800315825, 54.996946509384905, 0.0 ], [ 17.729903586772146, 54.996187555193671, 0.0 ], [ 17.728460991615549, 54.995481315199036, 0.0 ], [ 17.726941191288866, 54.99483081236329, 0.0 ], [ 17.725350690481601, 54.994238828724548, 0.0 ], [ 17.723696297463938, 54.993707896207425, 0.0 ], [ 17.721985088533945, 54.993240286417262, 0.0 ], [ 17.720224388150402, 54.992837999695652, 0.0 ], [ 17.718421727120308, 54.992502756637393, 0.0 ], [ 17.717403779784881, 54.992345852050143, 0.0 ], [ 17.695761170378024, 54.989249254370264, 0.0 ], [ 17.676927105130382, 54.986527533970275, 0.0 ], [ 17.650371489036107, 54.981975575687848, 0.0 ], [ 17.639942291262436, 54.980093451361171, 0.0 ], [ 17.628754654751109, 54.977948162663367, 0.0 ], [ 17.614158686525275, 54.974870472889847, 0.0 ], [ 17.598556590343833, 54.971101275511764, 0.0 ], [ 17.597197416950738, 54.970795753299434, 0.0 ], [ 17.595902734997612, 54.970545867340128, 0.0 ], [ 17.581061018302062, 54.967902549908494, 0.0 ], [ 17.580978934058624, 54.967888000814796, 0.0 ], [ 17.579228485207036, 54.967579375383046, 0.0 ], [ 17.578804706939387, 54.967506686377348, 0.0 ], [ 17.576969898445789, 54.967237823176106, 0.0 ], [ 17.575108473582976, 54.967038547151063, 0.0 ], [ 17.573228395080093, 54.966909709336818, 0.0 ], [ 17.571337702986376, 54.966851861888273, 0.0 ], [ 17.569444483830431, 54.966865252337911, 0.0 ], [ 17.567556834908149, 54.966949823181878, 0.0 ], [ 17.565682830134101, 54.967105211475662, 0.0 ], [ 17.56383048257457, 54.967330753776295, 0.0 ], [ 17.562007715008445, 54.967625484877779, 0.0 ], [ 17.560222327034314, 54.967988145488121, 0.0 ], [ 17.558481954643394, 54.9684171817185, 0.0 ], [ 17.556794041693436, 54.968910760888306, 0.0 ], [ 17.555165813536377, 54.969466770268724, 0.0 ], [ 17.553604234392335, 54.970082832708769, 0.0 ], [ 17.552115988548579, 54.970756310852913, 0.0 ], [ 17.550707446957944, 54.971484325565498, 0.0 ], [ 17.54938463897998, 54.972263760928719, 0.0 ], [ 17.548153229857466, 54.973091282792453, 0.0 ], [ 17.547018495298556, 54.97396335009708, 0.0 ], [ 17.545985295867894, 54.974876230689731, 0.0 ], [ 17.545058059062892, 54.975826019930906, 0.0 ], [ 17.544240761655125, 54.976808651216075, 0.0 ], [ 17.543536909923997, 54.977819920859801, 0.0 ], [ 17.542949525072931, 54.978855498662533, 0.0 ], [ 17.542481129666236, 54.97991095287891, 0.0 ], [ 17.542133737562093, 54.980981764446391, 0.0 ], [ 17.542037943315634, 54.98137308694217, 0.0 ], [ 17.54061145724657, 54.987746317361676, 0.0 ], [ 17.540594785682394, 54.987822163954348, 0.0 ], [ 17.531052827994184, 55.031998284230227, 0.0 ], [ 17.530940075956163, 55.03261268370602, 0.0 ], [ 17.530838210448618, 55.033700392140894, 0.0 ] ] ] ] } }
]
}
