{
"type": "FeatureCollection",
"name": "24067",
"crs": { "type": "name", "properties": { "name": "urn:ogc:def:crs:OGC:1.3:CRS84" } },
"features": [
{ "type": "Feature", "properties": { "area_km2": 116.58549508900001, "PROJECT_NO": 24067.0, "NAME": "Bałtyk II, Bałtyk III [Equinor]", "TYPE": "OWF", "NO": 10, "status": "COMPLETED", "geotechnic": null, "ORIG_FID": 41, "Shape_Leng": 48217.836564199999, "Shape_Area": 116585495.089 }, "geometry": { "type": "MultiPolygon", "coordinates": [ [ [ [ 17.357115829557305, 54.95153250045437, 0.0 ], [ 17.282619440713656, 54.945117780330797, 0.0 ], [ 17.233514720088941, 55.043278059640166, 0.0 ], [ 17.245841109554771, 55.047812499717764, 0.0 ], [ 17.527181389750556, 54.998685559946217, 0.0 ], [ 17.413221390325134, 54.956844719902456, 0.0 ], [ 17.378515000512806, 54.952623060316228, 0.0 ], [ 17.357115829557305, 54.95153250045437, 0.0 ] ] ] ] } },
{ "type": "Feature", "properties": { "area_km2": 121.549193053, "PROJECT_NO": 24067.0, "NAME": "Bałtyk II, Bałtyk III [Equinor]", "TYPE": "OWF", "NO": 10, "status": "COMPLETED", "geotechnic": null, "ORIG_FID": 41, "Shape_Leng": 47090.553280400003, "Shape_Area": 121549193.053 }, "geometry": { "type": "MultiPolygon", "coordinates": [ [ [ [ 16.949991000138716, 55.136688000055393, 0.0 ], [ 16.975191000851186, 55.014034000002439, 0.0 ], [ 16.859869999457111, 55.035072000090885, 0.0 ], [ 16.848045000107845, 55.035325000537952, 0.0 ], [ 16.773258998967581, 55.102419999596748, 0.0 ], [ 16.771994000329908, 55.103288000502239, 0.0 ], [ 16.743609999713478, 55.118393999638442, 0.0 ], [ 16.785634000165874, 55.123612000083902, 0.0 ], [ 16.841296000692836, 55.131740000389577, 0.0 ], [ 16.892898000596997, 55.134810999326774, 0.0 ], [ 16.9221229995442, 55.138240999727643, 0.0 ], [ 16.949991000138716, 55.136688000055393, 0.0 ] ] ] ] } }
]
}
