{
"type": "FeatureCollection",
"name": "24084_2",
"crs": { "type": "name", "properties": { "name": "urn:ogc:def:crs:OGC:1.3:CRS84" } },
"features": [
{ "type": "Feature", "properties": { "area_km2": 4.9948839780299998, "PROJECT_NO": 24084.0, "NAME": "Urząd Morski Franken", "TYPE": "OTH", "NO": 0, "status": "ACTIVE", "geotechnic": null, "ORIG_FID": 40, "Shape_Leng": 8995.3943924800005, "Shape_Area": 4994883.9780299999 }, "geometry": { "type": "MultiPolygon", "coordinates": [ [ [ [ 18.989270217194136, 54.531487957430322, 0.0 ], [ 18.950661918569018, 54.530839762674916, 0.0 ], [ 18.949761322724733, 54.548802468655758, 0.0 ], [ 18.988386559009388, 54.549451090450937, 0.0 ], [ 18.989270217194136, 54.531487957430322, 0.0 ] ] ] ] } },
{ "type": "Feature", "properties": { "area_km2": 4.9960414952100001, "PROJECT_NO": 24084.0, "NAME": "Urząd Morski Stuttgart", "TYPE": "OTH", "NO": 0, "status": "ACTIVE", "geotechnic": null, "ORIG_FID": 40, "Shape_Leng": 8996.6484853300008, "Shape_Area": 4996041.4952100003 }, "geometry": { "type": "MultiPolygon", "coordinates": [ [ [ [ 18.648170875842961, 54.566510340278548, 0.0 ], [ 18.618729497653987, 54.551959188732567, 0.0 ], [ 18.599015821212891, 54.565823656292906, 0.0 ], [ 18.628478742777475, 54.580366669735021, 0.0 ], [ 18.648170875842961, 54.566510340278548, 0.0 ] ] ] ] } },
{ "type": "Feature", "properties": { "area_km2": 459.33927415400001, "PROJECT_NO": 24084.0, "NAME": "Urząd Morski Głębia Gdańska", "TYPE": "OTH", "NO": 0, "status": "ACTIVE", "geotechnic": null, "ORIG_FID": 40, "Shape_Leng": 96794.883574499996, "Shape_Area": 459339274.15399998 }, "geometry": { "type": "MultiPolygon", "coordinates": [ [ [ [ 19.228286138218493, 54.863764607726836, 0.0 ], [ 19.299964130611091, 54.863784330793273, 0.0 ], [ 19.307482456808501, 54.684127995513897, 0.0 ], [ 19.093395078775931, 54.684112637710179, 0.0 ], [ 19.089172486953768, 54.773930987956874, 0.0 ], [ 19.017690004177759, 54.773071408613575, 0.0 ], [ 19.008843786311523, 54.95297414518037, 0.0 ], [ 19.224335988893756, 54.953587092974864, 0.0 ], [ 19.228286138218493, 54.863764607726836, 0.0 ] ] ] ] } }
]
}
