{
"type": "FeatureCollection",
"name": "24084_1",
"crs": { "type": "name", "properties": { "name": "urn:ogc:def:crs:OGC:1.3:CRS84" } },
"features": [
{ "type": "Feature", "properties": { "area_km2": 459.58389396699999, "PROJECT_NO": 24084.0, "NAME": "Urząd Morski Rynna Słupska", "TYPE": "OTH", "NO": 0, "status": "ACTIVE", "geotechnic": null, "ORIG_FID": 40, "Shape_Leng": 95156.952139500005, "Shape_Area": 459583893.96700007 }, "geometry": { "type": "MultiPolygon", "coordinates": [ [ [ [ 17.521398012240454, 55.211263584351386, 0.0 ], [ 17.518789549732215, 55.169967354387012, 0.0 ], [ 17.361934649633252, 55.173108205481064, 0.0 ], [ 17.364381054999221, 55.214409241271532, 0.0 ], [ 17.207334327186917, 55.217352910155007, 0.0 ], [ 17.209624452020332, 55.258658098869546, 0.0 ], [ 17.211920481253717, 55.299962941993506, 0.0 ], [ 17.214222433075847, 55.34126744021976, 0.0 ], [ 17.216530332117664, 55.382571593434115, 0.0 ], [ 17.374229887431063, 55.379609841386433, 0.0 ], [ 17.376708011204585, 55.420909104204206, 0.0 ], [ 17.534541529140654, 55.417739270466356, 0.0 ], [ 17.531899253794634, 55.376444862555594, 0.0 ], [ 17.529263787638005, 55.33515008991818, 0.0 ], [ 17.526635107716665, 55.293854952808701, 0.0 ], [ 17.524013191220611, 55.252559450582098, 0.0 ], [ 17.521398012240454, 55.211263584351386, 0.0 ] ] ] ] } }
]
}
