{
"type": "FeatureCollection",
"name": "24119",
"crs": { "type": "name", "properties": { "name": "urn:ogc:def:crs:OGC:1.3:CRS84" } },
"features": [
{ "type": "Feature", "properties": { "area_km2": 147.69375433100001, "PROJECT_NO": 24119.0, "NAME": "14.E.4", "TYPE": "OWF", "NO": 0, "status": "COMPLETED", "geotechnic": null, "ORIG_FID": 34, "Shape_Leng": 51876.773737199997, "Shape_Area": 147693754.331 }, "geometry": { "type": "MultiPolygon", "coordinates": [ [ [ [ 15.307277168666813, 54.423846952558669, 0.0 ], [ 15.30643635515673, 54.423563792632713, 0.0 ], [ 15.300536074792848, 54.425001237750038, 0.0 ], [ 15.28683085101005, 54.428338049969767, 0.0 ], [ 15.273123399466126, 54.431673305411664, 0.0 ], [ 15.259413723926407, 54.435007002699273, 0.0 ], [ 15.245701820218214, 54.43833914290952, 0.0 ], [ 15.23198769202658, 54.441669725563479, 0.0 ], [ 15.218271338503817, 54.444998749141959, 0.0 ], [ 15.204552761799729, 54.448326213119167, 0.0 ], [ 15.190831959364242, 54.451652117721316, 0.0 ], [ 15.17710893326479, 54.454976463319618, 0.0 ], [ 15.163383684281662, 54.458299247546258, 0.0 ], [ 15.149656211321862, 54.461620471572246, 0.0 ], [ 15.147745031858825, 54.467267615967678, 0.0 ], [ 15.158106615583051, 54.473835002118051, 0.0 ], [ 15.168471519810874, 54.480401491950111, 0.0 ], [ 15.178839744260316, 54.486967086557769, 0.0 ], [ 15.189211292066208, 54.493531783544476, 0.0 ], [ 15.199586162947263, 54.50009558400383, 0.0 ], [ 15.20996435987216, 54.506658487332444, 0.0 ], [ 15.220345882810326, 54.513220491932593, 0.0 ], [ 15.230730734730782, 54.519781597199966, 0.0 ], [ 15.241118915354257, 54.526341804227606, 0.0 ], [ 15.251510427734241, 54.532901111513382, 0.0 ], [ 15.261905271674873, 54.539459519252979, 0.0 ], [ 15.27230345023019, 54.546017025943357, 0.0 ], [ 15.282704963286317, 54.552573630882769, 0.0 ], [ 15.293109813652723, 54.559129335258632, 0.0 ], [ 15.303518002841759, 54.565684137519, 0.0 ], [ 15.313929530821053, 54.572238036064569, 0.0 ], [ 15.324344398858344, 54.578791032034488, 0.0 ], [ 15.334762609929157, 54.585343124820263, 0.0 ], [ 15.338485022491456, 54.577118763612717, 0.0 ], [ 15.342205935124497, 54.56889427692888, 0.0 ], [ 15.345925352092925, 54.560669664060747, 0.0 ], [ 15.349643269699765, 54.552444926758106, 0.0 ], [ 15.353359693830809, 54.544220063462156, 0.0 ], [ 15.357074622492251, 54.535995074175112, 0.0 ], [ 15.360788058239464, 54.527769959936009, 0.0 ], [ 15.364500000621389, 54.519544720793682, 0.0 ], [ 15.364500000224165, 54.512474265565317, 0.0 ], [ 15.364500000414175, 54.505403802664638, 0.0 ], [ 15.364499999719802, 54.498333331147286, 0.0 ], [ 15.374086425716815, 54.498333330938515, 0.0 ], [ 15.377790253686394, 54.490146513002891, 0.0 ], [ 15.381492602041636, 54.481959571876764, 0.0 ], [ 15.38519347201648, 54.473772505860076, 0.0 ], [ 15.388892864684923, 54.465585315047093, 0.0 ], [ 15.392590779501088, 54.457398000383108, 0.0 ], [ 15.394479720909009, 54.453214085721612, 0.0 ], [ 15.385937915330381, 54.45033746962428, 0.0 ], [ 15.385899751928605, 54.450324617024052, 0.0 ], [ 15.340031767281998, 54.43487769876274, 0.0 ], [ 15.34000486537524, 54.434868639798331, 0.0 ], [ 15.324700319117621, 54.429714544456395, 0.0 ], [ 15.307346379924519, 54.423870261169405, 0.0 ], [ 15.307277168666813, 54.423846952558669, 0.0 ] ] ] ] } },
{ "type": "Feature", "properties": { "area_km2": 125.888934472, "PROJECT_NO": 24119.0, "NAME": "14.E.3", "TYPE": "OWF", "NO": 0, "status": "COMPLETED", "geotechnic": null, "ORIG_FID": 35, "Shape_Leng": 53776.4143444, "Shape_Area": 125888934.472 }, "geometry": { "type": "MultiPolygon", "coordinates": [ [ [ [ 15.049340091932633, 54.551601089078844, 0.0 ], [ 15.052658513535979, 54.554825482818998, 0.0 ], [ 15.054393715837032, 54.55651481456453, 0.0 ], [ 15.055816472027393, 54.557899957484914, 0.0 ], [ 15.056829049593652, 54.558885767285936, 0.0 ], [ 15.058130936330848, 54.560153237561948, 0.0 ], [ 15.059288816072444, 54.56128050607839, 0.0 ], [ 15.060418159724563, 54.562379994562555, 0.0 ], [ 15.061457981436247, 54.563392327470673, 0.0 ], [ 15.062734789722244, 54.564635382752911, 0.0 ], [ 15.063776321088632, 54.565649380440625, 0.0 ], [ 15.064831856964039, 54.566677011724863, 0.0 ], [ 15.0738888903313, 54.566677011925208, 0.0 ], [ 15.088333336580705, 54.56667528778307, 0.0 ], [ 15.102777780753442, 54.566671839514136, 0.0 ], [ 15.117222222779436, 54.566666668075854, 0.0 ], [ 15.130935208480851, 54.567644329341675, 0.0 ], [ 15.144648852229803, 54.568620437973678, 0.0 ], [ 15.158363151398826, 54.569594991969247, 0.0 ], [ 15.172078106276665, 54.570567991218326, 0.0 ], [ 15.185793712352584, 54.571539437258316, 0.0 ], [ 15.199509971627313, 54.572509328234666, 0.0 ], [ 15.213226882844792, 54.573477663988854, 0.0 ], [ 15.226944444665552, 54.574444445259715, 0.0 ], [ 15.241523472271902, 54.576856245978455, 0.0 ], [ 15.256104225085572, 54.579266290235211, 0.0 ], [ 15.270686698814863, 54.581674577474438, 0.0 ], [ 15.285270893881254, 54.584081106387657, 0.0 ], [ 15.299856808996823, 54.586485877412869, 0.0 ], [ 15.31444444458073, 54.588888889241268, 0.0 ], [ 15.328531090876485, 54.591675696262293, 0.0 ], [ 15.331624169400172, 54.592287221268549, 0.0 ], [ 15.334762609929157, 54.585343124820263, 0.0 ], [ 15.324344398858344, 54.578791032034488, 0.0 ], [ 15.313929530821053, 54.572238036064569, 0.0 ], [ 15.303518002841759, 54.565684137519, 0.0 ], [ 15.293109813652723, 54.559129335258632, 0.0 ], [ 15.282704963286317, 54.552573630882769, 0.0 ], [ 15.27230345023019, 54.546017025943357, 0.0 ], [ 15.261905271674873, 54.539459519252979, 0.0 ], [ 15.251510427734241, 54.532901111513382, 0.0 ], [ 15.241118915354257, 54.526341804227606, 0.0 ], [ 15.230730734730782, 54.519781597199966, 0.0 ], [ 15.220345882810326, 54.513220491932593, 0.0 ], [ 15.20996435987216, 54.506658487332444, 0.0 ], [ 15.199586162947263, 54.50009558400383, 0.0 ], [ 15.189211292066208, 54.493531783544476, 0.0 ], [ 15.178839744260316, 54.486967086557769, 0.0 ], [ 15.168471519810874, 54.480401491950111, 0.0 ], [ 15.158106615583051, 54.473835002118051, 0.0 ], [ 15.147745031858825, 54.467267615967678, 0.0 ], [ 15.137868228200146, 54.469758242445607, 0.0 ], [ 15.127990226370564, 54.472248060868424, 0.0 ], [ 15.126817339261356, 54.478855724094203, 0.0 ], [ 15.125644074740325, 54.485463368496511, 0.0 ], [ 15.124470432587195, 54.492070994069145, 0.0 ], [ 15.111343872273226, 54.495263381013466, 0.0 ], [ 15.098215267429611, 54.498454340829596, 0.0 ], [ 15.085084617047139, 54.501643872963598, 0.0 ], [ 15.071951923113376, 54.504831977858132, 0.0 ], [ 15.058817183165258, 54.508018654011934, 0.0 ], [ 15.045680400732969, 54.511203901918179, 0.0 ], [ 15.03254157326862, 54.514387720971961, 0.0 ], [ 15.019400704390675, 54.517570110770521, 0.0 ], [ 15.01538885898867, 54.518541091825959, 0.0 ], [ 15.048906325395548, 54.551172488588712, 0.0 ], [ 15.049340091932633, 54.551601089078844, 0.0 ] ] ] ] } },
{ "type": "Feature", "properties": { "area_km2": 91.177115026300001, "PROJECT_NO": 24119.0, "NAME": "14.E.2", "TYPE": "OWF", "NO": 0, "status": "COMPLETED", "geotechnic": null, "ORIG_FID": 36, "Shape_Leng": 36947.784433200002, "Shape_Area": 91177115.026299998 }, "geometry": { "type": "MultiPolygon", "coordinates": [ [ [ [ 15.054764604457286, 54.408599281223196, 0.0 ], [ 15.045355364367349, 54.402592519054558, 0.0 ], [ 15.034540830409833, 54.407856262372853, 0.0 ], [ 15.023723525682389, 54.413119032776407, 0.0 ], [ 15.012903451011423, 54.418380829760203, 0.0 ], [ 15.002080604148425, 54.423641652717755, 0.0 ], [ 14.991254984382662, 54.428901501092881, 0.0 ], [ 14.980426592542033, 54.434160374380568, 0.0 ], [ 14.969595426290338, 54.4394182728701, 0.0 ], [ 14.95876148654416, 54.444675195159633, 0.0 ], [ 14.947924770967045, 54.449931141537846, 0.0 ], [ 14.945916203490713, 54.45090489193985, 0.0 ], [ 14.953662036584525, 54.458445990994214, 0.0 ], [ 14.954099211912997, 54.458875241777569, 0.0 ], [ 14.955505035841659, 54.460240276955474, 0.0 ], [ 14.958903757302625, 54.463549162560646, 0.0 ], [ 14.970856576429114, 54.475186036429513, 0.0 ], [ 14.970889218788262, 54.475217846949889, 0.0 ], [ 15.01538885898867, 54.518541091825959, 0.0 ], [ 15.019400704390675, 54.517570110770521, 0.0 ], [ 15.03254157326862, 54.514387720971961, 0.0 ], [ 15.045680400732969, 54.511203901918179, 0.0 ], [ 15.058817183165258, 54.508018654011934, 0.0 ], [ 15.071951923113376, 54.504831977858132, 0.0 ], [ 15.085084617047139, 54.501643872963598, 0.0 ], [ 15.098215267429611, 54.498454340829596, 0.0 ], [ 15.111343872273226, 54.495263381013466, 0.0 ], [ 15.124470432587195, 54.492070994069145, 0.0 ], [ 15.125644074740325, 54.485463368496511, 0.0 ], [ 15.126817339261356, 54.478855724094203, 0.0 ], [ 15.127990226370564, 54.472248060868424, 0.0 ], [ 15.129064134299158, 54.464437408982583, 0.0 ], [ 15.130137633567632, 54.45662673802034, 0.0 ], [ 15.120706358868345, 54.450625899353454, 0.0 ], [ 15.111277842399623, 54.44462431942938, 0.0 ], [ 15.101852083160978, 54.438621997843811, 0.0 ], [ 15.092429080067321, 54.432618935089167, 0.0 ], [ 15.083008832033711, 54.42661513165762, 0.0 ], [ 15.073591336437378, 54.420610587991121, 0.0 ], [ 15.064176595269895, 54.414605304681501, 0.0 ], [ 15.054764604457286, 54.408599281223196, 0.0 ] ] ] ] } },
{ "type": "Feature", "properties": { "area_km2": 82.444236238499997, "PROJECT_NO": 24119.0, "NAME": "14.E.1", "TYPE": "OWF", "NO": 0, "status": "COMPLETED", "geotechnic": null, "ORIG_FID": 37, "Shape_Leng": 38462.815754399999, "Shape_Area": 82444236.238499999 }, "geometry": { "type": "MultiPolygon", "coordinates": [ [ [ [ 15.152964901518768, 54.371879395301676, 0.0 ], [ 15.126758506536204, 54.363053908314058, 0.0 ], [ 15.12120852861155, 54.365754045201193, 0.0 ], [ 15.11038067833298, 54.371019614456941, 0.0 ], [ 15.099550056936112, 54.376284207835695, 0.0 ], [ 15.088716663712431, 54.381547824780029, 0.0 ], [ 15.077880499490504, 54.386810464782357, 0.0 ], [ 15.067041562026112, 54.392072127235231, 0.0 ], [ 15.056199850525562, 54.397332812477622, 0.0 ], [ 15.045355364367349, 54.402592519054558, 0.0 ], [ 15.054764604457286, 54.408599281223196, 0.0 ], [ 15.064176595269895, 54.414605304681501, 0.0 ], [ 15.073591336437378, 54.420610587991121, 0.0 ], [ 15.083008832033711, 54.42661513165762, 0.0 ], [ 15.092429080067321, 54.432618935089167, 0.0 ], [ 15.101852083160978, 54.438621997843811, 0.0 ], [ 15.111277842399623, 54.44462431942938, 0.0 ], [ 15.120706358868345, 54.450625899353454, 0.0 ], [ 15.130137633567632, 54.45662673802034, 0.0 ], [ 15.144090355747782, 54.453251322904102, 0.0 ], [ 15.158040781628383, 54.449874295218848, 0.0 ], [ 15.17198891201997, 54.44649565651315, 0.0 ], [ 15.185934744907559, 54.443115405546841, 0.0 ], [ 15.199878279647965, 54.439733542922951, 0.0 ], [ 15.21381951859405, 54.436350070238284, 0.0 ], [ 15.22775845811055, 54.432964987101862, 0.0 ], [ 15.241695100635358, 54.429578294213037, 0.0 ], [ 15.255629443991189, 54.426189992126567, 0.0 ], [ 15.269561486002512, 54.422800081398094, 0.0 ], [ 15.283491230729959, 54.419408561876608, 0.0 ], [ 15.289645581993364, 54.417909183859209, 0.0 ], [ 15.167154749685027, 54.376658093741611, 0.0 ], [ 15.167087089701409, 54.376635307327504, 0.0 ], [ 15.153036188659092, 54.371903403237958, 0.0 ], [ 15.152964901518768, 54.371879395301676, 0.0 ] ] ] ] } }
]
}
